uri,name,iso_nn6_nc2_1,iso_nn6_nc2_2,se_nn6_nc2_1,se_nn6_nc2_2,km_nn6_nc2,iso_nn9_nc3_1,iso_nn9_nc3_2,iso_nn9_nc3_3,se_nn9_nc3_1,se_nn9_nc3_2,se_nn9_nc3_3,km_nn9_nc3,iso_n6_p1,iso_n6_p2
spotify:artist:021hNAnkFIbyFyL97br6NB,Kellie Pickler,-1.480759197,1.618372619,-0.016379466,-0.015795334,2,-1.555861324,-1.633812159,0.525685168,-0.016379466,-0.015795334,0.047646738,2,-1.112066725,-0.996888037
spotify:artist:02rd0anEWfMtF7iMku9uor,Reba McEntire,-2.537292426,2.994053765,-0.01611688,-0.015088222,2,-2.034573778,-2.127795296,0.290227492,-0.01611688,-0.015088222,0.04310773,2,-1.520465949,-1.455179509
spotify:artist:070kGpqtESdDsLb3gdMIyx,Easton Corbin,-1.752522848,-2.452210223,0.049947349,0.008530221,0,-0.634648558,1.696104858,0.240835875,0.049947349,0.008530221,0.00212535,0,-0.681030081,1.211234323
spotify:artist:0BvkDsjIUla7X0k6CSWh1I,Luke Bryan,-2.671376852,-3.452117603,0.060709024,0.01362619,6,-1.732829601,3.145395622,-1.663726163,0.060709024,0.01362619,0.014093624,6,-1.30613927,1.697362855
spotify:artist:0FcmRWJUfnCuwoXE1H2b0H,Restless Heart,2.08242835,0.711273323,-0.013637646,-0.006429093,0,1.202562312,-0.349054695,-1.331200087,-0.013637646,-0.006429093,-0.006553877,0,0.760089482,-0.532056883
spotify:artist:0HLOP0AdsaWe5Pt5TNueGC,Terri Clark,-6.040836984,7.532613105,-0.014475665,-0.015113653,4,-6.236687562,-6.756185849,0.879376562,-0.014475665,-0.015113653,0.031633905,4,-3.891998663,-4.091617389
spotify:artist:0IdYRFTswLdsGwSnzOaGNF,Gretchen Wilson,-2.299815418,2.657588917,-0.015703815,-0.016153839,2,-1.761124391,-1.855809238,0.594543092,-0.015703815,-0.016153839,0.043237993,2,-1.089806077,-1.247044205
spotify:artist:0KzlJXg6A3NVSCkRjecKnS,Larry Gatlin & The Gatlin Brothers,-0.125224968,-0.048648558,-0.023725596,0.037313929,0,-0.038059022,-0.029420538,-0.063253698,-0.023725596,0.037313929,0.005114921,0,-0.202859182,0.182731409
spotify:artist:0MMNJf1JrxeSFE2pcpX50b,K.T. Oslin,-0.763474268,1.729651523,-0.02036674,0.014589296,0,-0.752186348,-0.570378484,-0.594247211,-0.02036674,0.014589296,0.020298541,0,-0.543143003,-0.406366109
spotify:artist:0OraDGrDGEuqJ2d7250K1i,Doug Supernaw,1.014465091,0.624103771,-0.014594522,0.000952444,0,0.769310859,-0.231907217,-0.686916116,-0.014594522,0.000952444,-0.017467363,0,0.265812716,-0.17240302
spotify:artist:0RKP52f5PNDCRZ9Luq2Sr7,Jerrod Niemann,-0.84772638,-0.858457325,0.025930461,-0.002398997,0,-0.644381943,1.075070026,1.058125643,0.025930461,-0.002398997,-0.020673058,0,-0.106760602,0.914743772
spotify:artist:0SwVn4s8PdhY9XQhi9SetC,Carolyn Dawn Johnson,-0.412543675,0.42418897,-0.017144287,-0.016856506,0,-0.233063462,-0.451599334,-0.198089405,-0.017144287,-0.016856506,0.058012698,0,-0.557757843,-0.331594515
spotify:artist:0UMJlMGr85C0C5D7wmB0Ik,T. Graham Brown,0.112881575,-0.033827473,-0.022180533,0.031231218,0,-0.39927698,0.178430057,-0.331265054,-0.022180533,0.031231218,0.002308848,0,-0.49744078,-0.261046616
spotify:artist:0XKOBt59crntr7HQXXO8Yz,Brooks & Dunn,-0.01900271,-0.261499326,-0.003621241,-0.014483837,0,0.063226162,-0.019117121,0.271726303,-0.003621241,-0.014483837,-0.029791201,0,0.15015082,0.327513675
spotify:artist:0ZZOIWyRv8tdx0kLPlTtMg,Ronnie McDowell,0.082556361,0.530133141,-0.025192576,0.045324169,0,-0.08073273,-0.087095052,-0.354186922,-0.025192576,0.045324169,0.010385324,0,-0.204989279,0.11548521
spotify:artist:0aqrM7Fo3Ml66Kc5JAzmjt,Deana Carter,-5.828203433,7.252880908,-0.016149237,-0.015494988,4,-4.841968224,-5.205420251,0.170109545,-0.016149237,-0.015494988,0.044317619,4,-3.141330776,-4.022301405
spotify:artist:0c08N8UlFjDaup9TNDaWxy,Sonny James,-0.134528268,-0.179367444,-0.036698804,0.138462221,0,-0.007205461,-0.143839404,-0.355823936,-0.036698804,0.138462221,-0.012216071,0,-0.221542139,0.200451184
spotify:artist:0dlwjJe4kg9TgOMN184bJF,Mark Wills,1.779571012,-0.712566831,-0.005700188,-0.013807971,7,0.941979018,0.898257073,3.511506355,-0.005700188,-0.013807971,-0.015657971,7,1.98209847,-0.22045275
spotify:artist:0dvKgSdNB2U1gfp6ZcekYi,Frankie Ballard,-1.321608515,-2.63837133,0.057989953,0.012319732,0,-1.010326734,1.27315248,-0.28616487,0.057989953,0.012319732,0.010950981,0,-0.780093514,1.16330709
spotify:artist:0gWNSMYCSHF4wxIs1XTSDh,Bill Anderson,-0.134528268,-0.179367444,-0.036698804,0.138462221,0,-0.007205461,-0.143839404,-0.355823936,-0.036698804,0.138462221,-0.012216071,0,-0.221542139,0.200451184
spotify:artist:0jgAONnsHxrwAlhkMUVS78,Eddie Rabbitt,-0.125224968,-0.048648558,-0.023725596,0.037313929,0,-0.038059022,-0.029420538,-0.063253698,-0.023725596,0.037313929,0.005114921,0,-0.202859182,0.182731409
spotify:artist:0khzcQ6PQU5a6dl1Qss3pt,Lorrie Morgan,-6.001383005,7.362911311,-0.016098712,-0.009165199,4,-5.172265254,-5.214494961,0.763845682,-0.016098712,-0.009165199,0.027541868,4,-3.110455413,-3.921497806
spotify:artist:0oBEeN6BCxEgMogzThqrPf,Big & Rich,0.788377159,-1.474002528,0.004266657,-0.011741589,7,0.340727335,1.349338037,2.802975734,0.004266657,-0.011741589,-0.038459142,7,0.88960891,0.540125008
spotify:artist:0q2lY1ZzFckzciuoMtUvck,Canaan Smith,-1.321608515,-2.63837133,0.057989953,0.012319732,0,-1.010326734,1.27315248,-0.28616487,0.057989953,0.012319732,0.010950981,0,-0.780093514,1.16330709
spotify:artist:0svyIX7Xu3DVMkrOtB88i6,Diamond Rio,14.4487653,0.604463026,-0.00801063,-0.013249018,8,9.936733496,-1.405210774,1.229108163,-0.00801063,-0.013249018,-0.017525876,8,6.909225073,-0.378821492
spotify:artist:0szj7Sxtyluyjc2Arj0njB,Ferlin Husky,-0.134528268,-0.179367444,-0.036698804,0.138462221,0,-0.007205461,-0.143839404,-0.355823936,-0.036698804,0.138462221,-0.012216071,0,-0.221542139,0.200451184
spotify:artist:0u2FHSq3ln94y5Q57xazwf,Keith Urban,-2.052793099,-2.448945182,0.060287138,0.013421156,6,-1.644995679,2.36685396,-1.052555563,0.060287138,0.013421156,0.013582825,6,-1.08264852,1.456857053
spotify:artist:0xxJO75NeIAF5jYruLYIDT,Tracy Byrd,10.32728321,0.776532011,-0.006151835,-0.012938643,8,9.446592603,-0.893212369,2.823056108,-0.006151835,-0.012938643,-0.029916041,8,6.261300277,0.039550236
spotify:artist:0yXAvxrEkI26bKj0o4yyou,Highway 101,-0.789400266,1.263014464,-0.020489848,0.018427474,0,-1.132356468,-0.420335424,-0.507653168,-0.020489848,0.018427474,0.011487368,0,-0.646190997,-0.905454967
spotify:artist:12bBoCZdPZbBEq1xHT0heD,Rebecca Lynn Howard,-0.412543675,0.42418897,-0.017144287,-0.016856506,0,-0.233063462,-0.451599334,-0.198089405,-0.017144287,-0.016856506,0.058012698,0,-0.557757843,-0.331594515
spotify:artist:13YmWQJFwgZrd4bf5IjMY4,Brad Paisley,-1.646711454,-1.96332086,0.051193532,0.009113837,0,-0.863152088,1.660139701,-0.293224516,0.051193532,0.009113837,0.003423689,0,-0.577154181,1.213173875
spotify:artist:13YoXxZt6SLg96dQE1vkHy,Suzy Bogguss,-2.047955514,2.565463554,-0.016404741,-0.013505169,2,-2.034958177,-2.337173254,-0.091414262,-0.016404741,-0.013505169,0.04060123,2,-1.555446166,-1.809220125
spotify:artist:1456WwI15Lm9CktCzkLZvm,Josh Gracin,0.386286204,-0.739987264,0.003293322,-0.012191208,7,0.36062205,0.818623296,2.516656,0.003293322,-0.012191208,-0.036295363,7,0.648347827,0.805281648
spotify:artist:14h0UcPJlGYv5Qrjp7m1jQ,Jack Greene,-0.134528268,-0.179367444,-0.036698804,0.138462221,0,-0.007205461,-0.143839404,-0.355823936,-0.036698804,0.138462221,-0.012216071,0,-0.221542139,0.200451184
spotify:artist:1By9QBFnjZAoI83BZppHlt,Billy Currington,-5.709616377,-8.384877952,0.055690967,0.011268942,3,-3.394904426,7.458838263,-1.818747891,0.055690967,0.011268942,0.008689039,3,-2.628245214,5.004319462
spotify:artist:1Fj0R2t4HaJa3oUe8azB8R,Ty Herndon,1.069315675,0.504342095,-0.011228341,-0.01415996,0,0.63658618,-0.453750217,0.092609311,-0.011228341,-0.01415996,-0.00705284,0,-0.085357101,-0.292626304
spotify:artist:1LFKKuzn302wp15dYH28id,Tammy Wynette,-0.134528268,-0.179367444,-0.036698804,0.138462221,0,-0.007205461,-0.143839404,-0.355823936,-0.036698804,0.138462221,-0.012216071,0,-0.221542139,0.200451184
spotify:artist:1SX44N5qjWuFcCK8WTO0c6,Pam Tillis,-6.197432497,7.625476686,-0.014959576,-0.012261585,4,-6.231112854,-6.680536194,0.923527282,-0.014959576,-0.012261585,0.024812451,4,-1.395632982,-4.908757955
spotify:artist:1SlB319k1toEaGunEFn6yq,Cyndi Thomson,-0.412543675,0.42418897,-0.017144287,-0.016856506,0,-0.233063462,-0.451599334,-0.198089405,-0.017144287,-0.016856506,0.058012698,0,-0.557757843,-0.331594515
spotify:artist:1SvG3y1gYAFOsv9785Xu9T,Tom T. Hall,-0.134528268,-0.179367444,-0.036698804,0.138462221,0,-0.007205461,-0.143839404,-0.355823936,-0.036698804,0.138462221,-0.012216071,0,-0.221542139,0.200451184
spotify:artist:1Tdrtr2WwDDde01GJllidM,Trick Pony,-0.763558725,0.332958293,-0.016201877,-0.01642123,2,-1.315521688,-1.574607454,-0.068937853,-0.016201877,-0.01642123,0.048190712,2,-1.180080449,-0.866285215
spotify:artist:1UTPBmNbXNTittyMJrNkvw,Blake Shelton,-2.246238875,-2.851925146,0.056509113,0.011640011,6,-1.804448567,2.886151594,-0.842168239,0.056509113,0.011640011,0.009423311,6,-1.217926367,1.80138479
spotify:artist:1XhhO2dTs2fKyhILj0aam6,Phil Vassar,1.919913994,-1.017498309,-0.001865182,-0.013071866,5,2.317274828,1.258703311,4.731115713,-0.001865182,-0.013071866,-0.034114303,5,2.365524639,0.72341714
spotify:artist:1YPIe9qIMa99O0a0OW47Be,Confederate Railroad,6.77080397,1.079409239,-0.011258132,-0.008642821,1,5.23218742,-1.791526583,-3.766118148,-0.011258132,-0.008642821,-0.023130463,1,3.548571614,-1.348553821
spotify:artist:1Zn69emN3uZsF6YwCrkgYp,Trent Tomlinson,0.580913034,-1.073046935,0.005598176,-0.011426998,7,0.269927333,1.109864887,2.464223507,0.005598176,-0.011426998,-0.038463417,7,0.665422058,0.458764329
spotify:artist:1aSIXmBKKrEVIbGLwhedIe,Chely Wright,-3.575100485,4.571014237,-0.016226787,-0.01458843,2,-3.61845853,-4.091164011,0.163405199,-0.016226787,-0.01458843,0.042506541,2,-2.419746608,-3.001056456
spotify:artist:1dID9zgn0OV0Y8ud7Mh2tS,Dustin Lynch,-3.343211083,-4.592342425,0.060320795,0.013442625,6,-2.380626914,3.89803905,-1.799756531,0.060320795,0.013442625,0.01367477,6,-1.716273194,1.993807387
spotify:artist:1efrXlPhLKv7PvgUxVcqIS,Emerson Drive,0.386286204,-0.739987264,0.003293322,-0.012191208,7,0.36062205,0.818623296,2.516656,0.003293322,-0.012191208,-0.036295363,7,0.648347827,0.805281648
spotify:artist:1fMdO9vLUd6wW4jbMeNiup,Mel McDaniel,0.908289494,0.689699297,-0.015856405,0.004363473,0,-0.257669872,0.219775736,-0.637721977,-0.015856405,0.004363473,-0.008175959,0,0.583442939,-0.839257291
spotify:artist:1mQ9wgWshECdFsDbT7ATzT,Daryle Singletary,6.827434796,0.991986551,-0.009817843,-0.011058921,1,5.76168987,-1.629500222,-2.102642347,-0.009817843,-0.011058921,-0.024601764,1,4.012768448,-1.302484069
spotify:artist:1mfDfLsMxYcOOZkzBxvSVW,Cole Swindell,-2.68680896,-3.500946626,0.061721079,0.014112315,6,-1.729093521,3.090592838,-1.744240266,0.061721079,0.014112315,0.015266979,6,-1.359763234,1.649819657
spotify:artist:1n2pb9Tsfe4SwAjmUac6YT,Jake Owen,-6.206232124,-9.375875524,0.059993951,0.013287529,3,-3.81850853,7.046114051,-1.984705825,0.059993951,0.013287529,0.013292346,3,-2.642142111,4.952336027
spotify:artist:1pTuR132U5b4Rizal2Pr7m,Randy Travis,1.570605598,0.520001348,-0.008542749,-0.012951535,0,1.943893997,-0.929413358,-1.287618931,-0.008542749,-0.012951535,-0.030034219,0,1.465582278,-0.19102102
spotify:artist:1rFQlnVFNwI3H6QLDL7LFN,The Kendalls,-0.462385076,-0.290892743,-0.028538992,0.073700106,0,-0.383921176,0.182936188,-0.291205763,-0.028538992,0.073700106,0.001094725,0,-0.623138143,0.27207721
spotify:artist:1zhIzONVRlTfD1VQRauHMl,Chris Cagle,4.312663267,-1.752846228,0.006508132,-0.01047884,5,2.843274774,3.351941484,7.238749819,0.006508132,-0.01047884,-0.033598312,5,1.615777565,2.47063323
spotify:artist:218kRJZ7FJs0hWIk8Ynzhz,Charlie Rich,-0.134528268,-0.179367444,-0.036698804,0.138462221,0,-0.007205461,-0.143839404,-0.355823936,-0.036698804,0.138462221,-0.012216071,0,-0.221542139,0.200451184
spotify:artist:23C7hNBr8GRdsk3VoTSZXh,T.G. Sheppard,-0.280168397,0.392335868,-0.021477708,0.025460278,0,-0.518102377,0.163861015,-0.394250842,-0.021477708,0.025460278,0.006512072,0,-0.583531576,-0.374873647
spotify:artist:23YxuG76RQvo4r7jChCwxK,Eddy Raven,0.112881575,-0.033827473,-0.022180533,0.031231218,0,-0.39927698,0.178430057,-0.331265054,-0.022180533,0.031231218,0.002308848,0,-0.49744078,-0.261046616
spotify:artist:25NQNriVT2YbSW80ILRWJa,Faith Hill,-2.588866393,3.100911089,-0.015881115,-0.016204164,2,-2.499168649,-2.5965566,0.71769917,-0.015881115,-0.016204164,0.044691859,2,-1.436094051,-1.463777186
spotify:artist:27Zy5YAD3Atf56oSRfrfis,The Forester Sisters,0.082556361,0.530133141,-0.025192576,0.045324169,0,-0.08073273,-0.087095052,-0.354186922,-0.025192576,0.045324169,0.010385324,0,-0.204989279,0.11548521
spotify:artist:2BQVRw9md4UKcGUrDXABCD,Tracy Lawrence,14.02676833,0.459092984,-0.006153802,-0.012880659,8,9.742654496,-1.280042751,1.633719884,-0.006153802,-0.012880659,-0.029544089,8,6.761735984,0.177007568
spotify:artist:2IvkS5MXK0vPGnwyJsrEyV,Eric Church,-3.515806364,-5.153792797,0.056995698,0.011862788,6,-2.415352048,4.509232207,-0.6964946,0.056995698,0.011862788,0.009920701,6,-1.763339661,2.441747061
spotify:artist:2M4Yt7oKGoYd0wqU44k4i2,Travis Tritt,1.305619371,0.542542744,-0.008804286,-0.012974258,0,1.942779229,-0.930980409,-1.273795142,-0.008804286,-0.012974258,-0.029484199,0,1.381343034,-0.230985135
spotify:artist:2cNV8vNe2fPFf6OfGOBbSS,Mark Chesnutt,9.273040164,1.244188493,-0.009411123,-0.011603586,1,8.584629308,-2.051482117,-2.279365104,-0.009411123,-0.011603586,-0.024034229,1,5.326519467,-1.050552004
spotify:artist:2d3VHzlOEwXvmBdS4pzOPL,LeAnn Rimes,-1.061177886,1.096036314,-0.016834833,-0.016557239,0,-0.935545801,-0.877598175,0.360670214,-0.016834833,-0.016557239,0.053649542,0,-0.460676265,-0.29259401
spotify:artist:2hJPr4lk7Q8SSvCVBl9fWM,Kip Moore,-5.166042092,-7.533656175,0.059631558,0.013105526,3,-3.911717408,6.809517304,-2.547855849,0.059631558,0.013105526,0.012807277,3,-2.614644646,4.901608514
spotify:artist:2pvPkEAN9xSrDrIVUOxWMB,Dottie West,-0.370818934,-0.271697118,-0.03094569,0.091893195,0,-0.299278778,0.037466228,-0.656771729,-0.03094569,0.091893195,-0.000915373,0,-0.617874453,-0.06832748
spotify:artist:2qFe0FyUMK8XXoyOsfYJr2,SHeDAISY,-3.891650862,4.799593744,-0.016159997,-0.015813439,2,-3.093223484,-3.460478184,0.473729456,-0.016159997,-0.015813439,0.045772192,2,-2.07438348,-2.14533899
spotify:artist:2qgvmDsc4jrqbAbjq1HGM2,Rodney Atkins,-5.708243876,-8.308344742,0.043973997,0.005947128,3,-1.560130994,6.70882465,2.400007994,0.043973997,0.005947128,-0.002680811,3,-0.865858453,5.256586066
spotify:artist:2sgj794K3UaW1ApX28ZUhY,The Kentucky Headhunters,1.070609253,0.51958246,-0.01156562,-0.009150667,0,0.607890604,-0.548389014,-0.544569955,-0.01156562,-0.009150667,-0.026361023,0,0.12793244,0.045179746
spotify:artist:2uB5sjjJwj4kB6TrRGLYJO,Mindy McCready,-5.965980218,7.28628351,-0.016688483,-0.015920998,4,-5.031125857,-4.972280929,0.703788789,-0.016688483,-0.015920998,0.050903205,4,-3.315524516,-3.994098089
spotify:artist:30e8DmahrEamvLbFRPdWmk,Justin Moore,-5.143760767,-7.470113598,0.053264863,0.010166489,3,-3.768158555,6.906134861,-1.969852022,0.053264863,0.010166489,0.006410585,3,-1.721945112,5.059064402
spotify:artist:36eTeLNx8ErucrEyRm6JOo,Shenandoah,9.602767854,1.270428865,-0.011911899,-0.00944719,1,8.585203953,-2.359006534,-4.331444849,-0.011911899,-0.00944719,-0.011971472,1,3.695747276,-3.048201264
spotify:artist:37W8SKV5Vc8lcGtdyWCA5m,Gary Allan,0.947356734,-1.573362166,0.002494697,-0.012182688,7,0.459493556,1.864988323,3.89048271,0.002494697,-0.012182688,-0.037943726,7,1.035191218,0.893221857
spotify:artist:39NR3AUhpbbqKM33vWn2fp,Brothers Osborne,-3.7717022,-5.376144262,0.059359831,0.01297603,6,-1.999875359,3.209886,-1.168703167,0.059359831,0.01297603,0.012515888,6,-1.697869291,2.141412159
spotify:artist:3Ay15wt0QChT4Kapsuw5Jt,Clint Black,9.378624788,1.25593434,-0.009354292,-0.012717282,1,8.207185155,-2.264745031,-3.957197622,-0.009354292,-0.012717282,-0.026295983,1,4.451578274,-1.37457703
spotify:artist:3FfvYsEGaIb52QPXhg4DcH,Jason Aldean,-2.907138692,-3.961536281,0.057602227,0.012160268,6,-2.355990305,3.94309939,-1.310234187,0.057602227,0.012160268,0.010663853,6,-1.410289389,2.005015301
spotify:artist:3FhuHzOES6VGS9WW1wDymV,Janie Fricke,0.082556361,0.530133141,-0.025192576,0.045324169,0,-0.08073273,-0.087095052,-0.354186922,-0.025192576,0.045324169,0.010385324,0,-0.204989279,0.11548521
spotify:artist:3JTFILRsbbqmkb740jjT0l,Lacy J. Dalton,0.082556361,0.530133141,-0.025192576,0.045324169,0,-0.08073273,-0.087095052,-0.354186922,-0.025192576,0.045324169,0.010385324,0,-0.204989279,0.11548521
spotify:artist:3P33qFNGBVXl86yQYWspFj,Martina McBride,-5.853888475,7.303129321,-0.016387256,-0.01563834,4,-4.84409602,-5.210265621,0.171672952,-0.016387256,-0.01563834,0.047074757,4,-3.638888128,-3.786114631
spotify:artist:3THMgU4KdL7LlO5TEREs2g,Joe Diffie,9.874073722,1.198920618,-0.008437723,-0.012856402,1,9.160272473,-2.029193765,-1.728397208,-0.008437723,-0.012856402,-0.025958033,1,4.962886779,-1.230179849
spotify:artist:3U7k7hBsHF9dy4ELW53Wrv,John Anderson,3.308319799,0.827262346,-0.010210294,-0.011797688,0,2.593310819,-0.694804488,-2.071879053,-0.010210294,-0.011797688,-0.026073272,0,1.779249652,-0.507953554
spotify:artist:3XlIhgydjvC4EniPFZT20j,Trisha Yearwood,-7.617664014,9.611545066,-0.015130013,-0.015007053,4,-6.317637714,-6.883290535,0.903391507,-0.015130013,-0.015007053,0.036193953,4,-3.83468033,-4.060283422
spotify:artist:3XnO697XIus1M0cMuxZjos,The Oak Ridge Boys,-0.960470789,1.101388555,-0.023094819,0.035243069,0,-1.139967601,0.513051567,-1.335597975,-0.023094819,0.035243069,0.004488084,0,-1.470720183,-0.419670164
spotify:artist:3b8QkneNDz4JHKKKlLgYZg,Florida Georgia Line,-2.41795955,-3.046838344,0.06187469,0.014191221,6,-1.599895001,2.361438023,-1.194590454,0.06187469,0.014191221,0.015490629,6,-1.095964362,1.397024095
spotify:artist:3bGXaFVQLASmDMdjjeJr8a,Montgomery Gentry,5.284694626,-1.502939908,0.002659655,-0.011885508,5,2.897889146,1.520695232,6.672904848,0.002659655,-0.011885508,-0.035994847,5,2.101975261,1.940433705
spotify:artist:3bW6mQczkt1r8tnWIDeBVJ,Lee Roy Parnell,1.014465091,0.624103771,-0.014594522,0.000952444,0,0.769310859,-0.231907217,-0.686916116,-0.014594522,0.000952444,-0.017467363,0,0.265812716,-0.17240302
spotify:artist:3cMyqwpNT2D8f0WuaRzzZX,Billy Dean,2.636571031,0.703974479,-0.0117164,-0.011985627,0,1.810899972,-0.449806816,-1.31523231,-0.0117164,-0.011985627,-0.010999152,0,1.659689199,-1.244084022
spotify:artist:3ltFy7g6KKQPPttsdOMlq3,Jo Dee Messina,-5.580618353,6.913866439,-0.015152298,-0.015270268,4,-4.877342339,-5.274990819,0.187244702,-0.015152298,-0.015270268,0.036853985,4,-3.088688358,-3.94430548
spotify:artist:3oSJ7TBVCWMDMiYjXNiCKE,Kane Brown,-1.180870508,-1.049957527,0.06201685,0.014264075,0,-0.883981458,0.922872877,-0.443412735,0.06201685,0.014264075,0.015697019,0,-0.379920268,0.644866475
spotify:artist:3qbnxnvUqR14MJ9g8QwZJK,Lonestar,5.691603785,-1.958213599,-0.003524965,-0.013680009,5,4.490067105,1.634443524,4.763222946,-0.003524965,-0.013680009,-0.026140271,5,2.43197282,0.258866761
spotify:artist:3tkZthBATD0S45hm1DmB2O,Sammy Kershaw,9.199289956,1.233169215,-0.009259868,-0.01159034,1,8.526905297,-2.038188677,-2.296521781,-0.009259868,-0.01159034,-0.025877676,1,5.313698054,-1.029394157
spotify:artist:3vHV92ecrylnUHDM4d2MtC,Tyler Farr,-1.321608515,-2.63837133,0.057989953,0.012319732,0,-1.010326734,1.27315248,-0.28616487,0.057989953,0.012319732,0.010950981,0,-0.780093514,1.16330709
spotify:artist:3yFnqoyp1e54tZEY4ykvNB,Cal Smith,-0.134528268,-0.179367444,-0.036698804,0.138462221,0,-0.007205461,-0.143839404,-0.355823936,-0.036698804,0.138462221,-0.012216071,0,-0.221542139,0.200451184
spotify:artist:3ylJ2aEWS2QkIj4XPiC28z,Paul Overstreet,0.370581374,0.44784027,-0.017623425,0.011055556,0,-0.183501585,-0.298371949,-0.127321422,-0.017623425,0.011055556,-0.008573702,0,0.014495899,-0.003658873
spotify:artist:45S8rtgQSxj1a0tzCNhSeD,Steve Wariner,0.654953217,0.503734968,-0.016409968,0.003066904,0,-0.060862487,-0.40831499,-0.76287857,-0.016409968,0.003066904,-0.001031816,0,0.031033746,-0.361664402
spotify:artist:45kyLFJs5SIEqyzfVopuSc,Bryan White,-1.052336983,1.081149062,-0.015992697,-0.01396896,0,-0.921456643,-0.849337456,0.308187801,-0.015992697,-0.01396896,0.037416134,0,-0.360173223,-0.239075847
spotify:artist:45rAZqRt5nUUMatQzk8qJu,Johnny Lee,-0.344866466,-0.117896253,-0.024459086,0.041319049,0,-0.296997844,0.103897726,-0.238455622,-0.024459086,0.041319049,0.007750123,0,-0.608543004,0.081472831
spotify:artist:46Unp6DY3Zmy7QS1Fx47yq,Hank Locklin,-0.134528268,-0.179367444,-0.036698804,0.138462221,0,-0.007205461,-0.143839404,-0.355823936,-0.036698804,0.138462221,-0.012216071,0,-0.221542139,0.200451184
spotify:artist:4AgQTHagFdBq8VL791lSXz,Keith Anderson,0.580913034,-1.073046935,0.005598176,-0.011426998,7,0.269927333,1.109864887,2.464223507,0.005598176,-0.011426998,-0.038463417,7,0.665422058,0.458764329
spotify:artist:4AwLiAGc1rRLrCepj5rdTI,Collin Raye,10.53924994,1.265117081,-0.010929821,-0.013374106,1,9.527278349,-2.408844351,-3.779157654,-0.010929821,-0.013374106,-0.00618851,1,4.362217188,-4.807632786
spotify:artist:4BYxqVkZyFjtik7crYLg5Q,Chris Young,-1.14772126,-1.006397114,0.057212027,0.011931098,0,-0.901560966,0.996545557,-0.386175649,0.057212027,0.011931098,0.00990261,0,-0.340367944,0.742543345
spotify:artist:4DZGvSv2oMkBUnPz67E6z6,David Nail,-3.841643649,-5.541842816,0.057713006,0.012205829,6,-2.69991398,4.964087588,-1.196550054,0.057713006,0.012205829,0.010745889,6,-1.94224626,2.59750183
spotify:artist:4K3DSWzghkGUcQOEZG9gpo,Chris LeDoux,-0.511761699,0.289293912,-0.007860902,-0.01317692,0,-0.304159343,-0.242317344,0.01888206,-0.007860902,-0.01317692,-0.03338634,0,0.442492963,0.049861293
spotify:artist:4MPkNgar5uTd8Sqvrr7par,Clay Walker,10.86772169,0.05886387,-0.00447103,-0.013173048,8,8.370531486,0.911176167,3.903789611,-0.00447103,-0.013173048,-0.031484694,8,6.30172017,0.915435471
spotify:artist:4MoAOfV4ROWofLG3a3hhBN,Jon Pardi,-5.959410612,-9.150769089,0.060327003,0.013450926,3,-3.803324276,6.965661634,-1.964377216,0.060327003,0.013450926,0.013711043,3,-2.622426521,4.884924364
spotify:artist:4TONBKcqVR1LmPdfJxvkMU,Eric Paslay,-0.765563301,-1.613657024,0.061260245,0.013875598,0,-0.814959699,0.775418135,-0.277644537,0.061260245,0.013875598,0.014596029,0,-0.349710869,0.714580435
spotify:artist:4Ti0EKl2PVEms2NRMVGqNe,Don Williams,-0.125224968,-0.048648558,-0.023725596,0.037313929,0,-0.038059022,-0.029420538,-0.063253698,-0.023725596,0.037313929,0.005114921,0,-0.202859182,0.182731409
spotify:artist:4Wfq6fHhifS8MmQOcJ18TP,John Conlee,-0.329994133,0.388989507,-0.020239419,0.018838981,0,-0.390956727,0.188296234,-0.291663115,-0.020239419,0.018838981,0.005220987,0,-0.528519697,-0.077595199
spotify:artist:4XwKU420OWVk38vz1KvH3M,Aaron Tippin,9.785972399,1.146031519,-0.007651909,-0.012445624,1,7.735350136,-1.790119759,-1.369174471,-0.007651909,-0.012445624,-0.029294823,1,4.955121837,-0.980958269
spotify:artist:4aJTB79uwT4sP0Nb8QGWHc,Joe Nichols,-0.18033689,-1.452464413,0.012448333,-0.008133956,7,-0.059160089,2.070872649,3.253045338,0.012448333,-0.008133956,-0.03137836,7,0.532557194,1.352646568
spotify:artist:4epBFW4UHEmgjIK5xOrBhk,Doug Stone,3.796335664,0.857288676,-0.010701385,-0.011853654,0,3.581532511,-1.307978928,-2.008248124,-0.010701385,-0.011853654,-0.021981214,0,2.102634062,-0.872224658
spotify:artist:4fxdqujwhb2NIQyr7qnnPX,Kitty Wells,-0.134528268,-0.179367444,-0.036698804,0.138462221,0,-0.007205461,-0.143839404,-0.355823936,-0.036698804,0.138462221,-0.012216071,0,-0.221542139,0.200451184
spotify:artist:4kNRotUiNCcfZhnpJJTDtl,Vern Gosdin,-0.467086538,-0.310689743,-0.026015942,0.062277235,0,-0.374567913,0.195407677,-0.25319574,-0.026015942,0.062277235,-0.005224951,0,-0.328390765,0.209955938
spotify:artist:4mOt6H7OnuqLnQrm1Bboc6,BlackHawk,0.412610186,0.405839693,-0.00954751,-0.012984434,0,0.815977493,-0.592809211,-0.670023366,-0.00954751,-0.012984434,-0.026860515,0,1.206119088,-0.169357956
spotify:artist:4qivGtDBIkQFLCeduRpi24,Rhett Akins,-0.646507289,0.232352561,-0.00663291,-0.013957429,0,-0.522143557,-0.163197086,0.159127629,-0.00663291,-0.013957429,-0.033894792,0,0.199479124,0.148662961
spotify:artist:4tIQ6BeFRvYApoAyJmaeVC,Donna Fargo,0.082556361,0.530133141,-0.025192576,0.045324169,0,-0.08073273,-0.087095052,-0.354186922,-0.025192576,0.045324169,0.010385324,0,-0.204989279,0.11548521
spotify:artist:4uaaRGr9KMfYPDaUnBIngc,Ricky Van Shelton,2.859632389,0.146788609,-0.017154882,0.010441991,0,1.575088899,-0.18375516,-2.424206961,-0.017154882,0.010441991,-0.00752299,0,1.184941634,-0.371903664
spotify:artist:4xcYVPssil6vbG6tq3W43S,Don Gibson,-0.134528268,-0.179367444,-0.036698804,0.138462221,0,-0.007205461,-0.143839404,-0.355823936,-0.036698804,0.138462221,-0.012216071,0,-0.221542139,0.200451184
spotify:artist:4yiXkMbxDIZ3jgEG89NSC1,Wynonna,-7.838831535,9.874486366,-0.015567509,-0.013193707,4,-6.493595476,-7.040544971,0.951372438,-0.015567509,-0.013193707,0.032830763,4,-2.072566622,-4.561573219
spotify:artist:4zIBkSJcqRp4ADuFI94WvO,Darryl Worley,1.543369341,-1.235734049,-0.001329047,-0.012914504,7,1.216494633,1.888886899,4.997241595,-0.001329047,-0.012914504,-0.035653921,7,1.920177602,0.811885362
spotify:artist:50hFWG3MaUUX5phNrrVc97,Sawyer Brown,9.111348697,1.218687805,-0.010335032,-0.010562493,1,6.213428388,-1.363119303,-4.27566735,-0.010335032,-0.010562493,-0.021685464,1,4.954063777,-1.122146882
spotify:artist:54WwKfYhkYzFRtynSgtTw2,The Kinleys,-0.412543675,0.42418897,-0.017144287,-0.016856506,0,-0.233063462,-0.451599334,-0.198089405,-0.017144287,-0.016856506,0.058012698,0,-0.557757843,-0.331594515
spotify:artist:54lUDwCk35ihJuK3yJCqHA,James Barker Band,-1.363094471,-2.725158631,0.061617465,0.014058446,0,-0.92229158,1.438769884,-0.890752557,0.061617465,0.014058446,0.015111026,0,-0.822937654,1.127283085
spotify:artist:55yEsJBqyn27JPsw5hHzqi,Dan Seals,-0.329994133,0.388989507,-0.020239419,0.018838981,0,-0.390956727,0.188296234,-0.291663115,-0.020239419,0.018838981,0.005220987,0,-0.528519697,-0.077595199
spotify:artist:56x8mYvS3cyDGAi8N2FxbB,Randy Houser,-2.533748023,-3.462598298,0.054591742,0.010716784,6,-1.699564714,2.919926696,-0.38785914,0.054591742,0.010716784,0.007187335,6,-1.122914895,1.86663663
spotify:artist:5CCf77sKGlTdfIiIDaVScj,Little Texas,9.516298102,1.26245694,-0.010874828,-0.011628555,1,8.503647331,-2.334350064,-4.198914407,-0.010874828,-0.011628555,-0.015115419,1,4.749204387,-1.635627303
spotify:artist:5DWq2OARZMu64IqyWZ2xpb,Mel Tillis,-0.134528268,-0.179367444,-0.036698804,0.138462221,0,-0.007205461,-0.143839404,-0.355823936,-0.036698804,0.138462221,-0.012216071,0,-0.221542139,0.200451184
spotify:artist:5I83RQZnnynCnohkLJ8vot,Kellie Coffey,-0.412543675,0.42418897,-0.017144287,-0.016856506,0,-0.233063462,-0.451599334,-0.198089405,-0.017144287,-0.016856506,0.058012698,0,-0.557757843,-0.331594515
spotify:artist:5RkW6o1M8sDx2FzeAEoNbH,Holly Dunn,-1.172676612,2.344090462,-0.018623171,0.003585461,2,-1.349656333,-1.188128261,-0.505407487,-0.018623171,0.003585461,0.026079242,2,-1.46860845,-1.304793694
spotify:artist:5Zq7R5qmi58ByYyBQTlNuk,Lee Brice,-5.751319716,-8.793613818,0.060368047,0.013472443,3,-3.778055631,6.895249626,-1.935411948,0.060368047,0.013472443,0.01377334,3,-2.543915186,4.960116872
spotify:artist:5hYruMimtF8axJGLsFpfoU,Johnny Rodriguez,-0.134528268,-0.179367444,-0.036698804,0.138462221,0,-0.007205461,-0.143839404,-0.355823936,-0.036698804,0.138462221,-0.012216071,0,-0.221542139,0.200451184
spotify:artist:5iB5AWIa7qreioi0AF3Bxa,The Bellamy Brothers,-0.125224968,-0.048648558,-0.023725596,0.037313929,0,-0.038059022,-0.029420538,-0.063253698,-0.023725596,0.037313929,0.005114921,0,-0.202859182,0.182731409
spotify:artist:5kFY4Bv5VRSBsM6CUYBoTC,Mickey Gilley,-0.462385076,-0.290892743,-0.028538992,0.073700106,0,-0.383921176,0.182936188,-0.291205763,-0.028538992,0.073700106,0.001094725,0,-0.623138143,0.27207721
spotify:artist:5q8HGNo0BjLWaTAhRtbwxa,Brantley Gilbert,-3.841643649,-5.541842816,0.057713006,0.012205829,6,-2.69991398,4.964087588,-1.196550054,0.057713006,0.012205829,0.010745889,6,-1.94224626,2.59750183
spotify:artist:5rNhVm2CnqiO5Lv4Dt2lck,Jessica Andrews,-0.85139461,0.548439879,-0.016856478,-0.016606403,2,-1.322903467,-1.577967321,-0.091102814,-0.016856478,-0.016606403,0.054056521,2,-1.207909669,-0.907428163
spotify:artist:5sXhYkm9PpLn5R70U2T6Ba,Julie Roberts,-1.277832557,1.363268501,-0.016663866,-0.015533345,2,-1.140627548,-1.060623353,0.394823374,-0.016663866,-0.015533345,0.048898365,2,-0.989352491,-0.686372006
spotify:artist:66Pq6HMX0YqsJgtUZrFwmo,Connie Smith,-0.370818934,-0.271697118,-0.03094569,0.091893195,0,-0.299278778,0.037466228,-0.656771729,-0.03094569,0.091893195,-0.000915373,0,-0.617874453,-0.06832748
spotify:artist:67BqBdApdbZ0onglFqRoTg,Barbara Mandrell,-0.951142557,0.277534979,-0.024522797,0.042808754,0,-1.094819773,0.725824773,-0.618908404,-0.024522797,0.042808754,0.009112596,0,-1.336907994,-0.427086431
spotify:artist:68abRTdO4meYReMWHvBYb0,Chris Lane,-1.779161577,-2.00818038,0.061995767,0.014252684,0,-0.957533567,1.556573518,-0.948118499,0.061995767,0.014252684,0.015661521,0,-0.809731811,1.04472126
spotify:artist:69Etpls5a2aATUkB6NInTY,Neal McCoy,10.58828638,0.796766722,-0.006456565,-0.013182815,8,9.499886635,-1.319686577,1.351700805,-0.006456565,-0.013182815,-0.029740964,8,5.636450014,-0.035519306
spotify:artist:69Fk1s1lzINOKqoSWjjEiE,Charley Pride,-1.428868002,0.021170445,-0.035723117,0.130777803,0,-1.331024137,0.209008631,-0.008472091,-0.035723117,0.130777803,-0.010718984,0,-1.393096978,0.744291919
spotify:artist:69baNgo5tsg1RjBgotRbEj,Earl Thomas Conley,-0.329994133,0.388989507,-0.020239419,0.018838981,0,-0.390956727,0.188296234,-0.291663115,-0.020239419,0.018838981,0.005220987,0,-0.528519697,-0.077595199
spotify:artist:69wzuykaVXlRS5KVygESvd,Bobby Bare,-0.134528268,-0.179367444,-0.036698804,0.138462221,0,-0.007205461,-0.143839404,-0.355823936,-0.036698804,0.138462221,-0.012216071,0,-0.221542139,0.200451184
spotify:artist:6OheJTrDFGiyZ67F1BBLhc,Crystal Gayle,-0.320225428,0.965076249,-0.022280906,0.026735813,0,-0.501512045,-0.261709629,-0.55937661,-0.022280906,0.026735813,0.014753534,0,-0.434626081,0.000865193
spotify:artist:6Pys4xsyQVA5ZjkN2Ka2S7,Hal Ketchum,0.132501373,0.393925747,-0.011171846,-0.012311841,0,0.532217124,-0.52223591,-0.422657306,-0.011171846,-0.012311841,-0.017226543,0,0.283708607,0.011881415
spotify:artist:6SFUC6ORDCIBqPssCBpeHT,Patty Loveless,-5.789333255,7.160843254,-0.016204881,-0.01214489,4,-5.682491407,-6.034986225,1.077025489,-0.016204881,-0.01214489,0.036170795,4,-2.84882828,-4.195376422
spotify:artist:6Sb8EHpZvyjSTT5KD9DjUZ,Ronnie Milsap,-0.125224968,-0.048648558,-0.023725596,0.037313929,0,-0.038059022,-0.029420538,-0.063253698,-0.023725596,0.037313929,0.005114921,0,-0.202859182,0.182731409
spotify:artist:6ghiFYcwn2Vzl6K50U0UPz,Michael Ray,-3.343211083,-4.592342425,0.060320795,0.013442625,6,-2.380626914,3.89803905,-1.799756531,0.060320795,0.013442625,0.01367477,6,-1.716273194,1.993807387
spotify:artist:6ktyNEnEukKzskQEiXgCFD,Craig Morgan,4.529787273,-1.753434678,0.007180235,-0.010014107,5,2.707728905,1.684241072,7.088372812,0.007180235,-0.010014107,-0.031655943,5,2.28313425,3.385169556
spotify:artist:6sQVeggRv1AhrMzuCjhCZe,Jamie O'Neal,-3.758899898,4.687361448,-0.016129561,-0.01523481,2,-3.53008283,-3.977939058,0.527125537,-0.016129561,-0.01523481,0.043567812,2,-2.313388361,-2.559475196
spotify:artist:6uvq6FeVsmhOWfJHxVNeBL,Faron Young,-0.134528268,-0.179367444,-0.036698804,0.138462221,0,-0.007205461,-0.143839404,-0.355823936,-0.036698804,0.138462221,-0.012216071,0,-0.221542139,0.200451184
spotify:artist:6vgqbvuLEUcrg7SB1kRTYE,Jason Michael Carroll,0.83637051,-1.099259778,0.001475374,-0.012566213,7,0.706741228,1.674675482,4.207445598,0.001475374,-0.012566213,-0.036584972,7,1.166219563,0.91497053
spotify:artist:6x2LnllRG5uGarZMsD4iO8,Thomas Rhett,-2.41795955,-3.046838344,0.06187469,0.014191221,6,-1.599895001,2.361438023,-1.194590454,0.06187469,0.014191221,0.015490629,6,-1.095964362,1.397024095
spotify:artist:6yJCxee7QumYr820xdIsjo,Zac Brown Band,-1.14772126,-1.006397114,0.057212027,0.011931098,0,-0.901560966,0.996545557,-0.386175649,0.057212027,0.011931098,0.00990261,0,-0.340367944,0.742543345
spotify:artist:738OS3zrCO782uDiUN9pet,Lee Ann Womack,-5.900081149,7.400670876,-0.016292431,-0.013847552,4,-6.270373224,-6.867364917,0.919467289,-0.016292431,-0.013847552,0.04149406,4,-3.151773097,-4.086991844
spotify:artist:73KwO09942aGUnNO7bZiGa,Sherri√© Austin,-0.412543675,0.42418897,-0.017144287,-0.016856506,0,-0.233063462,-0.451599334,-0.198089405,-0.017144287,-0.016856506,0.058012698,0,-0.557757843,-0.331594515
spotify:artist:78OAtwN3XpjMcjibnF2Kw5,David Lee Murphy,2.720728838,-1.842683261,-0.00286906,-0.013002143,5,2.714519769,1.964736005,4.605397351,-0.00286906,-0.013002143,-0.034029243,5,2.919973961,0.286887535
spotify:artist:78YqeIji3mgAS2K1Maca6x,Dylan Scott,-2.68680896,-3.500946626,0.061721079,0.014112315,6,-1.729093521,3.090592838,-1.744240266,0.061721079,0.014112315,0.015266979,6,-1.359763234,1.649819657
spotify:artist:79FMDwzZQxHgSkIYBl3ODU,Trace Adkins,6.862446814,-1.128303644,0.000264868,-0.011981346,5,6.081755571,1.300563598,5.832612924,0.000264868,-0.011981346,-0.033734698,5,3.904939714,2.365248102
spotify:artist:7CyJIUpcWZK2zFM6gKLKvD,Andy Griggs,-0.646507289,0.232352561,-0.00663291,-0.013957429,0,-0.522143557,-0.163197086,0.159127629,-0.00663291,-0.013957429,-0.033894792,0,0.199479124,0.148662961
spotify:artist:7F7zi7OcJYBOmSFZIYYFCR,Lila McCann,-0.762651421,0.331990795,-0.016367587,-0.015414679,2,-1.24954861,-1.461138719,-0.105304394,-0.016367587,-0.015414679,0.045599316,2,-1.158303156,-0.766533457
spotify:artist:7MSTO40bsb3DOJQT6xLsIc,The Judds,-2.211240765,2.576646075,-0.016783195,-0.008273165,2,-1.626362365,-1.492963863,0.368766854,-0.016783195,-0.008273165,0.031485404,2,-1.325217524,-1.566698388
spotify:artist:7dmeVSH4lJqxXU7C87dKIB,Tanya Tucker,-2.444131524,3.407901444,-0.018854277,0.007695288,2,-3.024307393,-2.096485427,-0.321304108,-0.018854277,0.007695288,0.016778362,2,-1.628114844,-1.86016142
spotify:artist:7mPcfx7PhnBh6n4HMCd61A,John Michael Montgomery,0.81359326,-0.139996434,-0.00671898,-0.013992472,7,0.466905529,0.275892164,2.19988021,-0.00671898,-0.013992472,-0.026744084,7,1.953790094,-0.070559214
spotify:artist:7ndzHjxbErIwvwnEUewMWe,Kathy Mattea,-2.857974698,3.42803723,-0.016599521,-0.010273701,2,-2.756628957,-2.859328008,0.293577593,-0.016599521,-0.010273701,0.035137925,2,-1.524176371,-2.019484368
spotify:artist:7qvsLYsYP0MHD7jkdv6DAG,Sara Evans,-2.826914865,3.411732489,-0.016023832,-0.015947008,2,-2.864810857,-3.002441393,0.792310347,-0.016023832,-0.015947008,0.045124784,2,-1.589079638,-1.656241288
spotify:artist:7vCtweS8UVAXTyau2j0rDT,Josh Turner,-1.929026001,-2.322259903,0.052368908,0.009663846,6,-1.368462466,2.431855563,0.059096825,0.052368908,0.009663846,0.00471777,6,-0.945343785,1.490714677
spotify:artist:7vay9JhHThC1PXnge5IPTW,Charly McClain,0.082556361,0.530133141,-0.025192576,0.045324169,0,-0.08073273,-0.087095052,-0.354186922,-0.025192576,0.045324169,0.010385324,0,-0.204989279,0.11548521
spotify:artist:7y9COUDxusQXRjW95vOubE,David Ball,0.578615788,0.572667709,-0.012349982,-0.003757344,0,0.309384817,-0.037792926,-0.492060285,-0.012349982,-0.003757344,-0.022773688,0,0.435966153,-0.14305495
