uri,name,iso_nn6_nc2_1,iso_nn6_nc2_2,se_nn6_nc2_1,se_nn6_nc2_2,km_nn6_nc2,iso_nn9_nc3_1,iso_nn9_nc3_2,iso_nn9_nc3_3,se_nn9_nc3_1,se_nn9_nc3_2,se_nn9_nc3_3,km_nn9_nc3
spotify:artist:001aJOc7CSQVo3XzoLG4DK,One Way,1.947723581,0.381296681,0.011542128,-0.005389388,5,-1.013131109,-0.521066206,0.532044202,0.011542128,-0.005389388,-0.014752098,5
spotify:artist:00tVTdpEhQQw1bqdu8RCx2,Blue Öyster Cult,-0.371262864,-0.298361828,-0.01197068,0.00075441,0,-0.94125098,-0.053595652,0.48413436,-0.01197068,0.00075441,-0.004029006,0
spotify:artist:01Ppu7N8uYJI8SAONo2YZA,Melissa Etheridge,-1.574280592,-1.279213757,-0.013081959,0.001587347,0,-0.749857153,-0.253647836,-1.14120666,-0.013081959,0.001587347,0.053016085,0
spotify:artist:01W8kYNqFHyKicPfR0pLwO,England Dan & John Ford Coley,-1.479115023,-2.38193258,-0.011531308,0.000668234,4,-1.89937596,-2.130514059,-1.088570569,-0.011531308,0.000668234,-0.002428613,4
spotify:artist:01Wck2m10xhdxUrLaMq60y,Rene & Angela,1.986850026,0.062321103,0.012193473,-0.005265133,5,-0.556372268,-0.860711717,0.506585665,0.012193473,-0.005265133,-0.013878743,5
spotify:artist:02JTFUpX3CgLWXNKEXIvcb,Public Announcement,-0.806669209,0.277522809,0.01874802,-0.004248206,5,0.24824531,-0.334543383,1.393360639,0.01874802,-0.004248206,-0.003234071,5
spotify:artist:047D9GgqEzyMoULd2oKr7G,Alexander O'Neal,1.531756393,0.388809734,0.01314053,-0.005093576,5,-0.071409662,-0.456365003,0.685709997,0.01314053,-0.005093576,-0.012649657,5
spotify:artist:04LIHk1SobiQwt2tlupoAV,Leo Sayer,-1.597541931,-1.984952422,-0.011475845,0.000658727,4,-1.412613205,-1.404630474,-0.524340195,-0.011475845,0.000658727,-0.002200443,4
spotify:artist:0543y7yrvny4KymoaneT4W,Peter Frampton,-0.244454983,-2.949850958,-0.011721854,0.000700955,4,-2.038566441,-2.051987641,-0.86741644,-0.011721854,0.000700955,-0.003393662,4
spotify:artist:05RZIdfz59ZW2FvFuwnmNK,K-Ci & JoJo,0.913101607,0.172775208,0.018763872,-0.004196301,5,-0.046188749,-0.26600694,0.909610445,0.018763872,-0.004196301,-0.003349659,5
spotify:artist:05oH07COxkXKIMt6mIPRee,Brandy,2.223231189,0.067708529,0.019673064,-0.006129537,5,-0.903318846,-1.689230117,3.089239496,0.019673064,-0.006129537,-0.00043808,5
spotify:artist:07XSN3sPlIlB2L2XNcTwJw,KISS,-0.226931568,0.038130198,-0.012059843,0.000774156,0,-0.447297034,0.066963431,0.49753916,-0.012059843,0.000774156,-0.004225649,0
spotify:artist:07xwCifj3iE7F6fYHin4TU,Black Oak Arkansas,-1.182982456,-1.549432747,-0.011828173,0.000722936,0,-0.98531739,-0.943525336,-0.543147466,-0.011828173,0.000722936,-0.003648781,0
spotify:artist:085pc2PYOi8bGKj0PNjekA,will.i.am,3.168073633,0.657961936,0.023153487,-0.016267906,0,0.227395712,0.27688243,0.309276128,0.023153487,-0.016267906,0.019709206,0
spotify:artist:08DLZqQd6XDAVteF9nSEJ1,Paula Cole,-1.62208099,-1.357611897,-0.013081349,0.00158891,0,-0.800604271,-0.292709014,-1.394967976,-0.013081349,0.00158891,0.053172767,0
spotify:artist:08avsqaGIlK2x3i2Cu7rKH,Keith Richards,-0.233539771,-0.070475314,-0.011934571,0.000746194,0,0.205653495,0.269066169,-0.0015479,-0.011934571,0.000746194,-0.00370205,0
spotify:artist:08p7B5OtcUuVblvkQIlBhJ,Tyrese,1.067559463,0.3602181,0.018864002,-0.004399151,2,0.104630575,-1.709063906,4.655129375,0.018864002,-0.004399151,-0.003136373,2
spotify:artist:08rMCq2ek1YjdDBsCPVH2s,Amerie,0.577381766,-0.701532952,0.019869693,-0.006617615,5,-1.629116989,-1.683761276,1.999470714,0.019869693,-0.006617615,0.000424729,5
spotify:artist:09hNSPPOxDop4FRdr6UEnq,Dokken,-3.03223899,-4.940546306,-0.012117156,0.000787167,3,-3.669441676,8.850808318,1.182783048,-0.012117156,0.000787167,-0.004348807,3
spotify:artist:0AiTwNtYX8m4uhfU7rJ8RD,Ani DiFranco,-0.387921708,0.141610243,-0.013157167,0.001615896,0,0.139794193,0.273047083,-0.137238952,-0.013157167,0.001615896,0.05422941,0
spotify:artist:0AunegKKH2ys98aLxq8G1A,Avant,1.296214093,0.604151844,0.018849822,-0.004345838,5,-0.41268422,-0.435499491,1.276279965,0.018849822,-0.004345838,-0.003256363,5
spotify:artist:0C8ZW7ezQVs4URX5aX7Kqx,Selena Gomez,10.37706645,2.402863631,0.025776027,-0.024714461,0,-0.139260429,0.017260112,-0.183953707,0.025776027,-0.024714461,0.037584757,0
spotify:artist:0CMVsLgjlp9Tk02TikMAQK,The Elgins,-0.00918149,0.236766272,0.010829536,-0.005571971,0,0.221578755,0.255560634,0.171025283,0.010829536,-0.005571971,-0.015949539,0
spotify:artist:0DW7boyjvbaSP3OJ72sXgC,Al Stewart,0.85108712,-1.499617302,-0.011677806,0.000699225,0,-0.06994945,0.136767377,0.34044257,-0.011677806,0.000699225,-0.002496935,0
spotify:artist:0ECwFtbIWEVNwjlrfc6xoL,Eagles,0.178842481,-0.379199675,-0.011699789,0.0006951,0,-0.062997216,0.083505623,0.390199162,-0.011699789,0.0006951,-0.003481489,0
spotify:artist:0EVUivUkugMtNF09L4QBMH,Hi-Five,-3.923712062,4.106802313,0.018436862,-0.003747955,6,6.408384779,-1.073645481,6.66759964,0.018436862,-0.003747955,-0.003698126,6
spotify:artist:0FFuvdY7fuiuTmHN9unYoz,Paul Carrack,-0.698465912,-0.184289273,-0.010789491,0.000495778,0,-0.236008056,-0.195063405,-0.351962917,-0.010789491,0.000495778,-0.002919037,0
spotify:artist:0FrpdcVlJQqibaz5HfBUrL,Rick James,1.305747849,0.573282732,0.011515358,-0.005411851,0,-0.741490615,-0.106267109,0.498322471,0.011515358,-0.005411851,-0.014860285,0
spotify:artist:0G7OYsWptjRzVFT1AxP8TS,Levert,-0.62300338,0.924655275,0.017181285,-0.004026832,5,2.126077471,-0.365665311,1.932039189,0.017181285,-0.004026832,-0.005904238,5
spotify:artist:0GByy3DcfbQwDvXGCWmzv9,Pretenders,-0.675085872,-0.342018292,-0.011302502,0.000604617,0,-0.042059195,0.461170864,0.064201611,-0.011302502,0.000604617,-0.003371031,0
spotify:artist:0GLvcqWIueXNjv3212pJAj,Cactus,-0.910869573,-0.975945164,-0.011861869,0.000730269,0,-0.688526502,-0.600391424,-0.33325334,-0.011861869,0.000730269,-0.003657988,0
spotify:artist:0I7UnRLIdCD310ZBgeuqh5,JD Souther,0.972028882,-0.694492377,-0.01165458,0.000691448,0,-0.52744794,-0.773626279,-0.740928104,-0.01165458,0.000691448,-0.002762686,0
spotify:artist:0J2Ej2rMQyqaUX3G6MUISw,Ambrosia,1.061626361,-2.373027537,-0.011538726,0.000665252,4,-1.55009804,-2.058615309,-1.574546369,-0.011538726,0.000665252,-0.002830921,4
spotify:artist:0K7VN4aHxHcEb7PqkfoIVA,Shawn Colvin,-1.575068865,-1.289190762,-0.013167581,0.001618144,0,-0.748864319,-0.252031295,-1.097834508,-0.013167581,0.001618144,0.054236619,0
spotify:artist:0KMLfCXYb3Dhf1hLpu8cVd,Midnight Star,1.674626211,0.139427437,0.011573962,-0.005389907,5,-1.278837178,-0.513487118,0.718267039,0.011573962,-0.005389907,-0.014737025,5
spotify:artist:0KWcq2E8ejxp78jdfpCd4K,KeKe Wyatt,-0.609009927,-0.260168232,0.019568399,-0.00584375,5,-0.662130925,-0.461420506,0.945698954,0.019568399,-0.00584375,-0.000985493,5
spotify:artist:0KyCXNSa7ZMb5LydfKbLG3,David Lee Roth,-0.45825145,-0.363923509,-0.012030304,0.000767842,0,-1.370261146,1.672490994,0.837817756,-0.012030304,0.000767842,-0.004198826,0
spotify:artist:0L9xkvBPcEp1nrhDrodxc5,Level 42,-1.057767968,-0.565947938,-0.010264417,0.000365704,0,-0.316226223,-0.183633073,-0.848524416,-0.010264417,0.000365704,-0.0031078,0
spotify:artist:0MAvx5yzdhylg2ztJC3MD3,Robin Trower,-0.233539771,-0.070475314,-0.011934571,0.000746194,0,0.205653495,0.269066169,-0.0015479,-0.011934571,0.000746194,-0.00370205,0
spotify:artist:0MBIKH9DjtBkv8O3nS6szj,"10,000 Maniacs",-1.092856142,-0.873410055,-0.013120581,0.001599257,0,-0.546607119,-0.198287033,-0.553938481,-0.013120581,0.001599257,0.053385282,0
spotify:artist:0MponVSpW81oLvJZ53vYZH,The Marvelettes,-0.00918149,0.236766272,0.010829536,-0.005571971,0,0.221578755,0.255560634,0.171025283,0.010829536,-0.005571971,-0.015949539,0
spotify:artist:0NCXrh1XOnHNp4mM0JUFJw,Nicolette Larson,-1.366203262,-2.541037595,-0.011552216,0.00067431,4,-1.359528947,-1.640329404,-1.087521451,-0.011552216,0.00067431,-0.002280793,4
spotify:artist:0NnCgUxhtWt1yBtpDyvFQf,Black Sheep,-4.100059929,6.411515791,0.025505972,0.084833455,1,7.007955402,1.737262765,-2.124549606,0.025505972,0.084833455,0.008321342,1
spotify:artist:0O0lrN34wrcuBenkqlEDZe,The Psychedelic Furs,-1.145706383,-1.109416346,-0.010760172,0.000476496,0,-0.098864912,0.093584951,-0.511161765,-0.010760172,0.000476496,-0.00323946,0
spotify:artist:0OtigLoCgLYvXnMxbE5qH5,Lost Boyz,-4.087844032,6.378399621,0.02563529,0.086314064,1,6.960473741,1.719930817,-2.100251042,0.02563529,0.086314064,0.008526315,1
spotify:artist:0PDqlUGugF5Jt6DZyATvfz,Betty Wright,-0.629172971,-0.073899611,0.010148003,-0.005206902,0,-0.078422973,-0.008142541,-0.130637798,0.010148003,-0.005206902,-0.014752338,0
spotify:artist:0PcIlEZa7rreM7729ot05g,Stephanie Mills,1.592556847,-0.205601715,0.012535477,-0.005183539,5,-0.647623184,-1.105329137,0.541432942,0.012535477,-0.005183539,-0.013355136,5
spotify:artist:0S1SjYebdSaiMpI8xSW2Wb,Donald Fagen,-0.616268746,-0.407736658,-0.011623969,0.000684414,0,-0.304207851,-0.331626918,-0.268313835,-0.011623969,0.000684414,-0.002777588,0
spotify:artist:0Sq7oGrYEe0BDmb13wgjOO,Helen Reddy,-1.951727872,-2.863008852,-0.011498202,0.000663296,4,-1.517572368,-1.823605125,-1.254178238,-0.011498202,0.000663296,-0.002209429,4
spotify:artist:0TF2NxkJZPQoX1H53rEFM1,Gladys Knight & The Pips,-1.502241258,-0.949126642,0.010816431,-0.005549018,0,-0.7506275,-0.624289834,-0.418948654,0.010816431,-0.005549018,-0.015857403,0
spotify:artist:0U2mUJuJkthantMGmsJygP,Jerry Butler,-0.663715772,-0.073316583,0.010820695,-0.005482893,0,-0.073286485,0.017799531,-0.067579784,0.010820695,-0.005482893,-0.015568824,0
spotify:artist:0UbkL4O5WmWWH8RZOweBZK,X-Clan,-5.214194706,8.299925507,0.02559565,0.085856549,1,6.979127944,1.726711521,-2.108364362,0.02559565,0.085856549,0.008462686,1
spotify:artist:0VdoLGGpWcDZnzep6SSTdP,Montrose,-1.464893981,-2.043436621,-0.011862943,0.000730477,0,-1.978755495,0.224139909,-0.544715782,-0.011862943,0.000730477,-0.003745592,0
spotify:artist:0WUphJOGHE5i95IeR87hsO,China Crisis,-0.026150211,-1.262045296,-0.01048647,0.000413287,0,-0.278679655,-0.071002291,-0.452402971,-0.01048647,0.000413287,-0.003193623,0
spotify:artist:0WgyCbru4tXnMsbTmX4mFw,Atlanta Rhythm Section,-0.834077594,-3.261251385,-0.011667786,0.000691462,4,-1.806942923,-2.566394601,-2.19362045,-0.011667786,0.000691462,-0.003091039,4
spotify:artist:0YEyuuhfdNXnTJh1uFhl3p,Pat Travers,-0.834991663,-0.727444803,-0.01184499,0.000726457,0,-0.596938925,-0.476925974,-0.254309136,-0.01184499,0.000726457,-0.003703121,0
spotify:artist:0Z4CzYz9ieK8q9XiVMPkW5,The Bar-Kays,1.641163968,0.011861079,0.011507622,-0.005404309,5,-0.929501945,-0.442890059,0.470758502,0.011507622,-0.005404309,-0.014833468,5
spotify:artist:0ZED1XzwlLHW4ZaG4lOT6m,Julia Michaels,9.261157025,2.13410052,0.025774553,-0.024709462,0,-0.26194309,-0.060888219,-0.265363956,0.025774553,-0.024709462,0.037573866,0
spotify:artist:0ZIwOAzDuGPspzK7yiTc4S,Little Feat,-0.346514145,-0.29242572,-0.011843295,0.000726916,0,0.048024846,0.10736656,-0.09472741,-0.011843295,0.000726916,-0.003543668,0
spotify:artist:0ZzYDST6Dib7iYd8hmcLcH,M2M,4.12665996,0.655836258,0.022502154,-0.013777354,0,0.020282151,0.073967975,0.463990791,0.022502154,-0.013777354,0.013920616,0
spotify:artist:0a63dfrxBQKqh160P8iUNL,Country Joe & The Fish,-0.558914767,-0.771076802,-0.011916017,0.000742401,0,-0.302948178,-0.222915673,-0.225552151,-0.011916017,0.000742401,-0.003655782,0
spotify:artist:0auu2itHTxEdAMRHvx7CyG,Das EFX,-4.087844032,6.378399621,0.02563529,0.086314064,1,6.960473741,1.719930817,-2.100251042,0.02563529,0.086314064,0.008526315,1
spotify:artist:0bByarMN8ryEFQsRo6iCUN,Glenn Medeiros,-1.228097474,-0.440588002,-0.009507204,0.000260137,0,0.277709209,-0.141940486,-1.505962717,-0.009507204,0.000260137,-0.001569904,0
spotify:artist:0cA5Tg15TwARIRZeiNT1RO,Dan Fogelberg,-1.594207497,-3.551498372,-0.011602263,0.000682827,4,-2.950124995,-3.291587874,-1.827214211,-0.011602263,0.000682827,-0.002493241,4
spotify:artist:0cQuYRSzlItquYxsQKDvVc,The Guess Who,-0.025219099,-1.379882097,-0.011747581,0.000705539,0,-0.727295821,-0.605232864,0.089079021,-0.011747581,0.000705539,-0.003534927,0
spotify:artist:0cc6vw3VN8YlIcvr1v7tBL,Mötley Crüe,-0.678739078,-0.323550853,-0.01214067,0.000792342,0,-0.604758487,1.132591203,0.212575914,-0.01214067,0.000792342,-0.004384365,0
spotify:artist:0dYkMe3wK29DulSa0uR8Rq,Rickie Lee Jones,-1.350395238,-1.110937719,-0.013136961,0.001604019,0,-0.494269849,-0.077677899,-0.749756248,-0.013136961,0.001604019,0.053513115,0
spotify:artist:0dgnITyIAN4NrmUVisvxHU,Tesla,-3.16225987,-4.984780161,-0.01211362,0.000786387,3,-5.258749304,11.03395119,1.725102341,-0.01211362,0.000786387,-0.004343095,3
spotify:artist:0djV4iaxhNfYWpH60ia85o,Joan Osborne,-1.384955341,-1.047033648,-0.013090457,0.001590265,0,-0.791165868,-0.32282411,-1.02987882,-0.013090457,0.001590265,0.053123981,0
spotify:artist:0eGh2jSWPBX5GuqIHoZJZG,ICE-T,-3.554201581,5.497107826,0.025461133,0.084321908,1,5.960961978,1.450142024,-1.635548884,0.025461133,0.084321908,0.008250671,1
spotify:artist:0ecbvwhuhiEAWOLHlRXpqD,STEELHEART,-1.33913021,-1.706613016,-0.012138639,0.000791948,7,-1.679387503,3.98919253,0.506324432,-0.012138639,0.000791948,-0.004386883,7
spotify:artist:0f3kLT4wvi2mFHlHJgV8Hl,Kajagoogoo,-1.172876855,-0.736564947,-0.01022631,0.000353751,0,-0.240255302,-0.13843192,-0.820570374,-0.01022631,0.000353751,-0.00317345,0
spotify:artist:0fgtHVpOPfXb07S8Jx443z,Player,-0.947368682,-1.576424079,-0.011599042,0.000680441,4,-1.363184485,-1.301140485,-0.548699201,-0.011599042,0.000680441,-0.002651696,4
spotify:artist:0fyqyjD7pbaVzbu94ylWQR,Poco,1.18368285,-4.188282647,-0.01165649,0.00069063,4,-1.967997122,-2.976009765,-2.687676424,-0.01165649,0.00069063,-0.002891718,4
spotify:artist:0grdhNhiRLFBaFVyybqsj6,Richard Marx,-2.431784568,-2.299995554,-0.01045607,0.000438785,4,-0.905575663,-1.002473962,-2.232644128,-0.01045607,0.000438785,-0.002406411,4
spotify:artist:0gxyHStUsqpMadRV0Di1Qt,Rick Astley,-1.337025393,0.053589441,-0.008991538,0.000133641,8,0.413286873,-0.046159385,-1.448863775,-0.008991538,0.000133641,-0.002345159,8
spotify:artist:0h9smro0z3HqUbD94jotU8,Smokey Robinson,-1.090409534,-0.572203903,0.010683137,-0.005441955,0,-0.2154839,-0.158581059,-0.050310383,0.010683137,-0.005441955,-0.01546867,0
spotify:artist:0hF0PwB04hnXfYMiZWfJzy,Jimmy Ruffin,-0.00918149,0.236766272,0.010829536,-0.005571971,0,0.221578755,0.255560634,0.171025283,0.010829536,-0.005571971,-0.015949539,0
spotify:artist:0iVrCROxeyon7MZUW3MfzT,Montell Jordan,-2.498468361,1.527205317,0.018649211,-0.003989581,2,2.852827835,-1.68601636,7.599328793,0.018649211,-0.003989581,-0.003399935,2
spotify:artist:0kObWap02DEg9EAJ3PBxzf,Starship,-2.060865368,-2.509884913,-0.010735952,0.000491242,4,-1.560088566,-0.697741335,-1.754774744,-0.010735952,0.000491242,-0.002788306,4
spotify:artist:0kuEP1E9k3WBEwMKwEmp9u,Willa Ford,4.12665996,0.655836258,0.022502154,-0.013777354,0,0.020282151,0.073967975,0.463990791,0.022502154,-0.013777354,0.013920616,0
spotify:artist:0le01dl1WllSHhjEXRl4in,Tamia,0.635798968,-0.271395822,0.019630432,-0.00601317,5,-1.13432172,-1.094296761,1.909269921,0.019630432,-0.00601317,-0.000661149,5
spotify:artist:0mzTssRDPIQVH5wSNzOdFZ,Fefe Dobson,4.12665996,0.655836258,0.022502154,-0.013777354,0,0.020282151,0.073967975,0.463990791,0.022502154,-0.013777354,0.013920616,0
spotify:artist:0oQLexIBY9SlMhtbSIPFAO,The Alarm,-1.145706383,-1.109416346,-0.010760172,0.000476496,0,-0.098864912,0.093584951,-0.511161765,-0.010760172,0.000476496,-0.00323946,0
spotify:artist:0ow8F3xGkmZWVulTtaiFQo,Book Of Love,-1.233708747,-1.243403304,-0.010629401,0.000446242,0,-0.240312221,-0.0208249,-0.857385298,-0.010629401,0.000446242,-0.003219187,0
spotify:artist:0qAmeOULjwn04k6jMMeDyr,Mary Chapin Carpenter,0.038501006,-1.313455142,-0.01310942,0.001592144,0,-0.313168135,-0.062341908,-0.305500639,-0.01310942,0.001592144,0.052939537,0
spotify:artist:0qEcf3SFlpRcb3lK3f2GZI,Grand Funk Railroad,-0.246498556,-2.931182705,-0.011822508,0.000721743,4,-1.754752444,-1.651793965,-0.317573113,-0.011822508,0.000721743,-0.003630995,4
spotify:artist:0reZZVbAPxgX1Rqj6XbWj3,Bob Welch,0.423726032,-1.452841647,-0.011642187,0.000687479,4,-1.220732297,-1.737671658,-1.425790714,-0.011642187,0.000687479,-0.002893446,4
spotify:artist:0rvjqX7ttXeg3mTy8Xscbt,Journey,-0.698904823,-0.334888576,-0.011604322,0.000673793,0,-0.266398025,-0.191594179,-0.27092165,-0.011604322,0.000673793,-0.003516024,0
spotify:artist:0s0rOb0gT2S9N0SDcjtPC4,Alison Moyet,-1.077400013,-0.545241152,-0.009878122,0.000292548,0,-0.339923073,-0.361973942,-1.050142215,-0.009878122,0.000292548,-0.002854248,0
spotify:artist:0smy8yDrRoI4CnhpOuthg0,Corey Hart,-2.256994757,-2.953749125,-0.01090676,0.000519766,4,-1.10556311,-0.928404452,-1.772770759,-0.01090676,0.000519766,-0.003075577,4
spotify:artist:0uAjBatvB4ubpd4kCfjmNt,A Flock Of Seagulls,-0.588732667,-1.378946248,-0.010577704,0.000434357,0,-0.695786745,-0.058853243,-0.538378239,-0.010577704,0.000434357,-0.003208902,0
spotify:artist:0uMy5ZKVPBHauBYTTfCojq,Melba Moore,1.709618941,0.664414108,0.011826348,-0.005332744,5,-0.463987698,-0.740149765,0.538322559,0.011826348,-0.005332744,-0.014355655,5
spotify:artist:0uUNzXylqsZdmFDwdxaP1V,B.J. Thomas,-0.686698499,-0.307655387,-0.011512132,0.000666039,0,-0.331195762,-0.257106199,0.096704151,-0.011512132,0.000666039,-0.002222267,0
spotify:artist:0un6YenPxWZ2VW4aFGMupM,Floetry,-0.640912469,-0.228664974,0.019052659,-0.004681768,5,-0.542916246,-0.795885292,1.433354041,0.019052659,-0.004681768,-0.002901686,5
spotify:artist:0urTpYCsixqZwgNTkPJOJ4,Aaliyah,1.083231916,0.121116521,0.01981281,-0.006438709,5,-0.617786604,-0.532480039,0.611096308,0.01981281,-0.006438709,5.55E-05,5
spotify:artist:0vIMq3W8V63uR4Ymgm2pF1,Vanilla Fudge,-0.428854375,-0.518567532,-0.0119154,0.000742005,0,-0.120694888,-0.043856444,-0.08555596,-0.0119154,0.000742005,-0.003689039,0
spotify:artist:0vn7UBvSQECKJm2817Yf1P,James Taylor,0.238820612,-0.773990059,-0.0116532,0.00069186,0,-0.2368209,0.009115999,0.295200355,-0.0116532,0.00069186,-0.002679167,0
spotify:artist:0wbrRIw2po5DV4LeaHw55S,The Dells,-0.83542075,-0.248429815,0.010787693,-0.005488931,0,-0.202066098,-0.088906329,-0.141722734,0.010787693,-0.005488931,-0.015613123,0
spotify:artist:0yDmbRjVTQsQd3OnMs5s3I,Gregg Allman,-0.619061522,-0.291257433,-0.01175202,0.000707638,0,-0.224109621,-0.21560959,-0.254471964,-0.01175202,0.000707638,-0.003385287,0
spotify:artist:0ym94xKp2PIOJtTZKpxbAa,Samantha Fox,-1.718248817,1.338770739,-0.008329793,5.60E-05,8,1.478100155,0.311926923,-1.581630636,-0.008329793,5.60E-05,-0.00199538,8
spotify:artist:0zi2OowIfzNqUQiuUVyGLs,Main Source,-5.214194706,8.299925507,0.02559565,0.085856549,1,6.979127944,1.726711521,-2.108364362,0.02559565,0.085856549,0.008462686,1
spotify:artist:10Khz9BDdDT2mzm3330Cvu,Onyx,-4.087844032,6.378399621,0.02563529,0.086314064,1,6.960473741,1.719930817,-2.100251042,0.02563529,0.086314064,0.008526315,1
spotify:artist:10n1KB2sjTrGdyuC83y8jW,Jon Secada,-1.313279581,0.047710053,-0.009583405,0.00028134,0,0.37784196,0.088112899,-0.92150328,-0.009583405,0.00028134,-0.001376038,0
spotify:artist:10rzK0sLCXsUlDhl8ed0MV,Blackfoot,-1.027352304,-1.258181623,-0.011823504,0.000722151,0,-1.111081036,-0.912316973,-0.449473151,-0.011823504,0.000722151,-0.00363812,0
spotify:artist:1255GTUKNCLCTvH9ctD4cT,Dru Hill,0.676400343,1.082658694,0.018775469,-0.00425385,2,1.065677824,-2.62309504,7.901567209,0.018775469,-0.00425385,-0.003283482,2
spotify:artist:12d4iIvTOk7JkI6ecvc3ca,The Charlie Daniels Band,-0.619061522,-0.291257433,-0.01175202,0.000707638,0,-0.224109621,-0.21560959,-0.254471964,-0.01175202,0.000707638,-0.003385287,0
spotify:artist:135Rv69sEKYSUfBBaI7i3M,Kashif,0.2276792,-0.079182922,0.012130179,-0.005272113,5,-0.041185202,-0.451716303,0.783262947,0.012130179,-0.005272113,-0.013941402,5
spotify:artist:15Dh5PvHQj909E0RgAe0aN,Nivea,1.329742127,0.117267363,0.019693103,-0.006161761,5,-0.535983194,-0.609377386,1.260463423,0.019693103,-0.006161761,-0.000407233,5
spotify:artist:1667U2YoucgG5Pdvm2M59c,Orleans,1.130393364,-2.495792974,-0.01161664,0.000685039,4,-1.797361386,-2.510405131,-2.034764654,-0.01161664,0.000685039,-0.002589629,4
spotify:artist:17Q9sCBpIyS6yM2YyaI6R4,Lords Of The Underground,-4.087844032,6.378399621,0.02563529,0.086314064,1,6.960473741,1.719930817,-2.100251042,0.02563529,0.086314064,0.008526315,1
spotify:artist:17U2ImH5IyYMvjkCfPhMHT,The Communards,-0.763328494,-0.119958593,-0.00970599,0.000234678,0,-0.012195605,0.00939317,-0.500240828,-0.00970599,0.000234678,-0.003133104,0
spotify:artist:17obwOahRWI121iMUZznh2,Savoy Brown,-0.400725691,-0.383103919,-0.011894861,0.000737689,0,0.03672091,0.117558571,-0.157614223,-0.011894861,0.000737689,-0.003652469,0
spotify:artist:187xgSpsFH8mMbAcoCW0zE,Billy Paul,-0.956763837,-0.397990014,0.010812715,-0.005476967,0,-0.380016603,-0.344589023,-0.147991018,0.010812715,-0.005476967,-0.015547158,0
spotify:artist:188VINPQh5dyNfLUkevKqf,Olivia Holt,9.245336015,2.127575201,0.025741513,-0.02460123,0,-0.022875707,0.098600321,-0.094033939,0.025741513,-0.02460123,0.037342575,0
spotify:artist:18YelxQioKKPXK1PE5hh1n,G.Q.,-0.602393532,-0.03205399,0.010660062,-0.005169034,0,-0.11678062,-0.102665834,-0.148730486,0.010660062,-0.005169034,-0.014300217,0
spotify:artist:18jZvCsW1PJ4FDQ5gEXuKp,Debbie Gibson,-3.499576373,1.606804256,-0.008748274,0.000115206,8,1.136458973,-0.230357528,-3.66573384,-0.008748274,0.000115206,-0.001846038,8
spotify:artist:18xgcedCGxFbqLbIQn5R8F,Miami Sound Machine,-2.153912029,1.399714146,-0.00799382,-8.15E-05,8,1.618390332,0.150506157,-2.313401327,-0.00799382,-8.15E-05,-0.002530957,8
spotify:artist:19xz1vcuKNjniGEftTOSSH,The Weather Girls,-1.136207294,-0.740487491,-0.00570112,-0.000771928,0,0.130879487,-0.322103258,-1.548814813,-0.00570112,-0.000771928,-0.004517143,0
spotify:artist:1BhWF9W2PngtPSyobKg0rP,Pia Mia,9.245336015,2.127575201,0.025741513,-0.02460123,0,-0.022875707,0.098600321,-0.094033939,0.025741513,-0.02460123,0.037342575,0
spotify:artist:1BwHztAQKypBuy5WBEdJnG,Jennifer Warnes,-1.090774647,-0.759490575,-0.013121033,0.001590375,0,-0.158517113,0.115571371,-0.353982812,-0.013121033,0.001590375,0.052554949,0
spotify:artist:1CD77o9fbdyQFrHnUPUEsF,Traffic,-0.773154377,-1.127716661,-0.011902215,0.000739738,0,-0.353407529,-0.218001955,-0.432222194,-0.011902215,0.000739738,-0.0036016,0
spotify:artist:1CYsQCypByMVgnv17qsSbQ,"Crosby, Stills, Nash & Young",-0.74438882,-1.522643766,-0.011833565,0.000726614,0,-0.24841863,-0.177884139,-0.487494232,-0.011833565,0.000726614,-0.003320128,0
spotify:artist:1DpIDwg8FGD50N9Tfunfsf,The Manhattans,-1.017624072,-0.513814214,0.010646537,-0.005409451,0,-0.44599016,-0.389696572,-0.290382451,0.010646537,-0.005409451,-0.015348453,0
spotify:artist:1EIgKOrzyOQRB3l43EfymN,Angela Winbush,0.604186298,0.127453022,0.0130185,-0.005108406,5,0.192613621,-0.394067759,1.028683528,0.0130185,-0.005108406,-0.012775496,5
spotify:artist:1EemADz12kjlGwkpY4EINv,The Power Station,-1.193672714,-1.124832167,-0.010735295,0.000479988,0,-0.640732975,-0.526245346,-0.719198951,-0.010735295,0.000479988,-0.003028592,0
spotify:artist:1EgGVV9cmmlLEsFlunjmvv,The Time,1.366149305,0.253951712,0.011560617,-0.005404118,0,-0.54998143,-0.121729043,0.341014034,0.011560617,-0.005404118,-0.014803223,0
spotify:artist:1FX4aA0cUcWndv39j1YoTm,Rick Derringer,-0.834991663,-0.727444803,-0.01184499,0.000726457,0,-0.596938925,-0.476925974,-0.254309136,-0.01184499,0.000726457,-0.003703121,0
spotify:artist:1FwGBBwUviGVIeDIByO7u7,Faster Pussycat,-1.262369451,-1.307573387,-0.01215076,0.000794645,7,-1.365532051,3.513289383,0.451779211,-0.01215076,0.000794645,-0.004406706,7
spotify:artist:1G1mX30GpUJqOr1QU2eBSs,Yazoo,-0.026150211,-1.262045296,-0.01048647,0.000413287,0,-0.278679655,-0.071002291,-0.452402971,-0.01048647,0.000413287,-0.003193623,0
spotify:artist:1Ha0Fz4i0d4gu5fZbhBCtH,Night Ranger,-2.42945912,-3.707263518,-0.01194318,0.000748865,3,-3.677079534,7.956280635,0.979546016,-0.01194318,0.000748865,-0.004083931,3
spotify:artist:1Hsdzj7Dlq2I7tHP7501T4,Niall Horan,7.621513164,1.729418047,0.025771604,-0.024699464,0,-0.266229277,-0.067532277,-0.224694338,0.025771604,-0.024699464,0.037552085,0
spotify:artist:1Hu56IprUt6GltqTkpvguI,Somethin' For The People,-0.661826635,0.145141057,0.018873666,-0.004460842,5,0.127882421,-0.208434823,0.941139868,0.018873666,-0.004460842,-0.00296699,5
spotify:artist:1HvcqyRLS9nF8hAbTWOqpr,Dan Hartman,-1.136207294,-0.740487491,-0.00570112,-0.000771928,0,0.130879487,-0.322103258,-1.548814813,-0.00570112,-0.000771928,-0.004517143,0
spotify:artist:1IvJtmPLbzpxDxfrw4rMFa,Samantha Sang,-0.67738254,-0.175745504,-0.011385376,0.000639346,0,-0.152230968,-0.133838015,-0.1427168,-0.011385376,0.000639346,-0.002209354,0
spotify:artist:1JHzh1ETQTMoFb2CgncnTL,April Wine,-1.242040652,-1.604700506,-0.011753905,0.000706726,0,-1.655823449,0.405087743,-0.404251627,-0.011753905,0.000706726,-0.003698887,0
spotify:artist:1KCSPY1glIKqW2TotWuXOR,P!nk,5.440390249,1.211274041,0.025023187,-0.022259393,0,0.012534389,0.12761952,0.249315668,0.025023187,-0.022259393,0.032351767,0
spotify:artist:1KYszkVzlhV3rAqmAcYIgd,Victorious Cast,11.4569174,2.658045707,0.025810541,-0.024827691,0,-0.254772254,-0.063764086,-0.272372031,0.025810541,-0.024827691,0.037826939,0
spotify:artist:1KsASRNugxU85T0u6zSg32,Tori Amos,-0.573094399,-0.076457656,-0.013127182,0.001605689,0,0.006780937,0.191835827,-0.311718726,-0.013127182,0.001605689,0.053855563,0
spotify:artist:1L0y9srZMyh9XUnYGv37IP,'Til Tuesday,-0.934127169,-0.740864405,-0.010840073,0.000499206,0,-0.538218186,-0.424464122,-0.563761709,-0.010840073,0.000499206,-0.003166453,0
spotify:artist:1LB8qB5BPb3MHQrfkvifXU,Cheap Trick,-0.468753958,-0.528467374,-0.011679784,0.00068964,0,-0.544119627,0.076923443,0.027308129,-0.011679784,0.00068964,-0.003691739,0
spotify:artist:1MT1Wz4G9Z9EVOg4L5zZMS,Tamar Braxton,0.035122181,-0.349188221,0.019699377,-0.006150222,5,-0.608402279,-0.633329998,0.834645193,0.019699377,-0.006150222,-0.000466514,5
spotify:artist:1MXwwmS2JpmsHZhdMeOL2s,Pure Prairie League,1.210617094,-2.629296947,-0.011657464,0.000691235,4,-1.890014705,-2.673014751,-2.234699917,-0.011657464,0.000691235,-0.002858387,4
spotify:artist:1OV5mEATxtVma7fleFaUyl,Lori McKenna,-1.489741078,-1.274558953,-0.013183533,0.001624838,0,-0.48089738,-0.072155119,-0.716240056,-0.013183533,0.001624838,0.05455175,0
spotify:artist:1OxJzMLmR9l5zPLap9OxuO,Rose Royce,2.341260204,-0.426362769,0.010647163,-0.00514774,5,-2.475256275,-1.404396555,1.145135293,0.010647163,-0.00514774,-0.014217609,5
spotify:artist:1PCZpxHJz7WAMF8EEq8bfc,The Byrds,-0.897911152,-1.00220948,-0.011750495,0.00071043,0,-0.090476336,0.018080504,-0.442853383,-0.011750495,0.00071043,-0.003017731,0
spotify:artist:1Pe5hlKMCTULjosqZ6KanP,Martha Reeves & The Vandellas,-0.00918149,0.236766272,0.010829536,-0.005571971,0,0.221578755,0.255560634,0.171025283,0.010829536,-0.005571971,-0.015949539,0
spotify:artist:1PwB6zyZUEjWGDUjnMeS6M,Gillan,-0.671304215,-1.139693835,-0.011877315,0.000733499,5,-1.272185847,-0.511185811,0.447976295,-0.011877315,0.000733499,-0.003767355,5
spotify:artist:1QtIfAa6y7w2JhxYJhYeUG,Color Me Badd,-1.608088608,2.185932268,0.005081915,-0.000674825,8,2.261826572,0.639868028,-0.584858571,0.005081915,-0.000674825,-0.002804566,8
spotify:artist:1R6Hx1tJ2VOUyodEpC12xM,Jim Croce,0.238820612,-0.773990059,-0.0116532,0.00069186,0,-0.2368209,0.009115999,0.295200355,-0.0116532,0.00069186,-0.002679167,0
spotify:artist:1TMMyiSsNzmRiZCAkVLVb2,Lisa Loeb,-0.982513116,-0.72167424,-0.01310044,0.001595413,0,-0.33715262,-0.05984896,-0.311199528,-0.01310044,0.001595413,0.053412829,0
spotify:artist:1TrFdcZHtuaF2r7vgFyfiz,Lucy Kaplansky,-1.489741078,-1.274558953,-0.013183533,0.001624838,0,-0.48089738,-0.072155119,-0.716240056,-0.013183533,0.001624838,0.05455175,0
spotify:artist:1UjTUqWfGkof4L5HO5NmzP,Kenny Lattimore,-0.640912469,-0.228664974,0.019052659,-0.004681768,5,-0.542916246,-0.795885292,1.433354041,0.019052659,-0.004681768,-0.002901686,5
spotify:artist:1UkHCANZmdkKyVNvTLMrcJ,Debby Boone,-1.109924423,-1.306598904,-0.011451401,0.000653058,0,-1.219006734,-1.042312778,-0.134398029,-0.011451401,0.000653058,-0.002239248,0
spotify:artist:1VDurPMbOKrNU8mcMP4X1P,Jermaine Jackson,0.167507639,0.102196143,0.013486337,-0.005011831,0,0.157510355,-0.156798484,0.634021214,0.013486337,-0.005011831,-0.01211826,0
spotify:artist:1VaIDrxow5xfLmB9R26JVZ,Danger Danger,-1.361107271,-1.51968813,-0.012143886,0.000793115,7,-1.665805847,3.92605002,0.506820854,-0.012143886,0.000793115,-0.004395628,7
spotify:artist:1W9qOBYRTfP7HcizWN43G1,Slick Rick,-4.655856974,7.352121032,0.02561547,0.086085307,1,8.059701058,2.026242764,-2.614041518,0.02561547,0.086085307,0.0084945,1
spotify:artist:1WRM9i067hd2ujxxi8FI3m,Steppenwolf,-1.02286663,-1.936487453,-0.011900982,0.000738948,4,-1.208857638,-1.074360788,-0.602320946,-0.011900982,0.000738948,-0.003667728,4
spotify:artist:1YwfENKEZrowcmtR1nALZn,The Derek Trucks Band,-0.233539771,-0.070475314,-0.011934571,0.000746194,0,0.205653495,0.269066169,-0.0015479,-0.011934571,0.000746194,-0.00370205,0
spotify:artist:1ZIMtrSe8sINPurERT4tRa,Karla Bonoff,-0.67738254,-0.175745504,-0.011385376,0.000639346,0,-0.152230968,-0.133838015,-0.1427168,-0.011385376,0.000639346,-0.002209354,0
spotify:artist:1aX2dmV8XoHYCOQRxjPESG,The Human League,-1.172876855,-0.736564947,-0.01022631,0.000353751,0,-0.240255302,-0.13843192,-0.820570374,-0.01022631,0.000353751,-0.00317345,0
spotify:artist:1aftUCES5zD5xXI7O9ZF9F,Jann Arden,-1.082178344,-0.856124552,-0.013105588,0.001594153,0,-0.535647098,-0.193991063,-0.522268164,-0.013105588,0.001594153,0.053198359,0
spotify:artist:1b1N51wmSK0ckxFAMPSSHO,The Impressions,-0.083700682,0.114232827,0.010792113,-0.005533471,0,0.11663017,0.157581235,0.113183522,0.010792113,-0.005533471,-0.015803481,0
spotify:artist:1bdAJUX6JPsnYHbTl5jbk6,Joan Armatrading,0.038501006,-1.313455142,-0.01310942,0.001592144,0,-0.313168135,-0.062341908,-0.305500639,-0.01310942,0.001592144,0.052939537,0
spotify:artist:1c70yCa8sRgIiQxl3HOEFo,Cherish,1.576664954,0.586430004,0.019878432,-0.006602075,5,-0.492137083,-0.420442313,0.533971872,0.019878432,-0.006602075,0.000344762,5
spotify:artist:1cjZk1xXn3YCToNg3uJpA7,Mary Wells,-0.00918149,0.236766272,0.010829536,-0.005571971,0,0.221578755,0.255560634,0.171025283,0.010829536,-0.005571971,-0.015949539,0
spotify:artist:1dLWg6m8RRhizsdqJbhyj3,Quiet Riot,-2.853207507,-4.534558922,-0.012106213,0.000784707,3,-4.59676587,9.674955044,1.450380806,-0.012106213,0.000784707,-0.004327685,3
spotify:artist:1eNkUXHPaXyuyC8NAgzykK,Jodeci,-4.256210138,3.834043405,0.018556784,-0.003949936,6,6.485936409,-1.543354105,8.342513743,0.018556784,-0.003949936,-0.003531468,6
spotify:artist:1f2e3RQf7LHOum8NU61q0R,Kem,-0.640912469,-0.228664974,0.019052659,-0.004681768,5,-0.542916246,-0.795885292,1.433354041,0.019052659,-0.004681768,-0.002901686,5
spotify:artist:1fBCIkoPOPCDLUxGuWNvyo,Poison,-0.893272538,-0.667889429,-0.012142797,0.00079287,0,-0.736925237,2.122963113,0.2690023,-0.012142797,0.00079287,-0.004393366,0
spotify:artist:1fvz0vd4P0LNMkAysF1ivk,Al B. Sure!,-3.909214416,4.601802705,0.018043804,-0.003708519,6,7.252123025,-0.325557877,4.235542079,0.018043804,-0.003708519,-0.004393341,6
spotify:artist:1gRNBaI4yn6wCCTvRhGWh8,Don McLean,0.85108712,-1.499617302,-0.011677806,0.000699225,0,-0.06994945,0.136767377,0.34044257,-0.011677806,0.000699225,-0.002496935,0
spotify:artist:1goOx6gnQdUllLfSMsL4Rt,Marques Houston,1.047161041,0.217631699,0.018861409,-0.004364584,0,-0.149150097,-0.264432527,0.619023323,0.018861409,-0.004364584,-0.003231699,0
spotify:artist:1hXjTjJzZTXDZ75AclOo6N,Sammy Hagar,-2.448562706,-3.704074374,-0.011968343,0.000754175,3,-3.863354723,7.801393503,1.116388823,-0.011968343,0.000754175,-0.00408543,3
spotify:artist:1kM5rgJvkiDMOoKX56H6pX,S Club 7,4.12665996,0.655836258,0.022502154,-0.013777354,0,0.020282151,0.073967975,0.463990791,0.022502154,-0.013777354,0.013920616,0
spotify:artist:1kcWyDvrlPUbyxkIoM6pAV,Rory Gallagher,-0.233539771,-0.070475314,-0.011934571,0.000746194,0,0.205653495,0.269066169,-0.0015479,-0.011934571,0.000746194,-0.00370205,0
spotify:artist:1kjO72M26jZkv0aaGxJaov,Eric Benét,-0.640912469,-0.228664974,0.019052659,-0.004681768,5,-0.542916246,-0.795885292,1.433354041,0.019052659,-0.004681768,-0.002901686,5
spotify:artist:1l7ZsJRRS8wlW3WfJfPfNS,Christina Aguilera,3.168073633,0.657961936,0.023153487,-0.016267906,0,0.227395712,0.27688243,0.309276128,0.023153487,-0.016267906,0.019709206,0
spotify:artist:1l8Fu6IkuTP0U5QetQJ5Xt,Fifth Harmony,10.64316821,2.368623333,0.025710364,-0.024499889,0,-0.451501221,-0.192053197,0.106120963,0.025710364,-0.024499889,0.037126857,0
spotify:artist:1mFX1QlezK1lNPKQJkhwWb,New Edition,-2.592994977,3.216169252,0.018352629,-0.003516499,6,3.616107775,-0.011412698,2.101121286,0.018352629,-0.003516499,-0.003773653,6
spotify:artist:1mG23iQeR29Ojhq89D5gbh,DJ Jazzy Jeff & The Fresh Prince,-2.993480015,4.543034098,0.025286975,0.082329753,1,5.020525511,1.202349391,-1.201611044,0.025286975,0.082329753,0.007975027,1
spotify:artist:1mZu3rO7qSD09GdDpePHhY,Frankie Goes To Hollywood,0.779251633,-2.102318537,-0.010474309,0.000410586,0,-0.131623936,0.047060433,-0.164132671,-0.010474309,0.000410586,-0.003188333,0
spotify:artist:1n0pe6Cx9pCNvXYkX9TTLX,Real Life,-0.026150211,-1.262045296,-0.01048647,0.000413287,0,-0.278679655,-0.071002291,-0.452402971,-0.01048647,0.000413287,-0.003193623,0
spotify:artist:1nSRa2YjjFWJLHGKM07oGQ,Blaque,1.196906173,0.143437832,0.019666406,-0.006112802,5,-0.612651778,-0.601179712,0.757172034,0.019666406,-0.006112802,-0.000469169,5
spotify:artist:1o2NpYGqHiCq7FoiYdyd1x,Bea Miller,8.771818033,2.011723688,0.025756559,-0.024650347,0,-0.14027773,0.020209811,-0.173797092,0.025756559,-0.024650347,0.03744733,0
spotify:artist:1q7m1DacLfRgt38Wdin4yH,Zebra,-0.661743004,-0.211084977,-0.011892107,0.000737127,0,-0.493099426,0.955367664,0.048677134,-0.011892107,0.000737127,-0.003941064,0
spotify:artist:1qn0COtzEiEinZ1xE3yfA0,Urban Mystic,-0.640912469,-0.228664974,0.019052659,-0.004681768,5,-0.542916246,-0.795885292,1.433354041,0.019052659,-0.004681768,-0.002901686,5
spotify:artist:1rHh0AI30JhKrbzKIFjFNd,Jr. Walker & The All Stars,-0.00918149,0.236766272,0.010829536,-0.005571971,0,0.221578755,0.255560634,0.171025283,0.010829536,-0.005571971,-0.015949539,0
spotify:artist:1sXbwvCQLGZnaH0Jp2HTVc,Linda Ronstadt,0.198633357,-0.837024468,-0.011653828,0.000702376,0,-0.273613135,-0.015798424,0.227506432,-0.011653828,0.000702376,-0.001695746,0
spotify:artist:1sldhz8tzC100cRAdfnMht,Lobo,-1.113301716,-1.286372076,-0.011477494,0.000658585,0,-0.835760697,-0.859594238,-0.284370262,-0.011477494,0.000658585,-0.002240216,0
spotify:artist:1tfXh4XxILEuMU2qZupFn8,Firefall,1.32256956,-5.04850427,-0.011612712,0.000682747,4,-3.155483179,-4.519105289,-3.767267355,-0.011612712,0.000682747,-0.002717083,4
spotify:artist:1urjDGTd4iBze91Z1W1gu7,Total,-0.615814193,-0.090084867,0.019269397,-0.005244809,0,-0.250202002,-0.169488695,0.328584131,0.019269397,-0.005244809,-0.001838026,0
spotify:artist:1vfezMIyCr4XUdYRaKIKi3,Keyshia Cole,0.759389666,-0.653734131,0.019826461,-0.00649274,5,-1.612532747,-1.665083497,1.974333239,0.019826461,-0.00649274,0.00017979,5
spotify:artist:1vgjN6nIPNKiiQGE9PtzTT,Lisa Lisa & Cult Jam,-1.718248817,1.338770739,-0.008329793,5.60E-05,8,1.478100155,0.311926923,-1.581630636,-0.008329793,5.60E-05,-0.00199538,8
spotify:artist:1vkJFCwstOoJO7yQ4lTtLK,Paris Hilton,3.641670814,0.671059722,0.022827821,-0.01502263,0,0.140948913,0.208532962,0.320416874,0.022827821,-0.01502263,0.016814911,0
spotify:artist:1vnIL4DMlivP55ioM6KitW,Rita Coolidge,-1.952752251,-2.865187018,-0.011393153,0.00064117,4,-1.883995557,-1.926138924,-0.899101747,-0.011393153,0.00064117,-0.002211201,4
spotify:artist:1vxbd35PitY7PGzv7TeUMF,Kool G Rap & DJ Polo,-5.214194706,8.299925507,0.02559565,0.085856549,1,6.979127944,1.726711521,-2.108364362,0.02559565,0.085856549,0.008462686,1
spotify:artist:1x1NsoNPyVy6FlgSLSovSk,Chantal Kreviazuk,-0.729918654,-0.28345074,-0.013097197,0.001595482,0,-0.115983054,0.068413755,-0.094446388,-0.013097197,0.001595482,0.053481717,0
spotify:artist:1x2vfyp8dGA84qgwb3D9QG,Eliza Gilkyson,-1.489741078,-1.274558953,-0.013183533,0.001624838,0,-0.48089738,-0.072155119,-0.716240056,-0.013183533,0.001624838,0.05455175,0
spotify:artist:1yMYjh77WgOVafRkI50mim,Wilson Phillips,-2.898523848,1.629345599,-0.009511083,0.000286553,8,2.024789463,0.133313777,-3.321766799,-0.009511083,0.000286553,0.000148183,8
spotify:artist:1yxSLGMDHlW21z4YXirZDS,Black Eyed Peas,3.168073633,0.657961936,0.023153487,-0.016267906,0,0.227395712,0.27688243,0.309276128,0.023153487,-0.016267906,0.019709206,0
spotify:artist:1zNqDE7qDGCsyzJwohVaoX,Anne-Marie,6.569332299,1.485554241,0.025397396,-0.023479429,0,-0.134487688,0.036766255,0.098799963,0.025397396,-0.023479429,0.034951926,0
spotify:artist:1zgNpeHQe8GulzfVkYP2VK,The Trammps,-1.136207294,-0.740487491,-0.00570112,-0.000771928,0,0.130879487,-0.322103258,-1.548814813,-0.00570112,-0.000771928,-0.004517143,0
spotify:artist:20kRNjGAzhnBIflemL8JfY,Romeo Void,-1.145706383,-1.109416346,-0.010760172,0.000476496,0,-0.098864912,0.093584951,-0.511161765,-0.010760172,0.000476496,-0.00323946,0
spotify:artist:20p5D2KrE8CGuOjHtxsyTp,Fine Young Cannibals,-1.057767968,-0.565947938,-0.010264417,0.000365704,0,-0.316226223,-0.183633073,-0.848524416,-0.010264417,0.000365704,-0.0031078,0
spotify:artist:20v3nhzoeaO2WvDSCdY0f4,First Choice,1.709618941,0.664414108,0.011826348,-0.005332744,5,-0.463987698,-0.740149765,0.538322559,0.011826348,-0.005332744,-0.014355655,5
spotify:artist:21gGD9dUby5ls0belA1wqZ,H-Town,-3.414480402,2.090117451,0.01859984,-0.004018947,6,4.678296915,-2.764379269,10.89039205,0.01859984,-0.004018947,-0.003480926,6
spotify:artist:21ysNsPzHdqYN2fQ75ZswG,Ted Nugent,-0.645822146,-3.156518785,-0.01186714,0.000731638,4,-2.014859937,-1.624293866,-0.523981648,-0.01186714,0.000731638,-0.003810224,4
spotify:artist:22282KfMxDo2PMjnBc82I4,Biz Markie,-4.629942226,7.283171764,0.025441313,0.084093151,1,5.957750633,1.448884838,-1.633100395,0.025441313,0.084093151,0.008218856,1
spotify:artist:22TEmHXBBLjTec2LOAuMdS,L.A. Guns,-1.435281561,-1.667948663,-0.012147832,0.000793985,7,-1.659612027,4.24019272,0.571014799,-0.012147832,0.000793985,-0.004401278,7
spotify:artist:22vadBKWnw6sLJPML2MdKi,Rossington Collins Band,-0.613152706,-0.336598263,-0.011780677,0.000712963,0,-0.376864962,-0.36202571,-0.221552567,-0.011780677,0.000712963,-0.003552736,0
spotify:artist:23rleGXVOVVgTk3xgtmfE4,Gordon Lightfoot,0.426777758,-2.383614646,-0.011663675,0.000696344,4,-1.742713674,-2.094429293,-1.633785482,-0.011663675,0.000696344,-0.002482511,4
spotify:artist:24GaH9tRBgZjlvOhpFuKi2,"Blood, Sweat & Tears",-0.596811445,-0.966431296,-0.011860843,0.000731744,0,-0.397807146,-0.377060993,-0.379143817,-0.011860843,0.000731744,-0.003443098,0
spotify:artist:24Wa5wIZIo1sPkzVGP0B5p,Pete Townshend,-0.62008768,-0.323239069,-0.011736055,0.000703855,0,-0.270083447,-0.195547207,-0.078000992,-0.011736055,0.000703855,-0.00341338,0
spotify:artist:24hJWbo98sH84tb0nkeaqy,Michael McDonald,-0.616268746,-0.407736658,-0.011623969,0.000684414,0,-0.304207851,-0.331626918,-0.268313835,-0.011623969,0.000684414,-0.002777588,0
spotify:artist:266SmBZTt4zRzaKEANWbfQ,Adina Howard,-1.100167662,-0.077015139,0.018855021,-0.004422256,5,0.198745415,-1.020676049,2.958419362,0.018855021,-0.004422256,-0.002980692,5
spotify:artist:26VFTg2z8YR0cCuwLzESi2,Halsey,11.4569174,2.658045707,0.025810541,-0.024827691,0,-0.254772254,-0.063764086,-0.272372031,0.025810541,-0.024827691,0.037826939,0
spotify:artist:26dSoYclwsYLMAKD3tpOr4,Britney Spears,3.168073633,0.657961936,0.023153487,-0.016267906,0,0.227395712,0.27688243,0.309276128,0.023153487,-0.016267906,0.019709206,0
spotify:artist:27FGXRNruFoOdf1vP8dqcH,Cassie,-0.3427738,0.03679546,0.019893765,-0.006644988,0,-0.237107907,-0.170381986,0.33464805,0.019893765,-0.006644988,0.000427196,0
spotify:artist:27TmRLInIAVyWyU14KlALf,Christopher Williams,-2.703536911,2.994839421,0.01839356,-0.003717865,6,4.361218769,-0.538909495,4.290118184,0.01839356,-0.003717865,-0.003763889,6
spotify:artist:27a0GiCba9K9lnkKidroFU,Canned Heat,-0.491620277,-0.589828188,-0.011922202,0.000743665,0,0.039201244,0.128242923,-0.124510506,-0.011922202,0.000743665,-0.003671205,0
spotify:artist:28821fRwpAWk44HfJ96PGV,Glenn Lewis,-0.640912469,-0.228664974,0.019052659,-0.004681768,5,-0.542916246,-0.795885292,1.433354041,0.019052659,-0.004681768,-0.002901686,5
spotify:artist:28pS8WVbFstY0o1SrqCf8I,Firehouse,-2.748458646,-4.543415353,-0.012128587,0.000789725,3,-4.489300404,9.538926679,1.389896844,-0.012128587,0.000789725,-0.004371078,3
spotify:artist:296LotOmbj7eOX7r9l46fK,Soul For Real,-3.989236208,4.156146356,0.018563718,-0.003899433,6,6.435494425,-1.364696953,7.807675,0.018563718,-0.003899433,-0.003462329,6
spotify:artist:29kkCKKGXheHuoO829FxWK,Boston,-0.968750122,-2.514956335,-0.01165421,0.00068477,0,-2.020059526,0.173249066,-1.013660704,-0.01165421,0.00068477,-0.003551646,0
spotify:artist:2AQjGvtT0pFYfxR3neFcvz,Jordin Sparks,4.304231941,0.934617989,0.024088337,-0.019263649,0,0.125563369,0.202752231,0.29136389,0.024088337,-0.019263649,0.026030486,0
spotify:artist:2ASrZfFxWDnzsNwUQg3pzl,Dangerous Toys,-0.743628073,-0.482157143,-0.012162915,0.000797361,0,-0.534918992,1.724268546,0.256537229,-0.012162915,0.000797361,-0.004428037,0
spotify:artist:2B4ZTS4hFT3IrUFVPHjEmL,Brooke Hogan,4.12665996,0.655836258,0.022502154,-0.013777354,0,0.020282151,0.073967975,0.463990791,0.022502154,-0.013777354,0.013920616,0
spotify:artist:2BWfZGPtsjRlRp7JTDqI45,Boy George,-0.763328494,-0.119958593,-0.00970599,0.000234678,0,-0.012195605,0.00939317,-0.500240828,-0.00970599,0.000234678,-0.003133104,0
spotify:artist:2BZDbnjUHnL2XAPgkdqTpb,Jennifer Love Hewitt,4.12665996,0.655836258,0.022502154,-0.013777354,0,0.020282151,0.073967975,0.463990791,0.022502154,-0.013777354,0.013920616,0
spotify:artist:2BnZSEAPhFsB1RIyeEgXmN,FU-Schnickens,-4.655856974,7.352121032,0.02561547,0.086085307,1,8.059701058,2.026242764,-2.614041518,0.02561547,0.086085307,0.0084945,1
spotify:artist:2C8mKwk3z5DtqLcSwUdYJ9,Marc Cohn,0.469569552,-1.49943252,-0.013097808,0.001593913,0,-0.124264367,0.067108997,-0.107967938,-0.013097808,0.001593913,0.053324124,0
spotify:artist:2CLVPk9FcywjClBcTvWPkT,Loverboy,-2.129280497,-3.220295899,-0.011505363,0.00065261,4,-1.988056329,-1.342071911,-1.463980863,-0.011505363,0.00065261,-0.003468143,4
spotify:artist:2CQdVOUWYfEbxhWTgQdUwm,Alana Davis,-0.729918654,-0.28345074,-0.013097197,0.001595482,0,-0.115983054,0.068413755,-0.094446388,-0.013097197,0.001595482,0.053481717,0
spotify:artist:2CxLP749mup3ncPrXgCnvU,Humble Pie,-0.680586403,-1.178992628,-0.011874913,0.000733202,0,-0.388997517,-0.298515145,-0.37568196,-0.011874913,0.000733202,-0.003656238,0
spotify:artist:2D3v3HJ9k3UzehaewnT3QA,New Riders of the Purple Sage,-0.558188695,-0.462688774,-0.011670612,0.000693487,0,-0.3475153,-0.405634156,-0.312520448,-0.011670612,0.000693487,-0.002908519,0
spotify:artist:2DWQX92uew7DlsgN0yD775,Dave Mason,1.401279388,-4.459952868,-0.011657276,0.000690711,4,-2.637070051,-3.729428845,-3.03505107,-0.011657276,0.000690711,-0.002901014,4
spotify:artist:2DzRMyWgjuMbYvt5BLbpCo,Anthony Hamilton,-0.640912469,-0.228664974,0.019052659,-0.004681768,5,-0.542916246,-0.795885292,1.433354041,0.019052659,-0.004681768,-0.002901686,5
spotify:artist:2E6Roj0oQnJIm2BeXwDica,Graham Nash,-0.897911152,-1.00220948,-0.011750495,0.00071043,0,-0.090476336,0.018080504,-0.442853383,-0.011750495,0.00071043,-0.003017731,0
spotify:artist:2EURsXo9qlt1aMWlviGCRi,Ashford & Simpson,1.000384719,0.022346969,0.011812037,-0.005310777,0,-1.020269677,-0.953659242,-0.409137482,0.011812037,-0.005310777,-0.014272726,0
spotify:artist:2IBPIcSkvQZyoaVfoyZKE8,Guy,-2.536218962,3.760718162,0.018301756,-0.003594886,6,4.162851151,-0.227869971,2.915491829,0.018301756,-0.003594886,-0.003891695,6
spotify:artist:2K3xysAFpeFSH3DG0zIErf,Lynch Mob,-1.341358739,-1.705646181,-0.012104859,0.000784473,7,-1.846158297,3.948417954,0.615169862,-0.012104859,0.000784473,-0.004333105,7
spotify:artist:2LkqJ1VL9V9CQU1EZxcGyM,Moxy,-0.671304215,-1.139693835,-0.011877315,0.000733499,5,-1.272185847,-0.511185811,0.447976295,-0.011877315,0.000733499,-0.003767355,5
spotify:artist:2M4KXzgedR4EKG4qgTeDKa,Love Unlimited,1.709618941,0.664414108,0.011826348,-0.005332744,5,-0.463987698,-0.740149765,0.538322559,0.011826348,-0.005332744,-0.014355655,5
spotify:artist:2MGT7CYlixSPxAnnkhLpaA,Next,-1.871844125,0.434024308,0.018726817,-0.004178571,2,1.748702795,-1.936781632,6.734637317,0.018726817,-0.004178571,-0.003348131,2
spotify:artist:2Mhi3jfuRSdbVZPdjqsnnN,Dr. Hook,-0.639698382,-0.237136844,-0.011489748,0.000661452,0,-0.134449467,-0.105839683,-0.136631158,-0.011489748,0.000661452,-0.002213229,0
spotify:artist:2NdeV5rLm47xAvogXrYhJX,Ciara,3.168073633,0.657961936,0.023153487,-0.016267906,0,0.227395712,0.27688243,0.309276128,0.023153487,-0.016267906,0.019709206,0
spotify:artist:2NhdGz9EDv2FeUw6udu2g1,The Wanted,5.440390249,1.211274041,0.025023187,-0.022259393,0,0.012534389,0.12761952,0.249315668,0.025023187,-0.022259393,0.032351767,0
spotify:artist:2NmK5FyrQ18HOPXq1UBzqa,SWV,-0.886083482,-0.51522941,0.019137436,-0.004995221,5,-0.270463971,-0.882316094,1.93889882,0.019137436,-0.004995221,-0.002144835,5
spotify:artist:2O0Hw1WSMbskB5tD9aWah3,The Stylistics,-1.24657607,-0.758126722,0.010679291,-0.005396468,0,-0.197869941,-0.164638902,0.02373536,0.010679291,-0.005396468,-0.015273928,0
spotify:artist:2ODUxmFxJSyvGiimNhMHbO,Johnny Winter,-0.233539771,-0.070475314,-0.011934571,0.000746194,0,0.205653495,0.269066169,-0.0015479,-0.011934571,0.000746194,-0.00370205,0
spotify:artist:2ON3fLFbL1rHfHEjeYNKsO,Amanda Marshall,-0.800114002,-0.485039622,-0.013097502,0.001594697,0,-0.272624276,-0.021779858,-0.246352376,-0.013097502,0.001594697,0.05340292,0
spotify:artist:2Omy3P5hFZym7FKum1JA1s,UFO,-0.409980509,-0.35026543,-0.011939558,0.00074744,5,-1.063002527,-0.348916871,0.450115146,-0.011939558,0.00074744,-0.003941789,5
spotify:artist:2QmLFuIDtNDmmJY3OtvinN,Meredith Brooks,-0.729918654,-0.28345074,-0.013097197,0.001595482,0,-0.115983054,0.068413755,-0.094446388,-0.013097197,0.001595482,0.053481717,0
spotify:artist:2RE8NwNxsOyuNZDD0jRxHP,Kool Moe Dee,-2.993480015,4.543034098,0.025286975,0.082329753,1,5.020525511,1.202349391,-1.201611044,0.025286975,0.082329753,0.007975027,1
spotify:artist:2RpHsROrX075xfIwHn6B2U,Chris de Burgh,-0.745989456,-0.071112218,-0.010468738,0.0004406,0,-0.122069904,-0.133449333,-0.471100579,-0.010468738,0.0004406,-0.002420393,0
spotify:artist:2S8UlyXW4JjjHcbeg8ddIo,702,-1.032667936,-0.004750807,0.01924608,-0.005223204,2,-0.394265983,-1.73312387,4.057645459,0.01924608,-0.005223204,-0.001827408,2
spotify:artist:2S9W9aSAd7e5mp8WqWxN2h,Hilary Duff,3.168073633,0.657961936,0.023153487,-0.016267906,0,0.227395712,0.27688243,0.309276128,0.023153487,-0.016267906,0.019709206,0
spotify:artist:2ScuQMRWThcifBRIvNDFDC,John Mayall & The Bluesbreakers,-0.233539771,-0.070475314,-0.011934571,0.000746194,0,0.205653495,0.269066169,-0.0015479,-0.011934571,0.000746194,-0.00370205,0
spotify:artist:2TPyCsRoh2tjeZLTQ2ojlj,John Waite,-1.60196057,-1.601641858,-0.010863658,0.000516667,4,-0.757735811,-0.766088067,-1.399902148,-0.010863658,0.000516667,-0.002884042,4
spotify:artist:2The4Ur661sLPGndcUuuLu,Nu Shooz,-0.882836135,0.574902296,-0.008509753,5.06E-05,0,0.528072603,0.236420385,-0.536323263,-0.008509753,5.06E-05,-0.002045608,0
spotify:artist:2Uuon75BhnuuxdKLYn4wHn,Eddie Kendricks,-1.117010736,-0.56524507,0.01081692,-0.005500718,0,-0.031857989,0.024120263,0.110436737,0.01081692,-0.005500718,-0.015647753,0
spotify:artist:2Uz58cSxlJgefDaSikxYQ7,Thomas Dolby,-0.588732667,-1.378946248,-0.010577704,0.000434357,0,-0.695786745,-0.058853243,-0.538378239,-0.010577704,0.000434357,-0.003208902,0
spotify:artist:2VX0o9LDIVmKIgpnwdJpOJ,Erick Sermon,-4.087844032,6.378399621,0.02563529,0.086314064,1,6.960473741,1.719930817,-2.100251042,0.02563529,0.086314064,0.008526315,1
spotify:artist:2W8UTum7bU7ue6m0r14H97,The Dramatics,-1.073801303,-0.564930236,0.010837661,-0.005397058,0,-0.476290465,-0.42598508,-0.285941047,0.010837661,-0.005397058,-0.015187869,0
spotify:artist:2XKBOnP3qXHP2FpzKplAYh,Michael Johnson,-0.94374242,-0.74317613,-0.011434821,0.000649736,0,-0.706591083,-0.6387926,-0.230266788,-0.011434821,0.000649736,-0.002218556,0
spotify:artist:2XzHxDFTNywDd5ReMhgxkg,The Whispers,2.514651166,0.201170504,0.011588119,-0.005325461,5,-2.360370215,-1.324346879,1.091817097,0.011588119,-0.005325461,-0.014461506,5
spotify:artist:2Y36dqR145FjTKUjibEcjO,Enuff Z'Nuff,-0.980276629,-0.852789908,-0.012152736,0.000795093,0,-0.66944615,2.141273347,0.158756698,-0.012152736,0.000795093,-0.004410875,0
spotify:artist:2YFKPea38AMhGqGSqkFF1Q,Kingdom Come,-0.731196649,-0.592680337,-0.012131836,0.000790423,0,-0.607660288,1.170877875,0.206246015,-0.012131836,0.000790423,-0.004374075,0
spotify:artist:2YT6FujbjJP3ohD51eOZIV,Meli'sa Morgan,1.878816441,0.272202198,0.012664518,-0.005181219,5,-0.130419065,-0.870325117,1.168307183,0.012664518,-0.005181219,-0.013271925,5
spotify:artist:2YdVmtVBpIrv0N6WiBzSqm,Atlantic Starr,1.094177839,-0.299292048,0.012779241,-0.005154002,5,-0.533554079,-1.046890584,1.161503835,0.012779241,-0.005154002,-0.013104911,5
spotify:artist:2ZbWlThDW0qSbI3hinpl0w,MC Lyte,-4.100059929,6.411515791,0.025505972,0.084833455,1,7.007955402,1.737262765,-2.124549606,0.025505972,0.084833455,0.008321342,1
spotify:artist:2aS6jYh7ysTL1ZUsHneNgM,Berlin,-1.145706383,-1.109416346,-0.010760172,0.000476496,0,-0.098864912,0.093584951,-0.511161765,-0.010760172,0.000476496,-0.00323946,0
spotify:artist:2bwR166mSJEJrYJqfyust3,Keith Murray,-4.087844032,6.378399621,0.02563529,0.086314064,1,6.960473741,1.719930817,-2.100251042,0.02563529,0.086314064,0.008526315,1
spotify:artist:2dPJ5zRtJQHk7JsLMy5Dtu,Beth Nielsen Chapman,-1.489741078,-1.274558953,-0.013183533,0.001624838,0,-0.48089738,-0.072155119,-0.716240056,-0.013183533,0.001624838,0.05455175,0
spotify:artist:2ddxtfC0oS8LoktXUHE7YL,Ashley Tisdale,11.4569174,2.658045707,0.025810541,-0.024827691,0,-0.254772254,-0.063764086,-0.272372031,0.025810541,-0.024827691,0.037826939,0
spotify:artist:2e53aHBQdCMKWqHDuyJsjC,Free,-0.705339737,-1.20859428,-0.011855076,0.00072901,0,-0.428477746,-0.334741117,-0.403134811,-0.011855076,0.00072901,-0.003621544,0
spotify:artist:2ekjTXgjxbWwBX5lTAj4DU,Eric Carmen,-1.418912791,-0.995012057,-0.010567975,0.000468904,0,-0.520739561,-0.710624037,-1.554304045,-0.010567975,0.000468904,-0.002082574,0
spotify:artist:2eogQKWWoohI3BSnoG7E2U,Donna Summer,-1.136207294,-0.740487491,-0.00570112,-0.000771928,0,0.130879487,-0.322103258,-1.548814813,-0.00570112,-0.000771928,-0.004517143,0
spotify:artist:2gsggkzM5R49q6jpPvazou,Jessie J,6.905330156,1.394326338,0.024992908,-0.022167698,0,-0.194777564,-0.034933206,0.196528274,0.024992908,-0.022167698,0.032164879,0
spotify:artist:2hO4YtXUFJiUYS2uYFvHNK,Traveling Wilburys,-0.62008768,-0.323239069,-0.011736055,0.000703855,0,-0.270083447,-0.195547207,-0.078000992,-0.011736055,0.000703855,-0.00341338,0
spotify:artist:2hUkfSXyuDfQbUeNOShRiz,Con Funk Shun,2.740131736,-0.608340668,0.011558452,-0.005381641,5,-2.126348386,-1.382324292,0.758512177,0.011558452,-0.005381641,-0.014710649,5
spotify:artist:2hnzQ6eCFkxUIPsVcsdj8A,The Georgia Satellites,-0.682429465,-0.441640487,-0.011714117,0.000698237,0,-0.429902949,-0.383313633,-0.22655065,-0.011714117,0.000698237,-0.003514751,0
spotify:artist:2iM28IgKg89v1o7BTQAVPo,Bruce Hornsby,-0.80428734,-0.575085616,-0.011346811,0.000621154,0,-0.227776462,-0.194053407,-0.362212251,-0.011346811,0.000621154,-0.00298773,0
spotify:artist:2iclO3rlyF0YVNE46ctYRj,Jungle Brothers,-5.214194706,8.299925507,0.02559565,0.085856549,1,6.979127944,1.726711521,-2.108364362,0.02559565,0.085856549,0.008462686,1
spotify:artist:2jL1PBvL0gBZBPk6B38p3z,Tift Merritt,-1.489741078,-1.274558953,-0.013183533,0.001624838,0,-0.48089738,-0.072155119,-0.716240056,-0.013183533,0.001624838,0.05455175,0
spotify:artist:2kUUaHnVe0rRarZqRZgHEY,Sharon Redd,1.709618941,0.664414108,0.011826348,-0.005332744,5,-0.463987698,-0.740149765,0.538322559,0.011826348,-0.005332744,-0.014355655,5
spotify:artist:2koMWjvRRF0cOpJnjhdKx0,Autograph,-2.012304685,-2.98961631,-0.01209841,0.000783019,3,-3.233566541,6.776919353,1.040051512,-0.01209841,0.000783019,-0.004317706,3
spotify:artist:2kreKea2n96dXjcyAU9j5N,The Pointer Sisters,-2.433677925,1.126737653,-0.005694222,-0.000768748,8,1.617377721,0.197553505,-2.681500595,-0.005694222,-0.000768748,-0.004491049,8
spotify:artist:2lFHVcUeJ9Gq6AZiU3ZAOa,3LW,1.021851152,0.436333849,0.019892408,-0.006643314,0,-0.250637872,-0.179722562,0.433412959,0.019892408,-0.006643314,0.000426726,0
spotify:artist:2lxX1ivRYp26soIavdG9bX,The Yardbirds,-0.491620277,-0.589828188,-0.011922202,0.000743665,0,0.039201244,0.128242923,-0.124510506,-0.011922202,0.000743665,-0.003671205,0
spotify:artist:2mDlls63YpRsMjgpyXxyu6,Crosby & Nash,-0.897911152,-1.00220948,-0.011750495,0.00071043,0,-0.090476336,0.018080504,-0.442853383,-0.011750495,0.00071043,-0.003017731,0
spotify:artist:2mG8HHQ9S9kcbjcrb5N1FE,The Go-Go's,-0.760255994,-0.418109239,-0.011279437,0.000601097,0,-0.368285629,0.12829276,-0.118335315,-0.011279437,0.000601097,-0.00332593,0
spotify:artist:2mknvtcck8i82nKxDPDibv,MFSB,1.709618941,0.664414108,0.011826348,-0.005332744,5,-0.463987698,-0.740149765,0.538322559,0.011826348,-0.005332744,-0.014355655,5
spotify:artist:2pJn4djuWrNQbNfrxHB13M,Jesse Colin Young,-0.346339564,-0.983486213,-0.011667333,0.00069338,0,-0.436082587,-0.614643933,-0.596302311,-0.011667333,0.00069338,-0.002847672,0
spotify:artist:2pdvghEHZJtgSXZ7cvNLou,"Crosby, Stills & Nash",0.671711574,-2.873835235,-0.011736276,0.000707503,0,-0.982240639,-0.947661844,-0.282891953,-0.011736276,0.000707503,-0.003000298,0
spotify:artist:2qQeKHrQJHLLbvDAOSO874,Winger,-3.237088699,-5.123856947,-0.012121339,0.000788108,3,-5.374474933,11.32448205,1.70728913,-0.012121339,0.000788108,-0.004357557,3
spotify:artist:2r09Inibex3C4ZNTUVSG3m,Keith Sweat,-1.007893521,0.161811939,0.01857979,-0.003939033,5,0.892949579,-0.640818421,2.718070403,0.01857979,-0.003939033,-0.00355261,5
spotify:artist:2rc78XDH9zuJP6bm78lU8Z,Derek & The Dominos,-0.934709331,-1.345950871,-0.011920129,0.00074312,0,-0.519886139,-0.336461191,-0.517613088,-0.011920129,0.00074312,-0.003680664,0
spotify:artist:2retT7MFwHDVTeGKDdybEx,K. Michelle,-0.492938895,-0.387219309,0.019700204,-0.006148666,5,-0.542803465,-0.588319963,0.85299871,0.019700204,-0.006148666,-0.000475144,5
spotify:artist:2s79xe5F6eUQkjwjww27Fh,ABC,-1.397915502,-1.089548619,-0.010410411,0.000397919,0,-0.550419566,-0.347848528,-1.219096732,-0.010410411,0.000397919,-0.003152355,0
spotify:artist:2tFN9ubMXEhdAQvdQxcsma,Jessica Simpson,-1.043104987,-0.84215805,0.022474925,-0.0137206,0,-0.631149459,-0.432758245,-0.196107446,0.022474925,-0.0137206,0.013840201,0
spotify:artist:2tRsMl4eGxwoNabM08Dm4I,Judas Priest,-0.226931568,0.038130198,-0.012059843,0.000774156,0,-0.447297034,0.066963431,0.49753916,-0.012059843,0.000774156,-0.004225649,0
spotify:artist:2urZrEdsq72kx0UzfYN8Yv,Spandau Ballet,-1.172876855,-0.736564947,-0.01022631,0.000353751,0,-0.240255302,-0.13843192,-0.820570374,-0.01022631,0.000353751,-0.00317345,0
spotify:artist:2wUjUUtkb5lvLKcGKsKqsR,Alessia Cara,13.89828129,3.218185601,0.025740419,-0.024597719,0,-0.519690045,-0.251844394,-0.47743818,0.025740419,-0.024597719,0.037335156,0
spotify:artist:2wh5Qu35PjDbJBqAv65RGa,Klymaxx,1.41635149,0.301366705,0.012794724,-0.005175321,0,-0.204091034,-0.188565669,0.105327841,0.012794724,-0.005175321,-0.013181054,0
spotify:artist:2yTUYhIf8fxptTIy3KLuJD,Mike & The Mechanics,-1.283488467,-0.819663717,-0.010802069,0.000503247,0,-0.580636293,-0.63279226,-1.339804879,-0.010802069,0.000503247,-0.002814315,0
spotify:artist:2yaixhgm3yXxjhJAH8SZy3,Freddie Jackson,1.681909144,0.47873619,0.014122099,-0.004801141,5,0.259558139,-0.877682779,1.707702164,0.014122099,-0.004801141,-0.010958392,5
spotify:artist:2zFZiWQJFFshzojycnXoTL,Bell Biv DeVoe,-3.931015313,4.225389404,0.017862942,-0.00134585,6,3.801973616,-0.882024956,4.948055565,0.017862942,-0.00134585,-0.003504998,6
spotify:artist:2zVsfeSyFbCey7rq7PasHp,Cathy Dennis,-2.225978228,1.322619832,-0.008758117,0.000130456,8,1.616441606,0.160512934,-2.425616319,-0.008758117,0.000130456,-0.00159772,8
spotify:artist:30q5mqJmdYPaKabPMytzvv,The Intruders,-0.956763837,-0.397990014,0.010812715,-0.005476967,0,-0.380016603,-0.344589023,-0.147991018,0.010812715,-0.005476967,-0.015547158,0
spotify:artist:319yZVtYM9MBGqmSQnMyY6,Carole King,-0.671605271,-0.183841733,-0.01162985,0.000705527,0,-0.286172073,-0.146104774,0.081193159,-0.01162985,0.000705527,-0.000894556,0
spotify:artist:32lVGr0fSRGT6okLKHiP68,Taylor Dayne,-3.571263241,1.583977989,-0.008499456,5.04E-05,8,1.125885783,-0.27950758,-3.807103956,-0.008499456,5.04E-05,-0.002033791,8
spotify:artist:33C3ByGk9NCrjTIXr6npqf,Lyfe Jennings,1.39250824,0.675269006,0.019003379,-0.004671536,5,-0.527888262,-0.925031087,1.850601624,0.019003379,-0.004671536,-0.002751454,5
spotify:artist:34Bm9d5DAJjSnaI02BCjdA,The New Birth,1.30504865,0.678167431,0.011414795,-0.00538731,0,-0.245337954,-0.187254052,0.058208108,0.011414795,-0.00538731,-0.014812389,0
spotify:artist:34PLzyi7CdXUekiLHYyqXq,Men Without Hats,-0.588732667,-1.378946248,-0.010577704,0.000434357,0,-0.695786745,-0.058853243,-0.538378239,-0.010577704,0.000434357,-0.003208902,0
spotify:artist:34jw2BbxjoYalTp8cJFCPv,Heart,-1.057977423,-1.176942351,-0.011465944,0.000642954,0,-0.489918815,0.1529017,-0.394256813,-0.011465944,0.000642954,-0.003422919,0
spotify:artist:3537Phr9t8GWkY2GtxDpnt,Fat Boys,-2.993480015,4.543034098,0.025286975,0.082329753,1,5.020525511,1.202349391,-1.201611044,0.025286975,0.082329753,0.007975027,1
spotify:artist:35U9lQaRWSQISxQAB94Meo,America,-0.759249725,-0.385300038,-0.011689544,0.000697462,0,-0.256961166,-0.242165747,-0.329690413,-0.011689544,0.000697462,-0.002939565,0
spotify:artist:36RONzYVz7gBzAI1k6kot1,Karen Carpenter,-0.862765771,-0.467105251,-0.011396166,0.000641584,0,-0.389632605,-0.425559746,-0.317729437,-0.011396166,0.000641584,-0.002216701,0
spotify:artist:38h03gA85YYPeDPd9ER9rT,The O'Jays,-1.716305805,-1.264490871,0.010849615,-0.005430575,0,-0.436912904,-0.406304799,-0.106482583,0.010849615,-0.005430575,-0.015326177,0
spotify:artist:396Kh0m4wGUvcMUULw71yi,Zapp,1.628474184,0.462362514,0.011564563,-0.005404046,5,-1.11878362,-0.401810287,0.620109233,0.011564563,-0.005404046,-0.014800856,5
spotify:artist:39T6qqI0jDtSWWioX8eGJz,The Doobie Brothers,0.106113117,-0.717438231,-0.011620272,0.000678335,0,-0.461401937,-0.200883681,0.112324862,-0.011620272,0.000678335,-0.003368286,0
spotify:artist:3AHq6rutf72JF0ul8GB6G2,The Jets,-2.225978228,1.322619832,-0.008758117,0.000130456,8,1.616441606,0.160512934,-2.425616319,-0.008758117,0.000130456,-0.00159772,8
spotify:artist:3AuMNF8rQAKOzjYppFNAoB,Kelly Rowland,2.79239614,0.480848637,0.020497136,-0.008445804,0,-0.043051265,-0.047015416,0.648982958,0.020497136,-0.008445804,0.004060574,0
spotify:artist:3BVkDHWRvLJEyKdvhLbjsq,W.A.S.P.,-0.467694903,-0.498790387,-0.012107131,0.000784817,0,-1.386848451,1.571892542,0.861754226,-0.012107131,0.000784817,-0.004320948,0
spotify:artist:3BmGtnKgCSGYIUhmivXKWX,Kelly Clarkson,5.440390249,1.211274041,0.025023187,-0.022259393,0,0.012534389,0.12761952,0.249315668,0.025023187,-0.022259393,0.032351767,0
spotify:artist:3C6chBmZ9wzisBhoh8G2nK,Naked Eyes,-1.597015508,-1.391636939,-0.010610263,0.000444047,0,-0.559416027,0.211089753,-0.704251598,-0.010610263,0.000444047,-0.003204048,0
spotify:artist:3CYSRCHfilgR8DSbkCMp5j,Cowboy Junkies,-1.134328985,-0.802321128,-0.013142012,0.001606988,0,-0.566876707,-0.115966709,-0.835155253,-0.013142012,0.001606988,0.053692189,0
spotify:artist:3DhHdlyaEYhoTFs0YJeeuc,Bang Tango,-0.743628073,-0.482157143,-0.012162915,0.000797361,0,-0.534918992,1.724268546,0.256537229,-0.012162915,0.000797361,-0.004428037,0
spotify:artist:3DznKagEU8yMQZR9z33Da5,LaBelle,-0.629172971,-0.073899611,0.010148003,-0.005206902,0,-0.078422973,-0.008142541,-0.130637798,0.010148003,-0.005206902,-0.014752338,0
spotify:artist:3EBRANWwnViQuBrImN61Z1,Pixie Lott,5.440390249,1.211274041,0.025023187,-0.022259393,0,0.012534389,0.12761952,0.249315668,0.025023187,-0.022259393,0.032351767,0
spotify:artist:3EhbVgyfGd7HkpsagwL9GS,Alice Cooper,-1.522210351,-1.721176895,-0.01204525,0.000770967,7,-2.208078963,2.9386977,0.556050841,-0.01204525,0.000770967,-0.004201239,7
spotify:artist:3FD9VAd0ppjmKbfxF4LzUh,Danity Kane,1.021851152,0.436333849,0.019892408,-0.006643314,0,-0.250637872,-0.179722562,0.433412959,0.019892408,-0.006643314,0.000426726,0
spotify:artist:3FZn8Z2B7mfaSOU8NE62KR,David Ruffin,-0.083700682,0.114232827,0.010792113,-0.005533471,0,0.11663017,0.157581235,0.113183522,0.010792113,-0.005533471,-0.015803481,0
spotify:artist:3Fz2GbraVXhcpXnoi2Oe1r,Billy Squier,-0.528613767,-3.305295538,-0.011674318,0.000689335,4,-2.237119011,-0.514013362,-1.197652995,-0.011674318,0.000689335,-0.00357721,4
spotify:artist:3HC7NcxQx2Yk0fWoRKJ0xF,Jefferson Starship,-0.179243547,-4.069687303,-0.011587236,0.000673423,4,-2.502698423,-3.170921437,-2.74101666,-0.011587236,0.000673423,-0.00312103,4
spotify:artist:3ICflSq6ZgYAIrm2CTkfVP,The Animals,-0.428854375,-0.518567532,-0.0119154,0.000742005,0,-0.120694888,-0.043856444,-0.08555596,-0.0119154,0.000742005,-0.003689039,0
spotify:artist:3J9tQvcK0bY3CcVcgRELxH,Regina Belle,1.729943713,0.30163476,0.012943908,-0.005130711,5,-0.076207866,-0.76745369,1.135280021,0.012943908,-0.005130711,-0.012910682,5
spotify:artist:3JhRHqCi8HEzkJVWt19LtN,Stephen Bishop,-1.44253775,-2.83869688,-0.011512432,0.000664372,4,-2.483546956,-2.672036649,-1.298779854,-0.011512432,0.000664372,-0.002390954,4
spotify:artist:3KpLtTMpLAko7nBDmiYg7Z,Force M.D.'s,-0.912726435,0.347922577,0.017983119,-0.003745668,5,1.023258275,-0.159727599,1.415360909,0.017983119,-0.003745668,-0.004550315,5
spotify:artist:3LfO03nEZMdWNHG2tLpMa0,Tavares,-0.854953822,-0.350920637,0.005035648,-0.003715955,0,-0.288135015,-0.344070916,-0.626776406,0.005035648,-0.003715955,-0.0111899,0
spotify:artist:3LtBdgNHdH0Ix8hCFZ4NJG,Blancmange,-0.026150211,-1.262045296,-0.01048647,0.000413287,0,-0.278679655,-0.071002291,-0.452402971,-0.01048647,0.000413287,-0.003193623,0
spotify:artist:3MCjwjfIor5FkK3h639qkW,Rufus,1.47132056,0.528707727,0.010966532,-0.005333104,0,-0.507443346,-0.437144249,-0.088168957,0.010966532,-0.005333104,-0.01483201,0
spotify:artist:3MdG05syQeRYPPcClLaUGl,Diana Ross,-1.136207294,-0.740487491,-0.00570112,-0.000771928,0,0.130879487,-0.322103258,-1.548814813,-0.00570112,-0.000771928,-0.004517143,0
spotify:artist:3NyNPJaemMYsL14DK2tO01,Cheryl,5.440390249,1.211274041,0.025023187,-0.022259393,0,0.012534389,0.12761952,0.249315668,0.025023187,-0.022259393,0.032351767,0
spotify:artist:3PyWEKLWI0vHPmoNrIX0QE,Rakim,-4.087844032,6.378399621,0.02563529,0.086314064,1,6.960473741,1.719930817,-2.100251042,0.02563529,0.086314064,0.008526315,1
spotify:artist:3QP0XPDwbvGivqDAaJ5f5G,Adam Ant,-1.145706383,-1.109416346,-0.010760172,0.000476496,0,-0.098864912,0.093584951,-0.511161765,-0.010760172,0.000476496,-0.00323946,0
spotify:artist:3RDl7kNfhB72Ojsc2qiyfy,Kindred The Family Soul,-0.640912469,-0.228664974,0.019052659,-0.004681768,5,-0.542916246,-0.795885292,1.433354041,0.019052659,-0.004681768,-0.002901686,5
spotify:artist:3REpOYo13YkVj1dFzda12A,Shalamar,-0.439741877,-0.397131718,0.01113111,-0.005258261,0,-0.147640237,-0.158429699,-0.069027508,0.01113111,-0.005258261,-0.014422874,0
spotify:artist:3RYdggbT5C9r4BsljokJ1Q,Elf,-0.671304215,-1.139693835,-0.011877315,0.000733499,5,-1.272185847,-0.511185811,0.447976295,-0.011877315,0.000733499,-0.003767355,5
spotify:artist:3RwQ26hR2tJtA8F9p2n7jG,The Temptations,-0.00918149,0.236766272,0.010829536,-0.005571971,0,0.221578755,0.255560634,0.171025283,0.010829536,-0.005571971,-0.015949539,0
spotify:artist:3S78Gzhp1D01i1x2KGXrnh,Howard Hewett,1.729943713,0.30163476,0.012943908,-0.005130711,5,-0.076207866,-0.76745369,1.135280021,0.012943908,-0.005130711,-0.012910682,5
spotify:artist:3SRJWVa6lZnqRHOyAHmDrX,Jon B.,0.690799708,0.535765863,0.018854109,-0.004409744,2,0.357062586,-1.774609986,5.109102038,0.018854109,-0.004409744,-0.003054974,2
spotify:artist:3TQ9JTBI2n2hfo7aRONEYV,Sir Mix-A-Lot,-2.993480015,4.543034098,0.025286975,0.082329753,1,5.020525511,1.202349391,-1.201611044,0.025286975,0.082329753,0.007975027,1
spotify:artist:3UbyYnvNIT5DFXU4WgiGpP,Whitesnake,-0.226931568,0.038130198,-0.012059843,0.000774156,0,-0.447297034,0.066963431,0.49753916,-0.012059843,0.000774156,-0.004225649,0
spotify:artist:3UpIbyXfGzmHG6TMH4dJEk,Aimee Mann,-0.763925819,-0.301966709,-0.013120227,0.00160274,0,-0.152429169,0.094738448,-0.410950698,-0.013120227,0.00160274,0.053714591,0
spotify:artist:3VJakY5Yw5phAOF4Bada5v,Quarterflash,-1.153128661,-1.197716364,-0.011117542,0.000567743,0,-0.80268283,-0.596076355,-0.86968412,-0.011117542,0.000567743,-0.003157154,0
spotify:artist:3X0tJzVYoWlfjLYI0Ridsw,Suzanne Vega,-0.85920691,-0.419937798,-0.013120428,0.001599649,0,-0.197199425,0.074634266,-0.5961547,-0.013120428,0.001599649,0.053424681,0
spotify:artist:3X458ddYA2YcVWuVIGGOYe,Toni Braxton,-0.517571626,-0.271270298,0.019696898,-0.006154891,0,-0.2687634,-0.245224178,0.247248786,0.019696898,-0.006154891,-0.000440625,0
spotify:artist:3Y3xIwWyq5wnNHPp5gPjOW,Kenny Loggins,-0.714351742,-0.401885829,-0.010987674,0.000542363,0,-0.250422168,-0.194254456,-0.317521077,-0.010987674,0.000542363,-0.00300542,0
spotify:artist:3Y5abCLsMxsOLaZ8rYusSR,Pablo Cruise,1.001979744,-2.245357779,-0.011639559,0.00068755,4,-1.608635569,-2.293088721,-1.887304928,-0.011639559,0.00068755,-0.002825607,4
spotify:artist:3YJMzGjAm245zwJooY7PEj,Chrisette Michele,-0.534298421,-0.160293714,0.019562139,-0.005826784,0,-0.236233599,-0.200887013,0.663246732,0.019562139,-0.005826784,-0.001017916,0
spotify:artist:3YyZFf9ZN2YbkqeZia8zHX,Brand Nubian,-4.655856974,7.352121032,0.02561547,0.086085307,1,8.059701058,2.026242764,-2.614041518,0.02561547,0.086085307,0.0084945,1
spotify:artist:3Z1tibPKhUYWCno0IYicCN,John Parr,-1.254136713,-1.239897145,-0.010929478,0.000529345,0,-0.820001645,-0.765270189,-1.196829611,-0.010929478,0.000529345,-0.002961317,0
spotify:artist:3ZUP9QmHAppM2vfpknkvIF,Vinnie Vincent Invasion,-0.743628073,-0.482157143,-0.012162915,0.000797361,0,-0.534918992,1.724268546,0.256537229,-0.012162915,0.000797361,-0.004428037,0
spotify:artist:3alW3LYQS8K29z8C8NSLIX,Barry Manilow,-0.843915369,-0.813394217,-0.011506635,0.000664533,0,-0.792659319,-0.612941369,0.100481076,-0.011506635,0.000664533,-0.002261794,0
spotify:artist:3bIAUCN08OjlkGrqRjJDji,Playa,-0.661826635,0.145141057,0.018873666,-0.004460842,5,0.127882421,-0.208434823,0.941139868,0.018873666,-0.004460842,-0.00296699,5
spotify:artist:3bnf5pPVQFWv762IiavilV,Maureen McGovern,-0.67738254,-0.175745504,-0.011385376,0.000639346,0,-0.152230968,-0.133838015,-0.1427168,-0.011385376,0.000639346,-0.002209354,0
spotify:artist:3cdvlbCYf4WoBdy89RWkNS,Iron Butterfly,-0.636481534,-1.061096033,-0.011889622,0.00073651,0,-0.429672033,-0.355893272,-0.306627943,-0.011889622,0.00073651,-0.003654552,0
spotify:artist:3cniTumSiUysiPWXapGx1i,Cutting Crew,-1.717438292,-1.746998252,-0.010670129,0.000475974,4,-0.770735923,-0.801531787,-1.556299978,-0.010670129,0.000475974,-0.002826997,4
spotify:artist:3daM7asS0gCFvyLemNx2EE,The Romantics,-1.171049862,-1.306142258,-0.011168328,0.000577638,0,-0.509418644,0.114113767,-0.525117206,-0.011168328,0.000577638,-0.003217516,0
spotify:artist:3e7awlrlDSwF3iM0WBjGMp,Little Mix,9.839184388,2.262221964,0.025525081,-0.023896105,0,-0.187185986,-0.013763137,-0.213645911,0.025525081,-0.023896105,0.035840427,0
spotify:artist:3eskO5m0H4yiF64vRySBjr,Buffalo Springfield,-0.74438882,-1.522643766,-0.011833565,0.000726614,0,-0.24841863,-0.177884139,-0.487494232,-0.011833565,0.000726614,-0.003320128,0
spotify:artist:3g0RlUGYDE7rdAJSnLkNOv,Kut Klose,-1.108046304,0.191976722,0.01867387,-0.004147114,5,0.333765965,-0.828945224,3.45343949,0.01867387,-0.004147114,-0.00334609,5
spotify:artist:3gdIwZY6Q3RXhDteYr4ZvC,Sophie B. Hawkins,-1.047067817,-0.80364369,-0.012205982,0.001268494,0,-0.376840399,-0.084662696,-0.336138036,-0.012205982,0.001268494,0.040096883,0
spotify:artist:3i9hP422d2KMjaupTzBNVS,The Spencer Davis Group,-0.670502085,-1.111396077,-0.011916635,0.000742798,0,-0.039860168,0.090745028,-0.211722217,-0.011916635,0.000742798,-0.003622526,0
spotify:artist:3iDD7bnsjL9J4fO298r0L0,Chicago,-0.684715484,-0.366092041,-0.011482643,0.000648016,0,-0.34921397,-0.260345967,-0.216045488,-0.011482643,0.000648016,-0.003334878,0
spotify:artist:3jdirYL01245TvAH39GfM6,Jackyl,-0.772776206,-0.271384437,-0.012051924,0.000772632,0,-0.795075815,1.664343257,0.20774355,-0.012051924,0.000772632,-0.004211914,0
spotify:artist:3jtTd1E9mBxYYU987s32Fm,Aldo Nova,-0.98665353,-0.897527194,-0.011789686,0.0007148,0,-0.539046208,0.737528363,-0.196644898,-0.011789686,0.0007148,-0.003845672,0
spotify:artist:3lJ6jvOiNY46L2juqXufpf,Changing Faces,-1.895391841,0.117218252,0.018850828,-0.004442466,2,1.581003635,-2.181614248,6.857228272,0.018850828,-0.004442466,-0.00294985,2
spotify:artist:3lPQ2Fk5JOwGWAF3ORFCqH,John Mellencamp,0.057893667,-0.889721177,-0.011478338,0.000646898,0,-0.521039373,-0.275664358,-0.067473192,-0.011478338,0.000646898,-0.003332124,0
spotify:artist:3mY9Ii0cL5SQxpOTAm8SHx,Warren Zevon,-0.62151492,-0.106089976,-0.011628593,0.000684495,0,-0.057032226,0.015320335,-0.088447434,-0.011628593,0.000684495,-0.002861399,0
spotify:artist:3nLYJvqbEzs5kg2TlprxIG,White Lion,-1.982499166,-2.946415884,-0.012135354,0.000791202,7,-3.079236789,6.515644435,1.088950186,-0.012135354,0.000791202,-0.004379539,7
spotify:artist:3oZa8Xs6IjlIUGLAhVyK4G,Irene Cara,-0.90223315,-0.410407325,-0.007489861,-0.000287701,0,-0.134895426,-0.21342171,-0.895724566,-0.007489861,-0.000287701,-0.003334322,0
spotify:artist:3oqSDVaf6RoBGreqOlgUpv,Phyllis Hyman,0.738227937,0.032209496,0.012621116,-0.005183185,5,0.004044552,-0.458639051,0.799097905,0.012621116,-0.005183185,-0.013302216,5
spotify:artist:3r17AfJCCUqC9Lf0OAc73G,Fergie,8.480844572,1.668228278,0.02312547,-0.016200893,0,-0.404336264,-0.180364987,0.196204662,0.02312547,-0.016200893,0.019595351,0
spotify:artist:3r9TXuXfOUxXjgYgAR0fP8,Bay City Rollers,-0.639698382,-0.237136844,-0.011489748,0.000661452,0,-0.134449467,-0.105839683,-0.136631158,-0.011489748,0.000661452,-0.002213229,0
spotify:artist:3sc7iUG1Wwpwx7bHeZolgx,Bananarama,-1.032562439,-0.393301553,-0.008240845,-0.000115377,0,-0.182236164,-0.183260732,-0.914610026,-0.008240845,-0.000115377,-0.003359308,0
spotify:artist:3t83f2J04dRWOpNBe9GTfs,Vivian Green,-0.645250532,-0.169095269,0.019360935,-0.005365243,5,-0.421239392,-0.468139027,0.778720594,0.019360935,-0.005365243,-0.001793652,5
spotify:artist:3tufWJzpCiAGleBt5TkmTn,Ratt,-2.929746229,-4.717838935,-0.012139823,0.000792201,3,-3.546124153,8.034443356,1.033848266,-0.012139823,0.000792201,-0.004386568,3
spotify:artist:3tx8fyu3c4OBP5nejYtUOb,Average White Band,1.468091921,0.590823807,0.011375797,-0.005396205,0,-0.25256312,-0.172359459,0.031622387,0.011375797,-0.005396205,-0.014871846,0
spotify:artist:3v4feUQnU3VEUqFrjmtekL,Faces,-0.349547396,-0.277713738,-0.011925603,0.000744496,0,0.09954744,0.17985168,-0.107069855,-0.011925603,0.000744496,-0.003662288,0
spotify:artist:3vIFTM70CYTYr122vTVpzx,Special Ed,-4.629942226,7.283171764,0.025441313,0.084093151,1,5.957750633,1.448884838,-1.633100395,0.025441313,0.084093151,0.008218856,1
spotify:artist:3vMWY1bUrmYoSoEWLiQWOZ,Glenn Frey,-2.363077094,-2.522381855,-0.010952762,0.000537487,4,-1.837330102,-1.616356739,-2.602095435,-0.010952762,0.000537487,-0.002819728,4
spotify:artist:3vRclCt9VnNhYIxFMQCxuM,Milli Vanilli,-1.688698003,1.653861277,-0.008239813,5.87E-05,8,1.39917639,0.491305263,-1.096779417,-0.008239813,5.87E-05,-0.001970266,8
spotify:artist:3whuHq0yGx60atvA2RCVRW,Olly Murs,5.440390249,1.211274041,0.025023187,-0.022259393,0,0.012534389,0.12761952,0.249315668,0.025023187,-0.022259393,0.032351767,0
spotify:artist:3xx17YXYvPl9PBx6Jzalk4,Shelby Lynne,-1.298923281,-1.028287977,-0.013152283,0.001607606,0,-0.327094305,0.013119857,-0.547359054,-0.013152283,0.001607606,0.053553349,0
spotify:artist:3z6Uf5IZkN4TogRpRpgD84,Gary Wright,1.448463309,-1.378138821,-0.01163745,0.000686478,4,-0.732006996,-1.138667124,-1.104116378,-0.01163745,0.000686478,-0.002890934,4
spotify:artist:3zTOe1BtyTkwNvYZOxXktX,Joe,1.296214093,0.604151844,0.018849822,-0.004345838,5,-0.41268422,-0.435499491,1.276279965,0.018849822,-0.004345838,-0.003256363,5
spotify:artist:3zXw2Eh96iTT51pytzHdZi,38 Special,-1.033699867,-2.67402742,-0.011516373,0.000655186,4,-1.983116615,-1.843595443,-1.600619135,-0.011516373,0.000655186,-0.003370439,4
spotify:artist:3zpKjsMg2gw1St5WcWoUJN,EPMD,-4.655856974,7.352121032,0.02561547,0.086085307,1,8.059701058,2.026242764,-2.614041518,0.02561547,0.086085307,0.0084945,1
spotify:artist:40enFxfEXXsEXKOt1vgx0k,Martika,-2.303872448,1.396610817,-0.008851002,0.000140566,8,1.579811416,0.092451984,-2.583282008,-0.008851002,0.000140566,-0.001736046,8
spotify:artist:40xbWSB4JPdOkRyuTDy1oP,Nicole Scherzinger,4.304231941,0.934617989,0.024088337,-0.019263649,0,0.125563369,0.202752231,0.29136389,0.024088337,-0.019263649,0.026030486,0
spotify:artist:42q4Ivs7tAiCZ5C7eG5q4c,Harry Chapin,0.17688325,-1.031740558,-0.011645991,0.000695872,0,-0.495498785,-0.321699227,-0.009032396,-0.011645991,0.000695872,-0.002153961,0
spotify:artist:438JBZR1AR0l04AzcYW9gy,Harold Melvin & The Blue Notes,-0.568899297,-0.584504558,0.010807601,-0.005460307,0,-0.30706816,-0.222512173,-0.114953858,0.010807601,-0.005460307,-0.015478887,0
spotify:artist:43mhFhQ4JAknA7Ik1bOZuV,Pat Benatar,-0.565331221,-2.645739703,-0.011242751,0.000595115,4,-1.370856465,-1.261307179,-1.458695211,-0.011242751,0.000595115,-0.003261877,4
spotify:artist:4463nfFMmK1cwAWBQDwT5e,Laura Branigan,-2.188025332,0.537406838,-0.009077052,0.000168326,8,0.43448876,-0.119638117,-1.759615793,-0.009077052,0.000168326,-0.001666501,8
spotify:artist:44NX2ffIYHr6D4n7RaZF7A,Van Morrison,-0.62151492,-0.106089976,-0.011628593,0.000684495,0,-0.057032226,0.015320335,-0.088447434,-0.011628593,0.000684495,-0.002861399,0
spotify:artist:45KpBChrKYWhTlU6N57ofu,Kix,-3.045458523,-4.918090448,-0.012148197,0.000794077,3,-3.782213543,8.459552307,1.07653664,-0.012148197,0.000794077,-0.004402458,3
spotify:artist:46VWDbmWmzvPBTmkSr25gM,Marsha Ambrosius,-0.576083817,-0.050123707,0.019669211,-0.006048718,0,-0.252393055,-0.238399892,0.491434895,0.019669211,-0.006048718,-0.000685619,0
spotify:artist:46njgd2Rq9tZc4ZjeQMgbh,Boz Scaggs,0.443597811,-2.968875241,-0.011609903,0.000681595,4,-1.901552647,-2.852281385,-2.51529362,-0.011609903,0.000681595,-0.002761543,4
spotify:artist:47qTcvYlqJGAEsCI7BcENC,T'Pau,-0.806734877,-0.206094716,-0.009981755,0.000330406,0,-0.189461046,-0.189916237,-0.554006977,-0.009981755,0.000330406,-0.002603587,0
spotify:artist:485uL27bPomh29R4JmQehQ,Bob Seger,0.178842481,-0.379199675,-0.011699789,0.0006951,0,-0.062997216,0.083505623,0.390199162,-0.011699789,0.0006951,-0.003481489,0
spotify:artist:49Cw140t9jupn4S3udehoP,Y&T,-1.894481837,-3.141743707,-0.012066971,0.000776021,7,-3.358520403,5.343175486,1.582637575,-0.012066971,0.000776021,-0.004262002,7
spotify:artist:49FeZO3eSrJs7oH7lYLU1r,Kelly Price,-0.808461556,-0.61126558,0.019377446,-0.005478125,5,-0.211525627,-0.943404843,2.524658091,0.019377446,-0.005478125,-0.001481625,5
spotify:artist:4Aarr7f0itQ2WFmmiPcriK,Dar Williams,-1.134328985,-0.802321128,-0.013142012,0.001606988,0,-0.566876707,-0.115966709,-0.835155253,-0.013142012,0.001606988,0.053692189,0
spotify:artist:4C3uGP8vRDzxrhJxZiOjTe,Tiffany,-2.303872448,1.396610817,-0.008851002,0.000140566,8,1.579811416,0.092451984,-2.583282008,-0.008851002,0.000140566,-0.001736046,8
spotify:artist:4CYeVo5iZbtYGBN4Isc3n6,Dio,-0.226931568,0.038130198,-0.012059843,0.000774156,0,-0.447297034,0.066963431,0.49753916,-0.012059843,0.000774156,-0.004225649,0
spotify:artist:4D0WfOUqTzqKysXt33VL3j,Michel'le,-0.709580695,0.001200512,0.018065664,-0.003723859,0,0.275804865,-0.130090369,0.584844228,0.018065664,-0.003723859,-0.004418867,0
spotify:artist:4E35ibCNOAXiBdd4OMnlrk,Bulletboys,-1.731555743,-2.57887968,-0.012138439,0.000791895,7,-2.478557265,5.313330815,0.795003135,-0.012138439,0.000791895,-0.004385149,7
spotify:artist:4EGlaDAVZTNNknDdKHrHRp,Red Rider,-0.699813994,-0.409530944,-0.011519302,0.00065531,0,-0.253678173,-0.179021975,-0.34138052,-0.011519302,0.00065531,-0.003488294,0
spotify:artist:4FAEZeJcsYYBkNq2D3KGTV,Three Dog Night,0.019553012,-1.146141935,-0.011682408,0.000695062,0,-0.409585549,-0.169641517,0.323706493,-0.011682408,0.000695062,-0.003059908,0
spotify:artist:4FffNBBwp4PayIiCBeJFPQ,Britny Fox,-1.8317725,-2.640111643,-0.01214281,0.000792875,7,-2.51288585,5.820052746,0.743429179,-0.01214281,0.000792875,-0.004393573,7
spotify:artist:4FtSnMlCVxCswABUmdhwpm,Carly Simon,-1.82076933,-3.396541554,-0.011615777,0.000702621,4,-2.232655752,-2.793134672,-1.584841112,-0.011615777,0.000702621,-0.000889389,4
spotify:artist:4HVmeVTQBgvTuvjB1JYwaf,Gilbert O'Sullivan,-0.639698382,-0.237136844,-0.011489748,0.000661452,0,-0.134449467,-0.105839683,-0.136631158,-0.011489748,0.000661452,-0.002213229,0
spotify:artist:4HgF4KnohByNElYid7iCNb,Bobby V.,1.199268898,0.67856107,0.018835961,-0.004311821,0,-0.152175191,-0.205401285,0.474880082,0.018835961,-0.004311821,-0.003308801,0
spotify:artist:4JCt4xrbbBB9blkKwNlcJ7,"Evelyn ""Champagne"" King",-0.439741877,-0.397131718,0.01113111,-0.005258261,0,-0.147640237,-0.158429699,-0.069027508,0.01113111,-0.005258261,-0.014422874,0
spotify:artist:4KHdmkq99PXA6QEJ2lKpA3,Heavy D & The Boyz,-2.429784811,3.581217013,0.021585779,0.040489168,8,3.978836133,0.917126774,-0.714283772,0.021585779,0.040489168,0.002224832,8
spotify:artist:4L1z1IcfK7lbqx8izGHaw5,Juice Newton,-0.710319546,-0.184752463,-0.009278601,0.000196527,0,-0.052986116,-0.075433003,-0.514932057,-0.009278601,0.000196527,-0.002151501,0
spotify:artist:4M3TtMs03DHCYvzbgzBnyZ,Trixter,-1.123336996,-1.256942582,-0.012147407,0.000793907,7,-1.271637586,2.93567166,0.345535313,-0.012147407,0.000793907,-0.004402463,7
spotify:artist:4M6Z1wubeKtwPqbjJygTOc,Shontelle,5.440390249,1.211274041,0.025023187,-0.022259393,0,0.012534389,0.12761952,0.249315668,0.025023187,-0.022259393,0.032351767,0
spotify:artist:4MT97VeycuegSicrrphisJ,Mint Condition,-0.792863058,-0.41591516,0.018783346,-0.004291814,5,-0.765241124,-1.065098647,1.711005039,0.018783346,-0.004291814,-0.003319787,5
spotify:artist:4MVyzYMgTwdP7Z49wAZHx0,Lynyrd Skynyrd,-0.613152706,-0.336598263,-0.011780677,0.000712963,0,-0.376864962,-0.36202571,-0.221552567,-0.011780677,0.000712963,-0.003552736,0
spotify:artist:4NgNsOXSwIzXlUIJcpnNUp,Sarah McLachlan,-0.83859127,-0.421854789,-0.013114622,0.001600533,0,-0.193303365,0.074478017,-0.585701446,-0.013114622,0.001600533,0.053616974,0
spotify:artist:4O2YL4ygn6eTBC0w1hyWUM,Melanie Fiona,1.824568208,0.149368411,0.019763721,-0.006314586,5,-0.509838836,-0.582562757,1.243994293,0.019763721,-0.006314586,-0.000168767,5
spotify:artist:4Otx4bRLSfpah5kX8hdgDC,Naughty By Nature,-6.916364102,11.08294254,0.02560427,0.085958506,1,8.679812811,2.115405967,-2.842961931,0.02560427,0.085958506,0.00847706,1
spotify:artist:4PI5IHRvANLL76O5gRmGKL,Blue Cheer,-0.428854375,-0.518567532,-0.0119154,0.000742005,0,-0.120694888,-0.043856444,-0.08555596,-0.0119154,0.000742005,-0.003689039,0
spotify:artist:4PpmBoqphQusNFsxuVKb6j,Paula Abdul,-3.525619791,1.459220434,-0.007711412,1.76E-06,8,0.814853559,-0.334105578,-3.439729473,-0.007711412,1.76E-06,-0.002071731,8
spotify:artist:4PrinKSrmILmo0kERG0Ogn,Trina,-0.51237413,-0.199391636,0.019850481,-0.006519597,0,-0.252221458,-0.160680984,0.247217253,0.019850481,-0.006519597,0.000180835,0
spotify:artist:4R2ZUCVWjJs5ef9pjnCVC4,Cherrelle,1.646678416,0.252356781,0.012672694,-0.00519015,0,-0.227927588,-0.446271443,0.459664786,0.012672694,-0.00519015,-0.013306894,0
spotify:artist:4Rx72ewRjxlDGiO6wPHpxe,Kim Richey,-1.489741078,-1.274558953,-0.013183533,0.001624838,0,-0.48089738,-0.072155119,-0.716240056,-0.013183533,0.001624838,0.05455175,0
spotify:artist:4Rxn7Im3LGfyRkY2FlHhWi,Nick Jonas,9.261157025,2.13410052,0.025774553,-0.024709462,0,-0.26194309,-0.060888219,-0.265363956,0.025774553,-0.024709462,0.037573866,0
spotify:artist:4SK1IgkcWWc5HC1TOBq1VS,Mary Gauthier,-1.489741078,-1.274558953,-0.013183533,0.001624838,0,-0.48089738,-0.072155119,-0.716240056,-0.013183533,0.001624838,0.05455175,0
spotify:artist:4ScCswdRlyA23odg9thgIO,Jess Glynne,6.569332299,1.485554241,0.025397396,-0.023479429,0,-0.134487688,0.036766255,0.098799963,0.025397396,-0.023479429,0.034951926,0
spotify:artist:4TKTii6gnOnUXQHyuo9JaD,Sheryl Crow,0.469569552,-1.49943252,-0.013097808,0.001593913,0,-0.124264367,0.067108997,-0.107967938,-0.013097808,0.001593913,0.053324124,0
spotify:artist:4TPWj56uIO4N5puju96P0J,Tommy Page,-0.898437331,0.316622542,-0.008758872,0.000115682,0,0.443104698,0.119431783,-0.669260704,-0.008758872,0.000115682,-0.001856764,0
spotify:artist:4Tw2N3wdvJPGEU7JqMxFfE,Eddie Money,-1.656311696,-2.516906485,-0.01154821,0.00066225,4,-2.064732648,-1.512610013,-1.889621373,-0.01154821,0.00066225,-0.003410867,4
spotify:artist:4TwHRCIu3Xg9fjS3l7owkp,The Gap Band,2.7485577,0.027646873,0.011501424,-0.005389557,5,-1.474824093,-1.314842389,0.14730328,0.011501424,-0.005389557,-0.014774441,5
spotify:artist:4UGMQyNcbGHYg5CDMKkSw3,Az Yet,-0.739463145,0.015466442,0.018553248,-0.003916465,0,0.296003668,-0.177785629,0.770664334,0.018553248,-0.003916465,-0.003626932,0
spotify:artist:4UPcJIhr5K5fPsm4itqT7E,After 7,-3.712797441,5.156688089,0.018204966,-0.003685467,6,6.13635565,-0.869745913,5.761494051,0.018204966,-0.003685467,-0.004106695,6
spotify:artist:4Uv0Jg45Oq7vBXXwQNhXyf,Brick,1.853989368,0.117159617,0.011489056,-0.00540091,5,-1.5532453,-0.735730339,0.685948502,0.011489056,-0.00540091,-0.014829252,5
spotify:artist:4VaFWblR1Rv24L8kAfhtxm,Unlimited Touch,1.709618941,0.664414108,0.011826348,-0.005332744,5,-0.463987698,-0.740149765,0.538322559,0.011826348,-0.005332744,-0.014355655,5
spotify:artist:4VhL8KLjVso4vLfOLVViTb,Bridgit Mendler,10.37706645,2.402863631,0.025776027,-0.024714461,0,-0.139260429,0.017260112,-0.183953707,0.025776027,-0.024714461,0.037584757,0
spotify:artist:4WlSvDKaq1PA2Nr7cCIPxX,Stephen Stills,-0.58658736,-0.846679054,-0.011697502,0.000699162,0,-0.747757025,-0.958618851,-0.77388037,-0.011697502,0.000699162,-0.00294804,0
spotify:artist:4YPqbAiLzBg5DIfsgQZ8QK,Andy Gibb,-1.199854565,-1.398864506,-0.01145907,0.000654737,4,-1.336774045,-1.193788625,-0.22992893,-0.01145907,0.000654737,-0.002234044,4
spotify:artist:4YfnJEbTz8QLD5FusYFwV6,Triumph,-1.408516598,-1.785883257,-0.011877717,0.00073409,4,-1.68945799,-1.321190956,-1.044453319,-0.011877717,0.00073409,-0.003918297,4
spotify:artist:4Ytvi4r3WPIZmEw1Ndmkp9,Tom Browne,0.099822965,0.204554928,0.011336798,-0.005405099,0,-0.22998959,-0.161186,0.034982584,0.011336798,-0.005405099,-0.014931303,0
spotify:artist:4YveAIZNQZBiWbt7iWsvCa,Krokus,-0.987468609,-1.646763091,-0.012040266,0.000770005,7,-2.076621105,2.53290555,1.056052019,-0.012040266,0.000770005,-0.004194646,7
spotify:artist:4ZjFFy2brYzBcYNAPwhW6W,Pat Travers Band,-0.671304215,-1.139693835,-0.011877315,0.000733499,5,-1.272185847,-0.511185811,0.447976295,-0.011877315,0.000733499,-0.003767355,5
spotify:artist:4ZqBwBVB3dsYWL3d5Spi10,Molly Hatchet,-0.320378136,-3.434208899,-0.011766422,0.000710026,4,-2.188181091,-2.024019561,-0.559212937,-0.011766422,0.000710026,-0.003532213,4
spotify:artist:4a7CDXcRCXi4kp5z7SEXtg,Lisa Loeb & Nine Stories,-0.924253555,-0.516032346,-0.013101757,0.001596163,0,-0.274343877,-0.024515904,-0.255970395,-0.013101757,0.001596163,0.053457182,0
spotify:artist:4akj4uteQQrrGxhX9Rjuyf,Craig Mack,-4.655856974,7.352121032,0.02561547,0.086085307,1,8.059701058,2.026242764,-2.614041518,0.02561547,0.086085307,0.0084945,1
spotify:artist:4awU3JRQXIYoxabdwO92AU,Edie Brickell & New Bohemians,-0.83859127,-0.421854789,-0.013114622,0.001600533,0,-0.193303365,0.074478017,-0.585701446,-0.013114622,0.001600533,0.053616974,0
spotify:artist:4bvWv6KDmnNNJCfElUEgsZ,Cheryl Wheeler,-1.489741078,-1.274558953,-0.013183533,0.001624838,0,-0.48089738,-0.072155119,-0.716240056,-0.013183533,0.001624838,0.05455175,0
spotify:artist:4dBOV77d0Fy9KcTZkieXcu,Whodini,-2.993480015,4.543034098,0.025286975,0.082329753,1,5.020525511,1.202349391,-1.201611044,0.025286975,0.082329753,0.007975027,1
spotify:artist:4eAOcbAXIF4BmbN6E1QIlw,Christina Milian,1.647433283,0.570790295,0.020762323,-0.009021327,0,-0.440410754,-0.355807675,0.474379366,0.020762323,-0.009021327,0.00492469,0
spotify:artist:4gQEXxzqwNmQwjU0Wc0Ioe,D-Train,1.709618941,0.664414108,0.011826348,-0.005332744,5,-0.463987698,-0.740149765,0.538322559,0.011826348,-0.005332744,-0.014355655,5
spotify:artist:4hqDqHtBlgxXpLXVYf7c8L,Ashlee Simpson,3.641670814,0.671059722,0.022827821,-0.01502263,0,0.140948913,0.208532962,0.320416874,0.022827821,-0.01502263,0.016814911,0
spotify:artist:4ibNXJiMYOPibpS9DB9Qz3,Slaughter,-2.227894174,-3.266341985,-0.012112073,0.000786049,3,-3.452559803,7.338233416,1.110417484,-0.012112073,0.000786049,-0.004341558,3
spotify:artist:4jrTNltJtTMUfXybDdsHDn,The New Seekers,-0.639698382,-0.237136844,-0.011489748,0.000661452,0,-0.134449467,-0.105839683,-0.136631158,-0.011489748,0.000661452,-0.002213229,0
spotify:artist:4kveDT8ylFciq1mdeYcIvw,Donnie Iris,-0.699813994,-0.409530944,-0.011519302,0.00065531,0,-0.253678173,-0.179021975,-0.34138052,-0.011519302,0.00065531,-0.003488294,0
spotify:artist:4m4SfDVbF5wxrwEjDKgi4k,Cher Lloyd,9.839184388,2.262221964,0.025525081,-0.023896105,0,-0.187185986,-0.013763137,-0.213645911,0.025525081,-0.023896105,0.035840427,0
spotify:artist:4n31svBA9GGIYxGxgrQaRK,George Thorogood & The Destroyers,0.015258528,-1.177585446,-0.011727894,0.000701106,0,-0.617969551,-0.474143421,0.157974406,-0.011727894,0.000701106,-0.003537014,0
spotify:artist:4n7L1vYXp4Dt0HfxaLBj9l,Dazz Band,1.963302669,-0.171896302,0.011386786,-0.005360153,5,-1.723618718,-0.863371909,0.811998593,0.011386786,-0.005360153,-0.014713144,5
spotify:artist:4nDoRrQiYLoBzwC5BhVJzF,Camila Cabello,9.261157025,2.13410052,0.025774553,-0.024709462,0,-0.26194309,-0.060888219,-0.265363956,0.025774553,-0.024709462,0.037573866,0
spotify:artist:4ntkql3f3ect7NDRUJ7aAY,The Cheetah Girls,11.4569174,2.658045707,0.025810541,-0.024827691,0,-0.254772254,-0.063764086,-0.272372031,0.025810541,-0.024827691,0.037826939,0
spotify:artist:4opTS86dN9uO313J9CE8xg,Skid Row,-0.457729322,-0.472948759,-0.012114516,0.000786471,0,-1.322852565,1.378966099,0.824825593,-0.012114516,0.000786471,-0.004334344,0
spotify:artist:4qwGe91Bz9K2T8jXTZ815W,Janet Jackson,-1.235354689,1.394990839,-0.007720754,1.77E-06,8,1.422325859,0.481027538,-0.743292084,-0.007720754,1.77E-06,-0.002083769,8
spotify:artist:4qzZ6bMrjK27yHGVjs4Pvq,Bertie Higgins,-0.67738254,-0.175745504,-0.011385376,0.000639346,0,-0.152230968,-0.133838015,-0.1427168,-0.011385376,0.000639346,-0.002209354,0
spotify:artist:4ryyCNxkhfBSXHx4k2lo3T,Jesse Powell,-0.770586034,-0.152827204,0.018672969,-0.004124992,5,0.163227386,-0.584564507,1.68916236,0.018672969,-0.004124992,-0.003449794,5
spotify:artist:4sD9znwiVFx9cgRPZ42aQ1,Sinéad O'Connor,-0.387921708,0.141610243,-0.013157167,0.001615896,0,0.139794193,0.273047083,-0.137238952,-0.013157167,0.001615896,0.05422941,0
spotify:artist:4sFsq7NFJ0zz0uN3Zb6QJ9,Morris Albert,-1.199854565,-1.398864506,-0.01145907,0.000654737,4,-1.336774045,-1.193788625,-0.22992893,-0.01145907,0.000654737,-0.002234044,4
spotify:artist:4salDzkGmfycRqNUbyBphh,Styx,0.044482837,-1.094364729,-0.011631819,0.000679972,0,-0.576824618,-0.356816331,-0.196682979,-0.011631819,0.000679972,-0.003508443,0
spotify:artist:4sbB4Yy6Qig51pKCIKSLw3,Jaheim,1.082838247,0.177261653,0.018880536,-0.004405382,5,-0.250842374,-0.912023254,2.140873777,0.018880536,-0.004405382,-0.003182851,5
spotify:artist:4sh4MHP7lhrSUakxwZzwqz,Bruce Cockburn,-1.489741078,-1.274558953,-0.013183533,0.001624838,0,-0.48089738,-0.072155119,-0.716240056,-0.013183533,0.001624838,0.05455175,0
spotify:artist:4toEjJSZu1rbfX2hfVdZFA,Boogie Down Productions,-4.100059929,6.411515791,0.025505972,0.084833455,1,7.007955402,1.737262765,-2.124549606,0.025505972,0.084833455,0.008321342,1
spotify:artist:4vRSocKbGh7PsQrYRDVMEF,Lindsay Lohan,4.12665996,0.655836258,0.022502154,-0.013777354,0,0.020282151,0.073967975,0.463990791,0.022502154,-0.013777354,0.013920616,0
spotify:artist:4vpDg7Y7fU982Ds30zawDA,The Band,-0.897911152,-1.00220948,-0.011750495,0.00071043,0,-0.090476336,0.018080504,-0.442853383,-0.011750495,0.00071043,-0.003017731,0
spotify:artist:4wM29TDTr3HI0qFY3KoSFG,Indigo Girls,-0.64686054,-1.356547003,-0.013133171,0.001604373,0,-0.601972613,-0.230117811,-0.616061585,-0.013133171,0.001604373,0.053618576,0
spotify:artist:4wQ3PyMz3WwJGI5uEqHUVR,Allman Brothers Band,-0.346514145,-0.29242572,-0.011843295,0.000726916,0,0.048024846,0.10736656,-0.09472741,-0.011843295,0.000726916,-0.003543668,0
spotify:artist:4xXCRXOfQKQ2gjWxNhNzYW,Air Supply,-0.745989456,-0.071112218,-0.010468738,0.0004406,0,-0.122069904,-0.133449333,-0.471100579,-0.010468738,0.0004406,-0.002420393,0
spotify:artist:4yiQZ8tQPux8cPriYMWUFP,Gwen Stefani,3.168073633,0.657961936,0.023153487,-0.016267906,0,0.227395712,0.27688243,0.309276128,0.023153487,-0.016267906,0.019709206,0
spotify:artist:4zKhX6hYCQPNs406umP9Fx,O-Town,4.12665996,0.655836258,0.022502154,-0.013777354,0,0.020282151,0.073967975,0.463990791,0.022502154,-0.013777354,0.013920616,0
spotify:artist:51l0uqRxGaczYr4271pVIC,The Bangles,-0.78918877,-0.324109435,-0.010285899,0.000394347,0,-0.242997287,-0.207365915,-0.471285102,-0.010285899,0.000394347,-0.002854253,0
spotify:artist:52ik8mwcuZ4ISphAkejj2Z,Ultramagnetic MC's,-5.214194706,8.299925507,0.02559565,0.085856549,1,6.979127944,1.726711521,-2.108364362,0.02559565,0.085856549,0.008462686,1
spotify:artist:530Sdm7eqqzWBdDmILMgnu,Robert Palmer,-0.624273261,-2.185959982,-0.010600108,0.000449985,0,-0.721223578,-0.36809004,-0.864224463,-0.010600108,0.000449985,-0.002984621,0
spotify:artist:533HtQP5btWIZcKlHJtEWK,Christopher Wilde,11.4569174,2.658045707,0.025810541,-0.024827691,0,-0.254772254,-0.063764086,-0.272372031,0.025810541,-0.024827691,0.037826939,0
spotify:artist:53QzNeFpzAaXYnrDBbDrIp,The Isley Brothers,-0.867970825,-0.324019483,0.010588485,-0.00538497,0,-0.268904191,-0.190944997,-0.245077087,0.010588485,-0.00538497,-0.015274996,0
spotify:artist:53RaPTbZOx2mBoZD6LLWIv,Glass Tiger,-1.288927304,-1.37630828,-0.011013739,0.00054734,4,-0.935288367,-0.84004302,-1.179939426,-0.011013739,0.00054734,-0.0030366,4
spotify:artist:53RkHTcl0SJZjpzqogkBf4,The Fixx,-0.333235971,-2.541025478,-0.010747152,0.000474533,0,-0.880452042,-0.524731052,-1.432675912,-0.010747152,0.000474533,-0.003220746,0
spotify:artist:545idYhdloaSlLGBY8E9u2,Cameo,2.6914564,-0.264866079,0.011591831,-0.005374156,5,-1.943299739,-1.271891395,0.585600154,0.011591831,-0.005374156,-0.014660977,5
spotify:artist:54kWB5z9SbenPFQXtBDUBK,Paula DeAnda,4.12665996,0.655836258,0.022502154,-0.013777354,0,0.020282151,0.073967975,0.463990791,0.022502154,-0.013777354,0.013920616,0
spotify:artist:55UamRmLvoS6q7iWPzUrCC,Head East,-0.39688258,-3.144973486,-0.011756906,0.000707908,4,-2.225089019,-1.665620348,-0.876008835,-0.011756906,0.000707908,-0.003552404,4
spotify:artist:55vs7NT1KxcFjbMC4y202E,REO Speedwagon,-1.670306687,-2.256904943,-0.011526349,0.000657265,4,-1.920196263,-0.188541834,-1.420334202,-0.011526349,0.000657265,-0.003439781,4
spotify:artist:57bUPid8xztkieZfS7OlEV,The Supremes,-0.00918149,0.236766272,0.010829536,-0.005571971,0,0.221578755,0.255560634,0.171025283,0.010829536,-0.005571971,-0.015949539,0
spotify:artist:58Dx4HPzeOO3dbpD9YYEes,2 LIVE CREW,-2.993480015,4.543034098,0.025286975,0.082329753,1,5.020525511,1.202349391,-1.201611044,0.025286975,0.082329753,0.007975027,1
spotify:artist:58MLl9nC29IXbE4nEtuoP2,Alex & Sierra,7.621513164,1.729418047,0.025771604,-0.024699464,0,-0.266229277,-0.067532277,-0.224694338,0.025771604,-0.024699464,0.037552085,0
spotify:artist:59KQTERLpPa7M0F25fRH6V,Dinah Jane,9.245336015,2.127575201,0.025741513,-0.02460123,0,-0.022875707,0.098600321,-0.094033939,0.025741513,-0.02460123,0.037342575,0
spotify:artist:59NO6KX7wQCG7jGdtH1NtL,Raheem DeVaughn,-0.640912469,-0.228664974,0.019052659,-0.004681768,5,-0.542916246,-0.795885292,1.433354041,0.019052659,-0.004681768,-0.002901686,5
spotify:artist:59QxeZBL6k9L4oJBGSyukd,The Marshall Tucker Band,-0.046600656,-2.155680868,-0.011737799,0.000704723,4,-1.697606077,-1.976761554,-1.40730185,-0.011737799,0.000704723,-0.003365731,4
spotify:artist:59zdhVoWxSoHMc74n098Re,David Crosby,-0.897911152,-1.00220948,-0.011750495,0.00071043,0,-0.090476336,0.018080504,-0.442853383,-0.011750495,0.00071043,-0.003017731,0
spotify:artist:5AEG63ajney2BoDXi0Vb84,Bad Company,-0.638159418,-0.201820006,-0.011881517,0.000734664,0,-0.277981224,0.150919395,0.028669559,-0.011881517,0.000734664,-0.003832363,0
spotify:artist:5BmXbfqAgfkuTkPlVQDKOW,David Gates,-1.448133869,-2.278256494,-0.011521108,0.000668999,4,-1.587210855,-1.908217127,-1.157290224,-0.011521108,0.000668999,-0.002146422,4
spotify:artist:5CAiy5rDr3LaSoGtJOq6A0,Nanci Griffith,-1.298923281,-1.028287977,-0.013152283,0.001607606,0,-0.327094305,0.013119857,-0.547359054,-0.013152283,0.001607606,0.053553349,0
spotify:artist:5CCwRZC6euC8Odo6y9X8jr,Rita Ora,7.667315621,1.747511996,0.025512102,-0.023853362,0,-0.196314324,-0.020102922,-0.177652008,0.025512102,-0.023853362,0.035748809,0
spotify:artist:5CT7RBitS0e0u78T8tRBWQ,Missing Persons,-0.971893011,-0.830354594,-0.010853768,0.000499034,0,-0.272339767,0.362345941,-0.233944239,-0.010853768,0.000499034,-0.003269801,0
spotify:artist:5FCC6oo9PupahFuLGEPdMB,Tommy Bolin,-0.846015273,-1.600771455,-0.011855346,0.000728787,5,-1.61324548,-0.771123593,0.407062915,-0.011855346,0.000728787,-0.003700094,5
spotify:artist:5GUVj2b1lJ4DolQyHlzyaO,Blind Faith,-0.491620277,-0.589828188,-0.011922202,0.000743665,0,0.039201244,0.128242923,-0.124510506,-0.011922202,0.000743665,-0.003671205,0
spotify:artist:5I6MzhNEMk27cZsCqGAIYo,The Youngbloods,-0.670502085,-1.111396077,-0.011916635,0.000742798,0,-0.039860168,0.090745028,-0.211722217,-0.011916635,0.000742798,-0.003622526,0
spotify:artist:5IDs1CK15HegSAhGEbSYXo,Billy Ocean,-1.136207294,-0.740487491,-0.00570112,-0.000771928,0,0.130879487,-0.322103258,-1.548814813,-0.00570112,-0.000771928,-0.004517143,0
spotify:artist:5KNqYrivNgVCHBssEUSu5B,Donell Jones,0.747666668,0.524070246,0.018803867,-0.004290599,2,0.343458251,-1.877496575,4.895524359,0.018803867,-0.004290599,-0.003286594,2
spotify:artist:5LXEAEGrpKQtpyCu2sZuWu,Oingo Boingo,-1.145706383,-1.109416346,-0.010760172,0.000476496,0,-0.098864912,0.093584951,-0.511161765,-0.010760172,0.000476496,-0.00323946,0
spotify:artist:5NDMothbpdpq2xHqSjrrWn,Faith Evans,2.191962326,0.048264359,0.019431526,-0.005581762,5,-1.028097557,-1.758575857,2.923238278,0.019431526,-0.005581762,-0.001342414,5
spotify:artist:5PN2aHIvLEM98XIorsPMhE,Kim Carnes,-1.255784042,-0.604655691,-0.009902735,0.00032767,0,-0.319421533,-0.453629109,-1.54227969,-0.009902735,0.00032767,-0.002002828,0
spotify:artist:5PYuBRQMHh7nWmdV076sH9,Heaven 17,-0.026150211,-1.262045296,-0.01048647,0.000413287,0,-0.278679655,-0.071002291,-0.452402971,-0.01048647,0.000413287,-0.003193623,0
spotify:artist:5QhsLryFrDbj9IZ38UmMyn,Nice & Smooth,-4.629942226,7.283171764,0.025441313,0.084093151,1,5.957750633,1.448884838,-1.633100395,0.025441313,0.084093151,0.008218856,1
spotify:artist:5QjWgYDeKNP2iPHTdTttnG,Stacie Orrico,4.12665996,0.655836258,0.022502154,-0.013777354,0,0.020282151,0.073967975,0.463990791,0.022502154,-0.013777354,0.013920616,0
spotify:artist:5RNFFojXkPRmlJZIwXeKQC,Bryan Ferry,-0.623144794,-0.06912407,-0.010612951,0.000451846,0,-0.177743002,-0.133515342,-0.313484528,-0.010612951,0.000451846,-0.003001963,0
spotify:artist:5VfqJBmXcf6ZqXoGij5qTE,Tevin Campbell,-3.821184988,4.014014397,0.018443495,-0.003778612,6,6.290530334,-1.128735431,6.824871333,0.018443495,-0.003778612,-0.003711889,6
spotify:artist:5WWSL6rElJeUk3Uc1S2RyD,Dead Or Alive,-0.962887972,-0.399269918,-0.01010231,0.000325333,0,-0.151617644,-0.105853008,-0.756395627,-0.01010231,0.000325333,-0.003166009,0
spotify:artist:5Wbs3NarmOuhdA754hveyb,Patty Larkin,-1.489741078,-1.274558953,-0.013183533,0.001624838,0,-0.48089738,-0.072155119,-0.716240056,-0.013183533,0.001624838,0.05455175,0
spotify:artist:5XDeFQDarnwpR5WAfD6S0d,Warlock,-0.678739078,-0.323550853,-0.01214067,0.000792342,0,-0.604758487,1.132591203,0.212575914,-0.01214067,0.000792342,-0.004384365,0
spotify:artist:5Y5TRrQiqgUO4S36tzjIRZ,Timbaland,3.168073633,0.657961936,0.023153487,-0.016267906,0,0.227395712,0.27688243,0.309276128,0.023153487,-0.016267906,0.019709206,0
spotify:artist:5YE3Wwk5wqQmFXM5qyaM6u,Spooky Tooth,-0.670502085,-1.111396077,-0.011916635,0.000742798,0,-0.039860168,0.090745028,-0.211722217,-0.011916635,0.000742798,-0.003622526,0
spotify:artist:5Z1reBuaReg2pg72I2mnMm,Dave Hollister,0.95688636,0.438712642,0.018893287,-0.00443258,5,-0.649174162,-1.355746655,2.732592737,0.018893287,-0.00443258,-0.003150285,5
spotify:artist:5aEWnrN8h3MhuFUPRfaVuy,Case,0.209666687,1.450515315,0.018777804,-0.004289881,2,2.69531406,-1.847020151,7.015652016,0.018777804,-0.004289881,-0.003224742,2
spotify:artist:5b4SvpTqll0LSqJWPpXya5,Odyssey,-0.806278782,-0.253692158,0.002479471,-0.002970481,0,-0.175031151,-0.24837203,-0.646183394,0.002479471,-0.002970481,-0.00940868,0
spotify:artist:5bDxAyJiTYBat1YnFJhvEK,Joe Walsh,-1.8408606,-3.759791227,-0.011714145,0.000698499,4,-2.121129258,-2.047789714,-0.59334897,-0.011714145,0.000698499,-0.003494454,4
spotify:artist:5bHSSREflcAADAyCMlmxmh,Mtume,1.798902815,0.097194969,0.011940206,-0.005323321,5,-1.041435737,-0.629536295,0.656740507,0.011940206,-0.005323321,-0.014260315,5
spotify:artist:5c9uFWpZY2MTlk7Rft0tgp,Janis Ian,-0.879857976,-0.484488972,-0.012375441,0.001147951,0,-0.535325132,-0.33744758,-0.242144938,-0.012375441,0.001147951,0.025830197,0
spotify:artist:5dbuFbrHa1SJlQhQX9OUJ2,Don Henley,-2.173325055,-3.396931448,-0.011411147,0.000633429,4,-2.03130123,-1.723116457,-2.245515559,-0.011411147,0.000633429,-0.003191445,4
spotify:artist:5dcOK4stT4JDkP6Dqhbz5s,Sheena Easton,-3.028760314,1.664681534,-0.009267374,0.000195717,8,1.1764823,-0.013285714,-3.130577847,-0.009267374,0.000195717,-0.002139073,8
spotify:artist:5fbhwqYYh4YwUoEs582mq5,The Spinners,-1.698808017,-1.240259106,0.010741677,-0.005472334,0,-0.759155787,-0.636485233,-0.42225585,0.010741677,-0.005472334,-0.015566974,0
spotify:artist:5fhMbh4PVSLSODF2fhWwqt,Bad English,-0.807606644,-0.659138299,-0.012050465,0.000772477,0,-0.688965326,1.561569023,0.15631268,-0.012050465,0.000772477,-0.004252067,0
spotify:artist:5gPEo032lzARtzuVqJIm9o,Bobby Goldsboro,-0.861551948,-0.646918227,-0.01150094,0.000663746,0,-0.605180585,-0.536767773,-0.202036321,-0.01150094,0.000663746,-0.002217748,0
spotify:artist:5gxynDEKwNDgxGJmJjZyte,Steve Winwood,-0.542665167,-2.180044187,-0.011353894,0.000621788,4,-1.845967603,-2.535902429,-2.597163956,-0.011353894,0.000621788,-0.00302584,4
spotify:artist:5hfOHpGMsi8O3DA0ROLGqF,James Gang,-0.685923767,-2.992207599,-0.011819057,0.000721092,4,-1.796671737,-1.625756417,-0.215481323,-0.011819057,0.000721092,-0.003611847,4
spotify:artist:5jJcbGPjjyEhAoU02ynHaA,Nelson,-0.759598285,-0.592895857,-0.012143281,0.000792991,0,-0.630159653,1.578304777,0.186796187,-0.012143281,0.000792991,-0.004396475,0
spotify:artist:5jNGQ7VOU87x5402JjhTtd,Deniece Williams,1.369760015,0.097618375,0.012122155,-0.005213537,5,-0.183378257,-0.96554975,1.23878496,0.012122155,-0.005213537,-0.013700051,5
spotify:artist:5jTAPkN0XtPH0cinWMRyzw,The Gregg Allman Band,-0.801061457,-1.145069378,-0.011738206,0.000704975,0,-0.796854201,-0.921412682,-0.70112256,-0.011738206,0.000704975,-0.003349007,0
spotify:artist:5jVeqi3PNaTOajfvBa4uFn,Thompson Twins,-1.981854497,-1.985327968,-0.010485927,0.000414275,4,-0.892755014,-0.582857976,-1.776068175,-0.010485927,0.000414275,-0.003180434,4
spotify:artist:5jWuVnPLmjABrgCGianzs9,Brass Construction,1.490076869,0.41758924,0.011454627,-0.0054045,0,-0.269057063,-0.156754131,0.049247057,0.011454627,-0.0054045,-0.014863713,0
spotify:artist:5km3TReHXRqvDuC83Fw3u7,Dickey Betts,-0.619061522,-0.291257433,-0.01175202,0.000707638,0,-0.224109621,-0.21560959,-0.254471964,-0.01175202,0.000707638,-0.003385287,0
spotify:artist:5l0XyfQLHoWFvINcSaSrSx,Keith Washington,-0.475747738,0.412997802,0.016858923,-0.004062209,5,1.520469732,-0.333494695,1.596702121,0.016858923,-0.004062209,-0.006442301,5
spotify:artist:5lKZWd6HiSCLfnDGrq9RAm,Leona Lewis,5.440390249,1.211274041,0.025023187,-0.022259393,0,0.012534389,0.12761952,0.249315668,0.025023187,-0.022259393,0.032351767,0
spotify:artist:5lckATQU3N7Ralsw3VfnRb,Calvin Richardson,-0.640912469,-0.228664974,0.019052659,-0.004681768,5,-0.542916246,-0.795885292,1.433354041,0.019052659,-0.004681768,-0.002901686,5
spotify:artist:5lkiCO9UQ8B23dZ1o0UV4m,Jackson Browne,1.140258694,-2.43014608,-0.011614522,0.000681675,4,-1.78701955,-2.465567339,-2.004923492,-0.011614522,0.000681675,-0.002844869,4
spotify:artist:5lpH0xAS4fVfLkACg9DAuM,Wham!,-0.949439594,-0.305204609,-0.007703555,-0.000268625,0,-0.11988313,-0.115050245,-0.779718278,-0.007703555,-0.000268625,-0.003825124,0
spotify:artist:5mtKpqeeaFavW15yIX4h5e,Slave,1.853989368,0.117159617,0.011489056,-0.00540091,5,-1.5532453,-0.735730339,0.685948502,0.011489056,-0.00540091,-0.014829252,5
spotify:artist:5n30a5V4ftXNMHCHChmK2h,Young MC,-2.993480015,4.543034098,0.025286975,0.082329753,1,5.020525511,1.202349391,-1.201611044,0.025286975,0.082329753,0.007975027,1
spotify:artist:5nPz5R1FDPTMI3Dw4JnTGb,Exposé,-2.225978228,1.322619832,-0.008758117,0.000130456,8,1.616441606,0.160512934,-2.425616319,-0.008758117,0.000130456,-0.00159772,8
spotify:artist:5oWOx0BBDSMoFB8JDrjQre,Katharine McPhee,4.12665996,0.655836258,0.022502154,-0.013777354,0,0.020282151,0.073967975,0.463990791,0.022502154,-0.013777354,0.013920616,0
spotify:artist:5p7f24Rk5HkUZsaS3BLG5F,Hailee Steinfeld,9.261157025,2.13410052,0.025774553,-0.024709462,0,-0.26194309,-0.060888219,-0.265363956,0.025774553,-0.024709462,0.037573866,0
spotify:artist:5pUo3fmmHT8bhCyHE52hA6,Liam Payne,7.621513164,1.729418047,0.025771604,-0.024699464,0,-0.266229277,-0.067532277,-0.224694338,0.025771604,-0.024699464,0.037552085,0
spotify:artist:5q4AzEtCoYJyXjMMoEkSU5,Bachman-Turner Overdrive,-0.419507844,-3.162153987,-0.011736903,0.000703209,4,-2.108472172,-1.805878408,-0.459385604,-0.011736903,0.000703209,-0.003552526,4
spotify:artist:5q9nLsvWwbSUW1kRyhZLAx,Spirit,-0.670502085,-1.111396077,-0.011916635,0.000742798,0,-0.039860168,0.090745028,-0.211722217,-0.011916635,0.000742798,-0.003622526,0
spotify:artist:5qUHCOUsvVKUpVrMMmztMK,Jeffrey Osborne,2.200958706,-0.095157616,0.013470018,-0.004991186,5,-0.534861519,-0.966572617,0.717902168,0.013470018,-0.004991186,-0.012048256,5
spotify:artist:5qwERxFiC8zCJvnVI8Zkl9,John Cafferty & the Beaver Brown Band,-0.696006291,-0.391489292,-0.011136402,0.000572629,0,-0.215677108,-0.160771636,-0.314599833,-0.011136402,0.000572629,-0.003135942,0
spotify:artist:5r7mGejWrGSxheAYEIfSwI,Troop,-2.460749171,3.629444138,0.018299154,-0.003589905,6,4.11825393,-0.218116147,2.846960127,0.018299154,-0.003589905,-0.003899189,6
spotify:artist:5rOhfAsK4uxq9OdREiQRKa,Dan Hill,-0.94374242,-0.74317613,-0.011434821,0.000649736,0,-0.706591083,-0.6387926,-0.230266788,-0.011434821,0.000649736,-0.002218556,0
spotify:artist:5rScKX1Sh1U67meeUyTGwk,Michelle Branch,4.12665996,0.655836258,0.022502154,-0.013777354,0,0.020282151,0.073967975,0.463990791,0.022502154,-0.013777354,0.013920616,0
spotify:artist:5rkVyNGXEgeUqKkB5ccK83,Ashanti,-0.51237413,-0.199391636,0.019850481,-0.006519597,0,-0.252221458,-0.160680984,0.247217253,0.019850481,-0.006519597,0.000180835,0
spotify:artist:5s4z3mRAE7nxE3jjft8J3h,John Mayall,-0.233539771,-0.070475314,-0.011934571,0.000746194,0,0.205653495,0.269066169,-0.0015479,-0.011934571,0.000746194,-0.00370205,0
spotify:artist:5swBKHtsRDaCBmdpYRYOg1,Jean Carn,1.709618941,0.664414108,0.011826348,-0.005332744,5,-0.463987698,-0.740149765,0.538322559,0.011826348,-0.005332744,-0.014355655,5
spotify:artist:5uFqO7FceiE84xjEjFtQLX,Skyy,1.934754512,0.425199529,0.011668226,-0.005377677,5,-1.491344272,-0.760234614,0.814016319,0.011668226,-0.005377677,-0.014632646,5
spotify:artist:5uSY4FF3dZMCVSkZslKCHi,Michael Schenker Group,-0.661743004,-0.211084977,-0.011892107,0.000737127,0,-0.493099426,0.955367664,0.048677134,-0.011892107,0.000737127,-0.003941064,0
spotify:artist:5wBDD4FNJvob5fAGkAIQ92,Lil' Mo,-0.615814193,-0.090084867,0.019269397,-0.005244809,0,-0.250202002,-0.169488695,0.328584131,0.019269397,-0.005244809,-0.001838026,0
spotify:artist:5xO4f5QyPMYnCPRyRveBSD,El DeBarge,0.167507639,0.102196143,0.013486337,-0.005011831,0,0.157510355,-0.156798484,0.634021214,0.013486337,-0.005011831,-0.01211826,0
spotify:artist:5xQKoGD7Ql92fWd1uWwKkf,Steve Perry,-2.205335834,-2.649487586,-0.011143917,0.000576465,4,-1.229984942,-1.190831294,-1.681190701,-0.011143917,0.000576465,-0.003100384,4
spotify:artist:5xWPOujQqd4wXyB08slZ9Z,Peter Cetera,-1.245638051,-0.619571012,-0.010572751,0.000468034,0,-0.4106815,-0.521347148,-1.343795809,-0.010572751,0.000468034,-0.002206073,0
spotify:artist:5xenrbYhp4IRydrWpBe4Bx,LeToya,1.711636762,0.288845468,0.019777085,-0.006346525,5,-0.590658849,-0.594557091,0.925442023,0.019777085,-0.006346525,-0.000114396,5
spotify:artist:5xuNBZoM7z1Vv8IQ6uM0p6,JoJo,4.304231941,0.934617989,0.024088337,-0.019263649,0,0.125563369,0.202752231,0.29136389,0.024088337,-0.019263649,0.026030486,0
spotify:artist:5yG7ZAZafVaAlMTeBybKAL,Iggy Azalea,3.168073633,0.657961936,0.023153487,-0.016267906,0,0.227395712,0.27688243,0.309276128,0.023153487,-0.016267906,0.019709206,0
spotify:artist:5yzE49FicYiSxN61oaxkNn,Judy Collins,0.198633357,-0.837024468,-0.011653828,0.000702376,0,-0.273613135,-0.015798424,0.227506432,-0.011653828,0.000702376,-0.001695746,0
spotify:artist:5z2cHsOmmmWcAPNG1oEhw0,Xscape,-1.971455008,0.413400912,0.018920457,-0.004571464,2,0.846913485,-2.248991409,6.368159956,0.018920457,-0.004571464,-0.00277459,2
spotify:artist:5zMgvYBz4AW0gFyPtg7fR9,A*Teens,4.12665996,0.655836258,0.022502154,-0.013777354,0,0.020282151,0.073967975,0.463990791,0.022502154,-0.013777354,0.013920616,0
spotify:artist:601893mmW5hl1FBOykWZHG,Deborah Cox,-0.648787662,-0.589573615,0.019600524,-0.005921535,5,-0.755628258,-0.737997112,1.039081313,0.019600524,-0.005921535,-0.000849276,5
spotify:artist:60vX3zLcdKRXvKLITVh5Df,Melanie C,4.12665996,0.655836258,0.022502154,-0.013777354,0,0.020282151,0.073967975,0.463990791,0.022502154,-0.013777354,0.013920616,0
spotify:artist:61UT1Zj9dFgPAjZfwnsqsb,Teena Marie,1.829284177,0.232001383,0.012608471,-0.005184905,5,-0.214120286,-0.939125921,1.206443541,0.012608471,-0.005184905,-0.013319394,5
spotify:artist:62olK5zZHSgFUXGDykgBL8,Ace Frehley,-0.498293526,-0.546471658,-0.012076059,0.000777936,7,-1.545980223,1.834098635,0.924098298,-0.012076059,0.000777936,-0.004268003,7
spotify:artist:62sPt3fswraiEPnKQpAbdE,Bobby Brown,-1.645171289,2.212941204,0.018309997,-0.003010146,8,2.419875667,0.424936755,0.140880133,0.018309997,-0.003010146,-0.003575807,8
spotify:artist:63I04Kj1gXC1LLSVcrOzLN,Will To Power,-0.882836135,0.574902296,-0.008509753,5.06E-05,0,0.528072603,0.236420385,-0.536323263,-0.008509753,5.06E-05,-0.002045608,0
spotify:artist:63wjoROpeh5f11Qm93UiJ1,Keri Hilson,3.172097494,0.718751895,0.020697196,-0.009018533,0,0.00202733,0.012168759,0.58512488,0.020697196,-0.009018533,0.005185873,0
spotify:artist:64CuUOOirKmdAYLQSfaOyr,The Emotions,-1.647158602,-1.119096358,0.010135724,-0.005185453,0,-0.761756945,-0.794138015,-0.371154457,0.010135724,-0.005185453,-0.014667118,0
spotify:artist:64M6ah0SkkRsnPGtGiRAbb,Bebe Rexha,7.621513164,1.729418047,0.025771604,-0.024699464,0,-0.266229277,-0.067532277,-0.224694338,0.025771604,-0.024699464,0.037552085,0
spotify:artist:67ISVBZzcCTTKM17Ps00sx,Chico DeBarge,-0.640912469,-0.228664974,0.019052659,-0.004681768,5,-0.542916246,-0.795885292,1.433354041,0.019052659,-0.004681768,-0.002901686,5
spotify:artist:67PmHOmt1tveILUtasiYAf,B.T. Express,1.557014204,0.459772572,0.01144135,-0.00539877,0,-0.574660741,-0.463590935,0.021802734,0.01144135,-0.00539877,-0.014846605,0
spotify:artist:67SxctqWYOGe8lthWjTDwu,Brownsville Station,-0.65599371,-0.361703497,-0.011812665,0.000719415,0,-0.292506769,-0.200657289,-0.100240242,-0.011812665,0.000719415,-0.003638887,0
spotify:artist:6803XTpoywjl9e37yTvwt7,Frank Marino & Mahogany Rush,-0.671304215,-1.139693835,-0.011877315,0.000733499,5,-1.272185847,-0.511185811,0.447976295,-0.011877315,0.000733499,-0.003767355,5
spotify:artist:68kACMx6A3D2BYiO056MeQ,Teddy Pendergrass,-0.174110176,0.131380949,0.011864523,-0.005300046,5,-0.145756203,-0.56591986,0.749330663,0.011864523,-0.005300046,-0.014216115,5
spotify:artist:695W5F2Ih8dYahLdjVOIoH,Christopher Cross,-0.745989456,-0.071112218,-0.010468738,0.0004406,0,-0.122069904,-0.133449333,-0.471100579,-0.010468738,0.0004406,-0.002420393,0
spotify:artist:698hF4vcwHwPy8ltmXermq,Far East Movement,3.168073633,0.657961936,0.023153487,-0.016267906,0,0.227395712,0.27688243,0.309276128,0.023153487,-0.016267906,0.019709206,0
spotify:artist:69Mj3u4FTUrpyeGNSIaU6F,The J. Geils Band,-1.842144224,-5.488961059,-0.011633463,0.000680695,4,-3.313498905,-3.637909411,-3.013898997,-0.011633463,0.000680695,-0.003456683,4
spotify:artist:6BZbe6PDrJgxiXZ3cIXA8o,General Public,-1.145706383,-1.109416346,-0.010760172,0.000476496,0,-0.098864912,0.093584951,-0.511161765,-0.010760172,0.000476496,-0.00323946,0
spotify:artist:6CsOL9C9iLL0eWKINlDxzQ,Jeru The Damaja,-4.087844032,6.378399621,0.02563529,0.086314064,1,6.960473741,1.719930817,-2.100251042,0.02563529,0.086314064,0.008526315,1
spotify:artist:6CxZzQFUTM6AzgluGwtq5w,Charlie Wilson,0.95688636,0.438712642,0.018893287,-0.00443258,5,-0.649174162,-1.355746655,2.732592737,0.018893287,-0.00443258,-0.003150285,5
spotify:artist:6D01mATo26VaiiCfZzpWAm,The Cover Girls,-0.882836135,0.574902296,-0.008509753,5.06E-05,0,0.528072603,0.236420385,-0.536323263,-0.008509753,5.06E-05,-0.002045608,0
spotify:artist:6D7h7R79IZjqJC2GM2wzyY,Heatwave,2.373915563,-0.393303854,0.011400983,-0.005365118,5,-2.281179462,-1.218269172,0.976993861,0.011400983,-0.005365118,-0.014726821,5
spotify:artist:6DCIj8jNaNpBz8e5oKFPtp,The Cars,-0.540398396,-2.756434847,-0.011288825,0.000602126,4,-1.165137755,-0.975695471,-1.404893503,-0.011288825,0.000602126,-0.003351558,4
spotify:artist:6Dd3NScHWwnW6obMFbl1BH,Daya,7.621513164,1.729418047,0.025771604,-0.024699464,0,-0.266229277,-0.067532277,-0.224694338,0.025771604,-0.024699464,0.037552085,0
spotify:artist:6EFL6smxzRtpwlQvZFldUc,3rd Bass,-4.629942226,7.283171764,0.025441313,0.084093151,1,5.957750633,1.448884838,-1.633100395,0.025441313,0.084093151,0.008218856,1
spotify:artist:6EJmqnuK0r6qiAevFFiNNR,Paul Davis,-1.396754094,-2.737226596,-0.011507564,0.000662827,4,-2.401441907,-2.596873513,-1.347894221,-0.011507564,0.000662827,-0.002440223,4
spotify:artist:6FbDoZnMBTdhhhLuJBOOqP,Jewel,-0.635525695,-0.164780081,-0.01311739,0.001601764,0,-0.14201363,0.096640701,-0.381695135,-0.01311739,0.001601764,0.053678417,0
spotify:artist:6G6iuvTHT1XHUEOw5sbQYm,Hurricane,-1.150765437,-1.427342085,-0.012143592,0.000793051,7,-1.322077377,2.730935666,0.420886798,-0.012143592,0.000793051,-0.004394996,7
spotify:artist:6GlDsAkQHOmNgtUZdJ4Amq,Mary MacGregor,-1.109924423,-1.306598904,-0.011451401,0.000653058,0,-1.219006734,-1.042312778,-0.134398029,-0.011451401,0.000653058,-0.002239248,0
spotify:artist:6HEyD6mSqQQKMVilyU31ZY,Koffee Brown,-0.661826635,0.145141057,0.018873666,-0.004460842,5,0.127882421,-0.208434823,0.941139868,0.018873666,-0.004460842,-0.00296699,5
spotify:artist:6I6t21SFbxZ7RbQgD5dN7U,Carl Thomas,1.7839754,0.437123935,0.019029605,-0.004662482,5,-0.38307471,-1.62443453,3.338416928,0.019029605,-0.004662482,-0.002884923,5
spotify:artist:6IFXsrXBpwbIqtOUOiAa3p,Rick Springfield,-2.369148665,-2.597144774,-0.011122927,0.00057027,4,-1.782117998,-1.794154197,-2.936967784,-0.011122927,0.00057027,-0.003117826,4
spotify:artist:6IRouO5mvvfcyxtPDKMYFN,Foreigner,-0.751575267,-0.469543766,-0.011488338,0.000648387,0,-0.277097118,-0.194331542,-0.365814854,-0.011488338,0.000648387,-0.003437626,0
spotify:artist:6IjhOxJSTPh15KgFTSZ68K,Grand Puba,-5.214194706,8.299925507,0.02559565,0.085856549,1,6.979127944,1.726711521,-2.108364362,0.02559565,0.085856549,0.008462686,1
spotify:artist:6JL8zeS1NmiOftqZTRgdTz,Meghan Trainor,9.261157025,2.13410052,0.025774553,-0.024709462,0,-0.26194309,-0.060888219,-0.265363956,0.025774553,-0.024709462,0.037573866,0
spotify:artist:6JMHws5haIO6V35YNYDnDw,Atomic Kitten,4.12665996,0.655836258,0.022502154,-0.013777354,0,0.020282151,0.073967975,0.463990791,0.022502154,-0.013777354,0.013920616,0
spotify:artist:6KOqPxwfNAmZPkiCnDE9yT,Joe Jackson,-0.623144794,-0.06912407,-0.010612951,0.000451846,0,-0.177743002,-0.133515342,-0.313484528,-0.010612951,0.000451846,-0.003001963,0
spotify:artist:6KzAnKswHOUCX8xiEudD7K,Michael Henderson,1.501619946,0.654553704,0.011620571,-0.005360027,0,-0.415398969,-0.388517795,0.121093891,0.011620571,-0.005360027,-0.014584022,0
spotify:artist:6MLDcHrNh4OqxDZAjMt5pt,Ralph Tresvant,-1.998001831,1.933359771,0.018175673,-0.003433064,6,3.435423983,-0.045487349,2.227637683,0.018175673,-0.003433064,-0.00405448,6
spotify:artist:6PVybt9IzBGmVr8Md7EP08,Black 'N Blue,-0.743628073,-0.482157143,-0.012162915,0.000797361,0,-0.534918992,1.724268546,0.256537229,-0.012162915,0.000797361,-0.004428037,0
spotify:artist:6PWU6JQvvYv5sz5FOODHg6,Fatback Band,1.589756429,0.389028557,0.011505043,-0.005401795,0,-0.580284427,-0.470124314,0.113570646,0.011505043,-0.005401795,-0.014824529,0
spotify:artist:6QtGlUje9TIkLrgPZrESuk,Steve Miller Band,-0.257669394,-2.976234624,-0.011685632,0.000692236,4,-1.331182683,-1.329829144,-1.03446815,-0.011685632,0.000692236,-0.003461377,4
spotify:artist:6RaSfqo4f0b42iNouQeAKK,Tracy Bonham,-0.729918654,-0.28345074,-0.013097197,0.001595482,0,-0.115983054,0.068413755,-0.094446388,-0.013097197,0.001595482,0.053481717,0
spotify:artist:6S2OmqARrzebs0tKUEyXyp,Demi Lovato,12.09516104,2.748301048,0.025779309,-0.024725417,0,-0.524784926,-0.25067093,-0.46110953,0.025779309,-0.024725417,0.037608423,0
spotify:artist:6SLAMfhOi7UJI0fMztaK0m,Rainbow,-0.226931568,0.038130198,-0.012059843,0.000774156,0,-0.447297034,0.066963431,0.49753916,-0.012059843,0.000774156,-0.004225649,0
spotify:artist:6T5tfhQCknKG4UnH90qGnz,DNCE,8.715682719,1.990325949,0.025586711,-0.024096945,0,-0.319425993,-0.102001087,-0.2669977,0.025586711,-0.024096945,0.036268341,0
spotify:artist:6TKOZZDd5uV5KnyC5G4MUt,Smokey Robinson & The Miracles,-0.083700682,0.114232827,0.010792113,-0.005533471,0,0.11663017,0.157581235,0.113183522,0.010792113,-0.005533471,-0.015803481,0
spotify:artist:6TqQLejnHXMGr7KcegxUND,The Miracles,-0.00918149,0.236766272,0.010829536,-0.005571971,0,0.221578755,0.255560634,0.171025283,0.010829536,-0.005571971,-0.015949539,0
spotify:artist:6UfoTQXaV3DuqtDVjZIxwZ,Cheryl Lynn,0.091607451,0.014423884,0.011659808,-0.005263562,0,-0.44308991,-0.565423708,0.084042662,0.011659808,-0.005263562,-0.014158534,0
spotify:artist:6W1BHDF0T4a4KYcSwzD586,k.d. lang,-1.615046271,-1.347704433,-0.013105156,0.001583824,0,-0.794085205,-0.289235101,-1.378348077,-0.013105156,0.001583824,0.052251353,0
spotify:artist:6YHEMoNPbcheiWS2haGzkn,Michael Bolton,-0.745989456,-0.071112218,-0.010468738,0.0004406,0,-0.122069904,-0.133449333,-0.471100579,-0.010468738,0.0004406,-0.002420393,0
spotify:artist:6YPRXu1dazGYcSZv4HJEH4,The Delfonics,-1.017624072,-0.513814214,0.010646537,-0.005409451,0,-0.44599016,-0.389696572,-0.290382451,0.010646537,-0.005409451,-0.015348453,0
spotify:artist:6ZPbX2Lxd40e2UVkXpyxvI,Great White,-3.104468333,-4.973352835,-0.012097776,0.000782843,3,-4.96407025,9.777405485,1.763068353,-0.012097776,0.000782843,-0.004312596,3
spotify:artist:6Zh3xrWlA0SA9Fsfj9AVwm,Wang Chung,-1.560618729,-1.87734644,-0.010814804,0.000496531,0,-0.835388721,0.004307883,-0.797142114,-0.010814804,0.000496531,-0.003080064,0
spotify:artist:6avGAzQTmqu8mfSmZrN7gT,The Moments,-0.663715772,-0.073316583,0.010820695,-0.005482893,0,-0.073286485,0.017799531,-0.067579784,0.010820695,-0.005482893,-0.015568824,0
spotify:artist:6biWAmrHyiMkX49LkycGqQ,Thin Lizzy,-0.226931568,0.038130198,-0.012059843,0.000774156,0,-0.447297034,0.066963431,0.49753916,-0.012059843,0.000774156,-0.004225649,0
spotify:artist:6cLEWhEKQl6nAvgr60M7zC,Beth Orton,-0.387921708,0.141610243,-0.013157167,0.001615896,0,0.139794193,0.273047083,-0.137238952,-0.013157167,0.001615896,0.05422941,0
spotify:artist:6clbbhnIqpHnqxwtOWcilg,Little River Band,1.096767903,-4.602120571,-0.011601926,0.000679261,4,-3.250849964,-4.437964263,-3.494543054,-0.011601926,0.000679261,-0.002831375,4
spotify:artist:6dJeKm76NjfXBNTpHmOhfO,Selena Gomez & The Scene,10.37706645,2.402863631,0.025776027,-0.024714461,0,-0.139260429,0.017260112,-0.183953707,0.025776027,-0.024714461,0.037584757,0
spotify:artist:6dQgkiJm1fRkcqKOvPzysr,Brownstone,-0.86933994,-0.168050318,0.019028814,-0.004765341,5,0.070220603,-0.760712125,2.143228913,0.019028814,-0.004765341,-0.002531909,5
spotify:artist:6dn6x1XOng3LOAnfTjUn77,AJ Mitchell,7.621513164,1.729418047,0.025771604,-0.024699464,0,-0.266229277,-0.067532277,-0.224694338,0.025771604,-0.024699464,0.037552085,0
spotify:artist:6eQHjJJa52LUGjBKP5UPos,Animotion,-0.735175086,-0.424012337,-0.010919974,0.000521916,0,-0.311538825,-0.233280523,-0.289951264,-0.010919974,0.000521916,-0.003093447,0
spotify:artist:6ewMqjrF31lC8ywRsvm073,Nick Lachey,4.12665996,0.655836258,0.022502154,-0.013777354,0,0.020282151,0.073967975,0.463990791,0.022502154,-0.013777354,0.013920616,0
spotify:artist:6fNmOWQzfOVyHLQ2UqUQew,Eva Cassidy,-1.090774647,-0.759490575,-0.013121033,0.001590375,0,-0.158517113,0.115571371,-0.353982812,-0.013121033,0.001590375,0.052554949,0
spotify:artist:6futYSDVulYR2PktBjTB5W,Big Daddy Kane,-5.216468194,7.980118172,0.025564678,0.085502876,1,8.874761412,2.165056943,-2.933396286,0.025564678,0.085502876,0.008413799,1
spotify:artist:6fvN9GmMCVKb5LY0WsnjFP,Nazareth,-0.371262864,-0.298361828,-0.01197068,0.00075441,0,-0.94125098,-0.053595652,0.48413436,-0.01197068,0.00075441,-0.004029006,0
spotify:artist:6fzgnTv8gVkfFhA6V8Qdsh,Wet Willie,-0.849290509,-1.406874403,-0.011721505,0.000702123,4,-0.932812264,-1.164792446,-0.916141091,-0.011721505,0.000702123,-0.003241223,4
spotify:artist:6gkWznnJkdkwRPVcmnrays,Sister Sledge,-1.136207294,-0.740487491,-0.00570112,-0.000771928,0,0.130879487,-0.322103258,-1.548814813,-0.00570112,-0.000771928,-0.004517143,0
spotify:artist:6gl67jXbrwnMYZNZv88MKk,Stetsasonic,-4.629942226,7.283171764,0.025441313,0.084093151,1,5.957750633,1.448884838,-1.633100395,0.025441313,0.084093151,0.008218856,1
spotify:artist:6h29EZDlc2NTvmCUe4yoXV,Ready For The World,-0.709580695,0.001200512,0.018065664,-0.003723859,0,0.275804865,-0.130090369,0.584844228,0.018065664,-0.003723859,-0.004418867,0
spotify:artist:6h3rSZ8VLK7a5vXjEmhfuD,The Brothers Johnson,2.772270049,-0.153345185,0.01132308,-0.005382833,5,-2.289801293,-1.249052634,1.012135684,0.01132308,-0.005382833,-0.014845049,5
spotify:artist:6is2U7I1jlI8PjxNZOHIMV,DeBarge,1.729943713,0.30163476,0.012943908,-0.005130711,5,-0.076207866,-0.76745369,1.135280021,0.012943908,-0.005130711,-0.012910682,5
spotify:artist:6jHG1YQkqgojdEzerwvrVv,Eric B. & Rakim,-4.100059929,6.411515791,0.025505972,0.084833455,1,7.007955402,1.737262765,-2.124549606,0.025505972,0.084833455,0.008321342,1
spotify:artist:6jdObwsrIjSRnBbMw6lPBj,Seals and Crofts,1.360703796,-4.93482016,-0.01161327,0.000684293,4,-2.107535738,-2.606433571,-1.914750767,-0.01161327,0.000684293,-0.002583863,4
spotify:artist:6kEsKkXuE4olX7m3mNLZkS,Art Garfunkel,0.184894461,-1.184888855,-0.011603431,0.000687964,0,-0.428961485,-0.203039713,0.161396711,-0.011603431,0.000687964,-0.002028112,0
spotify:artist:6kz53iCdBSqhQCZ21CoLcc,Culture Club,-0.651552215,-2.24328285,-0.009694245,0.000233711,4,-0.778012752,-0.628193925,-1.971537708,-0.009694245,0.000233711,-0.003115005,4
spotify:artist:6lHL3ubAMgSasKjNqKb8HF,Mýa,0.587874841,-0.684168829,0.019866981,-0.006614282,5,-1.605621734,-1.654186859,1.961090776,0.019866981,-0.006614282,0.000423794,5
spotify:artist:6loBF9iQdE11WSX29fNKqY,Howard Jones,-2.012128257,-1.98307684,-0.010461635,0.000408895,4,-0.8653924,-0.599118131,-1.874610501,-0.010461635,0.000408895,-0.003169915,4
spotify:artist:6ltcwvni6HdZAJaWhmIvNR,Gino Vannelli,-0.616268746,-0.407736658,-0.011623969,0.000684414,0,-0.304207851,-0.331626918,-0.268313835,-0.011623969,0.000684414,-0.002777588,0
spotify:artist:6lx6XS8umFqYRVbBErx9fE,Rosanne Cash,-1.090774647,-0.759490575,-0.013121033,0.001590375,0,-0.158517113,0.115571371,-0.353982812,-0.013121033,0.001590375,0.052554949,0
spotify:artist:6m30rs1IQqnWqV5nKMpU7U,Ohio Players,1.877428876,-0.163964864,0.011350891,-0.005362264,5,-1.647006816,-0.796769248,0.703902909,0.011350891,-0.005362264,-0.01474108,5
spotify:artist:6mQfAAqZGBzIfrmlZCeaYT,Chaka Khan,-0.813959562,-0.278173468,0.002223441,-0.002989415,0,-0.135506517,-0.132035765,-0.570947533,0.002223441,-0.002989415,-0.009634741,0
spotify:artist:6nzxy2wXs6tLgzEtqOkEi2,Monica,1.48816717,-0.108357771,0.019557225,-0.005853471,5,-1.058663931,-1.846632577,3.116136686,0.019557225,-0.005853471,-0.000915329,5
spotify:artist:6pXCjxMOBcWtvULYkFPVW6,The S.O.S Band,1.730649708,0.116943173,0.011818114,-0.00534699,5,-1.351973643,-0.580929887,0.766789155,0.011818114,-0.00534699,-0.014425831,5
spotify:artist:6prESDxZHvHyqqYsHSn0FE,Vince Neil,-1.262369451,-1.307573387,-0.01215076,0.000794645,7,-1.365532051,3.513289383,0.451779211,-0.01215076,0.000794645,-0.004406706,7
spotify:artist:6qI4LTzMRpTxRzMZPvv2C6,Peaches & Herb,-0.629172971,-0.073899611,0.010148003,-0.005206902,0,-0.078422973,-0.008142541,-0.130637798,0.010148003,-0.005206902,-0.014752338,0
spotify:artist:6r1Xmz7YUD4z0VRUoGm8XN,Leon Russell,-0.897911152,-1.00220948,-0.011750495,0.00071043,0,-0.090476336,0.018080504,-0.442853383,-0.011750495,0.00071043,-0.003017731,0
spotify:artist:6rqU9HQ57NYGBnBzbrY3a4,Paul Young,-1.25152439,-0.724499533,-0.010150238,0.000357587,0,-0.439477003,-0.489619136,-1.339842173,-0.010150238,0.000357587,-0.002752527,0
spotify:artist:6sCbFbEjbYepqswM1vWjjs,Zendaya,9.245336015,2.127575201,0.025741513,-0.02460123,0,-0.022875707,0.098600321,-0.094033939,0.025741513,-0.02460123,0.037342575,0
spotify:artist:6scOultrkXrQsClcbGKM7e,The Motels,-1.070754613,-1.001465563,-0.011059755,0.000550151,0,-0.383683808,0.257846026,-0.329772871,-0.011059755,0.000550151,-0.003246192,0
spotify:artist:6sh4WKluS0LOsPdGPerKJ5,Babylon A.D.,-0.743628073,-0.482157143,-0.012162915,0.000797361,0,-0.534918992,1.724268546,0.256537229,-0.012162915,0.000797361,-0.004428037,0
spotify:artist:6twIAGnYuIT1pncMAsXnEm,Commodores,-0.629172971,-0.073899611,0.010148003,-0.005206902,0,-0.078422973,-0.008142541,-0.130637798,0.010148003,-0.005206902,-0.014752338,0
spotify:artist:6vfR5QRc3xca0KvpG8KZBE,Teedra Moses,-0.415819185,-0.052759712,0.019674417,-0.006124919,0,-0.26046693,-0.217517667,0.507785746,0.019674417,-0.006124919,-0.000461508,0
spotify:artist:6vuD08WKtmp1yc7kQx1rBm,The Main Ingredient,-1.017624072,-0.513814214,0.010646537,-0.005409451,0,-0.44599016,-0.389696572,-0.290382451,0.010646537,-0.005409451,-0.015348453,0
spotify:artist:6wPhSqRtPu1UhRCDX5yaDJ,The Pussycat Dolls,3.168073633,0.657961936,0.023153487,-0.016267906,0,0.227395712,0.27688243,0.309276128,0.023153487,-0.016267906,0.019709206,0
spotify:artist:6x33CmZWo2Ve4hxYl2Craq,Foghat,-0.332726482,-2.897051827,-0.011798371,0.000716451,4,-2.092554975,-1.741017358,-0.463224914,-0.011798371,0.000716451,-0.003617866,4
spotify:artist:6x9QLdzo6eBZxJ1bHsDkjg,Sisqo,0.947959718,0.13155911,0.018788469,-0.004240511,5,-0.231223307,-0.707999424,1.616005835,0.018788469,-0.004240511,-0.003310646,5
spotify:artist:6yZoNdsPrYLviaEOOzbZt8,Alexandra Burke,5.440390249,1.211274041,0.025023187,-0.022259393,0,0.012534389,0.12761952,0.249315668,0.025023187,-0.022259393,0.032351767,0
spotify:artist:6yrBBtqX2gKCHCrZOYBDrB,"Peter, Paul and Mary",0.85108712,-1.499617302,-0.011677806,0.000699225,0,-0.06994945,0.136767377,0.34044257,-0.011677806,0.000699225,-0.002496935,0
spotify:artist:6z7wrwE2QW7Keb9ozoF0rg,The Babys,-0.851151536,-0.67932709,-0.011501354,0.000652507,0,-0.403809461,-0.300870463,-0.548472663,-0.011501354,0.000652507,-0.003360724,0
spotify:artist:6zDBeei6hHRiZdAJ6zoTCo,Tweet,1.222453468,0.287457051,0.019645898,-0.006056649,5,-0.638783309,-0.657710212,0.993879619,0.019645898,-0.006056649,-0.000576839,5
spotify:artist:6zpPKMhpOoG646kJgZ7RKf,Johnny Hates Jazz,-1.412226087,-0.738499836,-0.009976088,0.000332125,0,-0.401863123,-0.499209118,-1.620882843,-0.009976088,0.000332125,-0.002307029,0
spotify:artist:702AvACMk5mieXIYlC2Gxx,Pebbles,-1.688133626,1.880384037,-0.008115254,2.62E-05,8,2.017290412,0.539170894,-1.149586733,-0.008115254,2.62E-05,-0.002064688,8
spotify:artist:70FybmH2MMz9fHewhnLvjs,Chris Hillman,-0.558188695,-0.462688774,-0.011670612,0.000693487,0,-0.3475153,-0.405634156,-0.312520448,-0.011670612,0.000693487,-0.002908519,0
spotify:artist:70ZTdbPEcEugBNay4MvxfL,Bread,1.273074777,0.058645746,-0.01162183,0.000686388,0,-0.548868545,-0.601640733,-0.443886266,-0.01162183,0.000686388,-0.002553302,0
spotify:artist:71aKjsWKYqASAffyIQaocZ,Jody Watley,-2.210980475,1.683571496,-0.007672625,-0.000150978,8,1.580686328,0.406627411,-1.863553442,-0.007672625,-0.000150978,-0.002625821,8
spotify:artist:72JEwd3EjDEwTLypkFYJn9,The Outlaws,-1.064702347,-1.85696638,-0.01174846,0.000706179,4,-1.287512189,-1.417110543,-0.968300198,-0.01174846,0.000706179,-0.003485429,4
spotify:artist:72NXpYBIaTfEeAAsxXLs0P,Tony Orlando & Dawn,-0.931341454,-0.886993518,-0.011501006,0.000663506,0,-0.802977322,-0.747186852,-0.291643281,-0.011501006,0.000663506,-0.002245606,0
spotify:artist:72y3ZI95ctkQC2O4mjBaU3,Shai,-3.973237414,4.100693643,0.018530797,-0.003900332,6,6.369802365,-1.170055656,6.899511035,0.018530797,-0.003900332,-0.00360598,6
spotify:artist:73JEBdDEFeVaOLg3y0HhBD,Natalie Merchant,-1.780158106,-1.767545913,-0.013141246,0.00160924,0,-0.979085161,-0.460639933,-0.940615519,-0.013141246,0.00160924,0.053916141,0
spotify:artist:73a6pNH4YtLNgDbPQwXveo,Kim Wilde,-0.700414538,-0.120670554,-0.009315425,0.000191118,0,-0.137261792,-0.108469436,-0.342254637,-0.009315425,0.000191118,-0.002427677,0
spotify:artist:74lTWE4DqbFU3Vn8z4uH72,Lakeside,1.963302669,-0.171896302,0.011386786,-0.005360153,5,-1.723618718,-0.863371909,0.811998593,0.011386786,-0.005360153,-0.014713144,5
spotify:artist:74oJ4qxwOZvX6oSsu1DGnw,Cream,-0.353892066,-0.292180415,-0.011924986,0.000744099,0,0.095427977,0.183156387,-0.045480952,-0.011924986,0.000744099,-0.003695544,0
spotify:artist:75L9s8KVrhCNtBUkZFnDFW,Vanessa Williams,-1.235354689,1.394990839,-0.007720754,1.77E-06,8,1.422325859,0.481027538,-0.743292084,-0.007720754,1.77E-06,-0.002083769,8
spotify:artist:76oeXwztPqAxVg9oqozK3z,Heather Nova,-0.83859127,-0.421854789,-0.013114622,0.001600533,0,-0.193303365,0.074478017,-0.585701446,-0.013114622,0.001600533,0.053616974,0
spotify:artist:772SIFJQiXTCfxncTK1UMn,Aaron Hall,-4.967378662,5.189090333,0.018448381,-0.003869321,6,6.508510042,-1.186331033,7.278124088,0.018448381,-0.003869321,-0.00373031,6
spotify:artist:77HthcNFa6SbicRaQKdhyy,Gwen Guthrie,1.709618941,0.664414108,0.011826348,-0.005332744,5,-0.463987698,-0.740149765,0.538322559,0.011826348,-0.005332744,-0.014355655,5
spotify:artist:77OlE8SkEHDkJczfswzDFo,Chanté Moore,-0.530925829,-0.220109935,0.019253864,-0.005143309,5,-0.489012759,-0.584329058,1.079959686,0.019253864,-0.005143309,-0.002125949,5
spotify:artist:77tBvvyd6SD4Y9Um1xcbxP,Lita Ford,-1.249988571,-1.424469396,-0.01214048,0.000792336,7,-1.754838877,3.546309957,0.621583204,-0.01214048,0.000792336,-0.004387749,7
spotify:artist:77tT1kLj6mCWtFNqiOmP9H,Daryl Hall & John Oates,-0.629688234,-0.265990123,-0.011226389,0.000591452,0,-0.187281303,-0.125141237,-0.22216512,-0.011226389,0.000591452,-0.003206333,0
spotify:artist:77zwstbi3x1IxnbDFg6uns,Wishbone Ash,-0.628653917,-0.32844849,-0.011836832,0.000724728,0,-0.289654529,-0.203973282,-0.089376479,-0.011836832,0.000724728,-0.003652092,0
spotify:artist:78udmCDNaDu5jqfVnBqwia,Melissa Manchester,-1.607939706,-2.007243654,-0.011371599,0.000636712,4,-1.427478748,-1.42771376,-0.537015698,-0.011371599,0.000636712,-0.002196591,4
spotify:artist:7A9yZMTrFZcgEWAX2kBfK6,Huey Lewis & The News,-2.077035282,-2.658888327,-0.011212805,0.000589016,4,-1.123745034,-1.052846348,-1.540175192,-0.011212805,0.000589016,-0.003187811,4
spotify:artist:7Aq8lpLMSt1Zxu56pe9bmp,Jagged Edge,-0.710675998,0.433844623,0.018813169,-0.004294059,2,0.283721658,-1.913229879,5.120363178,0.018813169,-0.004294059,-0.003289687,2
spotify:artist:7BEfMxbaqx6dOpbtlEqScm,Captain & Tennille,-2.169096349,-4.115088937,-0.011487222,0.000660296,4,-2.876955891,-3.078443532,-1.284556853,-0.011487222,0.000660296,-0.002288028,4
spotify:artist:7BFr36uI1dzJyo6tpa5Ued,The Chi-Lites,-1.117010736,-0.56524507,0.01081692,-0.005500718,0,-0.031857989,0.024120263,0.110436737,0.01081692,-0.005500718,-0.015647753,0
spotify:artist:7Bah8E0kCETqEpAHI6CPzQ,Mr. Mister,-2.329973589,-2.552120733,-0.010635199,0.000467758,4,-1.673338023,-1.568597581,-2.963709146,-0.010635199,0.000467758,-0.002763441,4
spotify:artist:7CnmC3gRgLev4I609BrSxj,Lou Gramm,-1.080067512,-1.019030658,-0.01114052,0.000575016,0,-0.271885629,-0.184390538,-0.323793677,-0.01114052,0.000575016,-0.003136785,0
spotify:artist:7DCnwoFMqGN6eZULdcLZeL,Quicksilver Messenger Service,-0.558914767,-0.771076802,-0.011916017,0.000742401,0,-0.302948178,-0.222915673,-0.225552151,-0.011916017,0.000742401,-0.003655782,0
spotify:artist:7G6hXrjGpi6I7waNl4wxAk,J. Holiday,1.047161041,0.217631699,0.018861409,-0.004364584,0,-0.149150097,-0.264432527,0.619023323,0.018861409,-0.004364584,-0.003231699,0
spotify:artist:7GTUAEg2QH41GgTmkIldjh,Miki Howard,1.681909144,0.47873619,0.014122099,-0.004801141,5,0.259558139,-0.877682779,1.707702164,0.014122099,-0.004801141,-0.010958392,5
spotify:artist:7HL4id2U7FSDJtfKQHMgQx,Cinderella,-3.12353835,-5.005212988,-0.012128343,0.000789649,3,-5.286281551,10.97862576,1.711179543,-0.012128343,0.000789649,-0.004367642,3
spotify:artist:7HLvzuM9p11k9lUQfSM4Rq,Warrant,-3.184001195,-5.012005839,-0.012127863,0.000789558,3,-5.235919762,10.92097505,1.710998051,-0.012127863,0.000789558,-0.004368331,3
spotify:artist:7Hd38PVp634oGEb9pIDs5d,Barry Gibb,-0.639698382,-0.237136844,-0.011489748,0.000661452,0,-0.134449467,-0.105839683,-0.136631158,-0.011489748,0.000661452,-0.002213229,0
spotify:artist:7JF6mRd5N8LzsKugg4rcSG,Helix,-1.3290721,-1.609630473,-0.012093473,0.000781881,7,-1.864710206,3.523337694,0.568655194,-0.012093473,0.000781881,-0.004303004,7
spotify:artist:7JKxQCprxXvBwhFrzC73uj,Taylor Dane,-0.882836135,0.574902296,-0.008509753,5.06E-05,0,0.528072603,0.236420385,-0.536323263,-0.008509753,5.06E-05,-0.002045608,0
spotify:artist:7L12TqJ0fbwtFljTbwfwRI,Samantha Mumba,4.12665996,0.655836258,0.022502154,-0.013777354,0,0.020282151,0.073967975,0.463990791,0.022502154,-0.013777354,0.013920616,0
spotify:artist:7LCp4MN0SOIVWlssid9KyE,Mountain,-1.158154657,-1.466080237,-0.011855118,0.000728744,0,-0.836443349,-0.726702801,-0.381510873,-0.011855118,0.000728744,-0.003676041,0
spotify:artist:7LImGq5KnzQobZciDJpeJb,Charlotte Lawrence,7.621513164,1.729418047,0.025771604,-0.024699464,0,-0.266229277,-0.067532277,-0.224694338,0.025771604,-0.024699464,0.037552085,0
spotify:artist:7aHa6IZwZ13FoC5AXFkCSh,The Jones Girls,1.764882198,0.680325988,0.012188506,-0.005268862,5,-0.243531764,-0.786426959,0.878341928,0.012188506,-0.005268862,-0.013894194,5
spotify:artist:7b2jbuy6iMUbuvWrvoxnJW,Trapeze,-0.671304215,-1.139693835,-0.011877315,0.000733499,5,-1.272185847,-0.511185811,0.447976295,-0.011877315,0.000733499,-0.003767355,5
spotify:artist:7b85ve82Sh36a3UAx74wut,Twisted Sister,-1.851240915,-2.218030967,-0.012125979,0.000789078,7,-2.363179731,5.50494924,0.655383777,-0.012125979,0.000789078,-0.004359037,7
spotify:artist:7bKupnlF7XOfR1En3K8oAL,Go West,-0.594482944,-0.542781172,-0.010177037,0.000352186,0,-0.076532637,-0.029058342,-0.474532532,-0.010177037,0.000352186,-0.002956301,0
spotify:artist:7d7q5Y1p2QWS4QRAhTQR5E,Anne Murray,-0.874225136,-0.596721977,-0.011459544,0.000654931,0,-0.582922155,-0.551315011,-0.042343048,-0.011459544,0.000654931,-0.002223158,0
spotify:artist:7emRV8AluG3d4e5T0DZiK9,Loggins & Messina,0.432699678,-3.107608712,-0.011645879,0.000690228,4,-1.961492093,-2.956028735,-2.604143295,-0.011645879,0.000690228,-0.002700933,4
spotify:artist:7fIvjotigTGWqjIz6EP1i4,Four Tops,-0.00918149,0.236766272,0.010829536,-0.005571971,0,0.221578755,0.255560634,0.171025283,0.010829536,-0.005571971,-0.015949539,0
spotify:artist:7gAppWoH7pcYmphCVTXkzs,The Vamps,7.621513164,1.729418047,0.025771604,-0.024699464,0,-0.266229277,-0.067532277,-0.224694338,0.025771604,-0.024699464,0.037552085,0
spotify:artist:7gOdHgIoIKoe4i9Tta6qdD,Jonas Brothers,11.4569174,2.658045707,0.025810541,-0.024827691,0,-0.254772254,-0.063764086,-0.272372031,0.025810541,-0.024827691,0.037826939,0
spotify:artist:7gSjFKpVmDgC2MMsnN8CYq,Jazmine Sullivan,0.636976757,0.190416252,0.019777589,-0.006342048,5,-0.606445461,-0.624782003,0.831884469,0.019777589,-0.006342048,-0.000129553,5
spotify:artist:7gyVuJLsatWofXCAw1SGxM,Jonathan Edwards,-0.346339564,-0.983486213,-0.011667333,0.00069338,0,-0.436082587,-0.614643933,-0.596302311,-0.011667333,0.00069338,-0.002847672,0
spotify:artist:7ihLzUpuNecU5VBkvOUDNq,Damn Yankees,-1.507220032,-2.003742613,-0.012061899,0.000774911,7,-1.995775474,4.392908119,0.51181406,-0.012061899,0.000774911,-0.004254617,7
spotify:artist:7j9PMegEgVN1fNp8NZXNCI,The Edgar Winter Group,-1.095628955,-1.589891546,-0.011770081,0.000710314,4,-1.146463084,-1.134093862,-0.701920657,-0.011770081,0.000710314,-0.00357732,4
spotify:artist:7jM2XoJBKhdL8oNnDr4re9,The Ozark Mountain Daredevils,0.113005801,-2.049522006,-0.011691914,0.000697233,4,-1.304653765,-1.746694302,-1.34617109,-0.011691914,0.000697233,-0.00304613,4
spotify:artist:7jocoSCuCtpCxCI6IbP8ye,Digital Underground,-6.424838847,10.18518959,0.025256377,0.081990608,1,11.51824203,2.958187755,-4.217306572,0.025256377,0.081990608,0.007928957,1
spotify:artist:7kCL98rPFsNKjAHDmWrMac,Nik Kershaw,-1.516523129,-1.146164072,-0.010209232,0.000362318,0,-0.681815538,-0.580334922,-1.652465283,-0.010209232,0.000362318,-0.002954915,0
spotify:artist:7kFyhQTV7cbd3iSYW2yt1Q,Honeymoon Suite,-0.98665353,-0.897527194,-0.011789686,0.0007148,0,-0.539046208,0.737528363,-0.196644898,-0.011789686,0.0007148,-0.003845672,0
spotify:artist:7lQC1mHpO4lvLpN9XYZlIH,Toni Childs,0.469569552,-1.49943252,-0.013097808,0.001593913,0,-0.124264367,0.067108997,-0.107967938,-0.013097808,0.001593913,0.053324124,0
spotify:artist:7liFhc0PDIx8etigqd2WhW,Ruff Endz,1.089794902,0.188585289,0.018786983,-0.004262761,5,-0.240533888,-0.995112354,2.287677786,0.018786983,-0.004262761,-0.003313551,5
spotify:artist:7mldB9nEb6VC2cUj7EcgFw,Kid 'N Play,-2.993480015,4.543034098,0.025286975,0.082329753,1,5.020525511,1.202349391,-1.201611044,0.025286975,0.082329753,0.007975027,1
spotify:artist:7nU4hB040gTmHm45YYMvqc,Hannah Montana,11.4569174,2.658045707,0.025810541,-0.024827691,0,-0.254772254,-0.063764086,-0.272372031,0.025810541,-0.024827691,0.037826939,0
spotify:artist:7nkLRaWHImCvWGHdNGnhVE,Ten Years After,-0.491620277,-0.589828188,-0.011922202,0.000743665,0,0.039201244,0.128242923,-0.124510506,-0.011922202,0.000743665,-0.003671205,0
spotify:artist:7o95ZoZt5ZYn31e9z1Hc0a,Natasha Bedingfield,3.168073633,0.657961936,0.023153487,-0.016267906,0,0.227395712,0.27688243,0.309276128,0.023153487,-0.016267906,0.019709206,0
spotify:artist:7oHzn7edwmrYClrPRINkbn,Johnny Gill,-3.950764015,4.627056707,0.017635305,-0.003796729,6,6.837750196,-0.314407488,4.024123523,0.017635305,-0.003796729,-0.005072053,6
spotify:artist:7ohSq6OUvkH1hkslgXfGMi,The Deele,0.959689965,0.476353694,0.015500849,-0.004430861,5,0.345918021,-0.704143595,1.686671491,0.015500849,-0.004430861,-0.008704926,5
spotify:artist:7peqq4aACFkBwIWGG0YRJ9,Monifah,-0.86933994,-0.168050318,0.019028814,-0.004765341,5,0.070220603,-0.760712125,2.143228913,0.019028814,-0.004765341,-0.002531909,5
spotify:artist:7r8RF1tN2A4CiGEplkp1oP,Ginuwine,1.341251471,0.71211946,0.018836921,-0.00432724,5,-0.382050621,-0.778409027,1.73466053,0.018836921,-0.00432724,-0.003267912,5
spotify:artist:7tLLSEaHMMJPbsYAz8MkEw,Blue Magic,-0.956763837,-0.397990014,0.010812715,-0.005476967,0,-0.380016603,-0.344589023,-0.147991018,0.010812715,-0.005476967,-0.015547158,0
spotify:artist:7tNLRmiAN8hpmFrbIHiHsy,Patty Griffin,-1.134328985,-0.802321128,-0.013142012,0.001606988,0,-0.566876707,-0.115966709,-0.835155253,-0.013142012,0.001606988,0.053692189,0
spotify:artist:7uhvDINTTiD0XBrP9fquN1,The Hooters,-0.696006291,-0.391489292,-0.011136402,0.000572629,0,-0.215677108,-0.160771636,-0.314599833,-0.011136402,0.000572629,-0.003135942,0
spotify:artist:7uwPrVdjss0FyCCTzpLx5A,The Tony Rich Project,-0.739463145,0.015466442,0.018553248,-0.003916465,0,0.296003668,-0.177785629,0.770664334,0.018553248,-0.003916465,-0.003626932,0
spotify:artist:7vRMMs8yrKf4PKUpUllMkr,Mary Jane Girls,1.305747849,0.573282732,0.011515358,-0.005411851,0,-0.741490615,-0.106267109,0.498322471,0.011515358,-0.005411851,-0.014860285,0
spotify:artist:7vWlb4pM85jCHvV771qZZW,Tony! Toni! Toné!,-2.620500822,3.226130508,0.018212912,-0.00341327,1,4.610520199,0.281023451,1.287525711,0.018212912,-0.00341327,-0.003963504,1
spotify:artist:7xAcVHPiirnUqfdqo0USb1,Fantasia,1.49127079,-0.346759985,0.01964541,-0.006023801,5,-1.417954236,-1.373923275,1.414856722,0.01964541,-0.006023801,-0.000681659,5
spotify:artist:7xO0qIeS2GUpnI6nFz041C,Shooting Star,-0.661743004,-0.211084977,-0.011892107,0.000737127,0,-0.493099426,0.955367664,0.048677134,-0.011892107,0.000737127,-0.003941064,0
spotify:artist:7xkAwz0bQTGDSbkofyQt3U,Belinda Carlisle,-3.594395191,2.011518795,-0.009304153,0.000190331,8,1.952334746,0.053821708,-3.538957995,-0.009304153,0.000190331,-0.002413653,8
spotify:artist:7ynDETvwFfaLOGPz143R31,O'Bryan,1.272159901,0.485130837,0.011572456,-0.005403902,0,-0.278377411,-0.180020375,0.027270146,0.011572456,-0.005403902,-0.014796122,0
spotify:artist:7z1zaOeWiHpl4SD2N9ZBgk,Bloodstone,-0.812487079,-0.241629859,0.010841727,-0.005467966,0,-0.214110014,-0.138623372,-0.080100481,0.010841727,-0.005467966,-0.015492025,0
